{
"type": "FeatureCollection",
"crs": { "type": "name", "properties": { "name": "urn:ogc:def:crs:OGC:1.3:CRS84" } },
"xy_coordinate_resolution": 0.0001,
"features": [
{ "type": "Feature", "properties": { "district": "Aizwal", "did": "mizoram:Aizwal", "state_key": "mizoram" }, "geometry": { "type": "Polygon", "coordinates": [ [ [ 92.8839, 23.5685 ], [ 92.8823, 23.5581 ], [ 92.8685, 23.5547 ], [ 92.8526, 23.5742 ], [ 92.8345, 23.5761 ], [ 92.8223, 23.588 ], [ 92.8213, 23.6178 ], [ 92.8107, 23.6277 ], [ 92.813, 23.6403 ], [ 92.7901, 23.6447 ], [ 92.7856, 23.6001 ], [ 92.7692, 23.5944 ], [ 92.772, 23.565 ], [ 92.7773, 23.5564 ], [ 92.7973, 23.5505 ], [ 92.802, 23.5391 ], [ 92.7945, 23.5266 ], [ 92.7995, 23.4795 ], [ 92.8354, 23.4676 ], [ 92.8365, 23.441 ], [ 92.8212, 23.3861 ], [ 92.8309, 23.3842 ], [ 92.8224, 23.3709 ], [ 92.833, 23.3625 ], [ 92.8403, 23.3363 ], [ 92.8259, 23.3343 ], [ 92.8135, 23.3255 ], [ 92.7793, 23.327 ], [ 92.7696, 23.3357 ], [ 92.7517, 23.3417 ], [ 92.7405, 23.3391 ], [ 92.7314, 23.3449 ], [ 92.733, 23.3494 ], [ 92.7213, 23.351 ], [ 92.7151, 23.3489 ], [ 92.7192, 23.3465 ], [ 92.7134, 23.3217 ], [ 92.7006, 23.3196 ], [ 92.6944, 23.3274 ], [ 92.6831, 23.3227 ], [ 92.6871, 23.3551 ], [ 92.682, 23.3683 ], [ 92.6712, 23.3678 ], [ 92.6761, 23.3794 ], [ 92.6643, 23.3921 ], [ 92.6676, 23.4032 ], [ 92.6567, 23.4247 ], [ 92.6527, 23.4875 ], [ 92.6588, 23.5018 ], [ 92.6538, 23.5202 ], [ 92.6393, 23.5236 ], [ 92.6334, 23.538 ], [ 92.6442, 23.5552 ], [ 92.6566, 23.5619 ], [ 92.6591, 23.5713 ], [ 92.6493, 23.5904 ], [ 92.6696, 23.6022 ], [ 92.6744, 23.6202 ], [ 92.6513, 23.63 ], [ 92.6354, 23.6554 ], [ 92.6666, 23.7078 ], [ 92.6487, 23.7178 ], [ 92.6346, 23.7581 ], [ 92.6258, 23.7636 ], [ 92.6369, 23.7716 ], [ 92.6404, 23.7864 ], [ 92.6387, 23.7947 ], [ 92.6234, 23.7972 ], [ 92.6325, 23.8163 ], [ 92.6432, 23.8052 ], [ 92.6544, 23.8193 ], [ 92.6454, 23.8192 ], [ 92.6441, 23.8291 ], [ 92.6629, 23.8367 ], [ 92.6412, 23.8731 ], [ 92.6401, 23.895 ], [ 92.6519, 23.8996 ], [ 92.65, 23.8918 ], [ 92.6618, 23.8814 ], [ 92.6625, 23.8679 ], [ 92.6799, 23.8672 ], [ 92.6956, 23.8558 ], [ 92.7084, 23.8618 ], [ 92.7492, 23.8459 ], [ 92.7768, 23.8522 ], [ 92.7983, 23.8491 ], [ 92.806, 23.886 ], [ 92.8174, 23.8962 ], [ 92.8219, 23.9121 ], [ 92.8066, 23.9196 ], [ 92.8186, 23.935 ], [ 92.815, 23.9388 ], [ 92.8225, 23.9534 ], [ 92.8161, 23.9664 ], [ 92.8267, 23.9861 ], [ 92.8208, 23.9941 ], [ 92.8313, 24.0237 ], [ 92.8389, 24.0151 ], [ 92.8458, 24.0268 ], [ 92.8417, 24.0331 ], [ 92.8475, 24.0349 ], [ 92.8446, 24.0547 ], [ 92.8543, 24.0731 ], [ 92.8554, 24.0998 ], [ 92.8586, 24.1072 ], [ 92.8676, 24.1097 ], [ 92.8661, 24.1186 ], [ 92.8765, 24.1303 ], [ 92.8715, 24.1401 ], [ 92.8819, 24.1547 ], [ 92.8819, 24.1704 ], [ 92.8908, 24.1738 ], [ 92.9003, 24.226 ], [ 92.8881, 24.2456 ], [ 92.8796, 24.2332 ], [ 92.8709, 24.243 ], [ 92.8591, 24.2436 ], [ 92.8645, 24.2523 ], [ 92.8585, 24.2587 ], [ 92.8652, 24.2624 ], [ 92.8602, 24.268 ], [ 92.8722, 24.2776 ], [ 92.8724, 24.2869 ], [ 92.8621, 24.3086 ], [ 92.8543, 24.3065 ], [ 92.856, 24.3151 ], [ 92.8497, 24.3164 ], [ 92.8373, 24.2993 ], [ 92.8174, 24.2961 ], [ 92.8116, 24.2993 ], [ 92.8117, 24.3116 ], [ 92.796, 24.3244 ], [ 92.7791, 24.3115 ], [ 92.7647, 24.3167 ], [ 92.772, 24.3256 ], [ 92.7668, 24.3292 ], [ 92.7685, 24.3403 ], [ 92.7803, 24.3454 ], [ 92.7725, 24.3541 ], [ 92.7796, 24.3552 ], [ 92.7794, 24.3717 ], [ 92.7847, 24.3746 ], [ 92.7773, 24.3852 ], [ 92.7856, 24.3912 ], [ 92.7971, 24.4327 ], [ 92.8027, 24.4247 ], [ 92.7994, 24.4191 ], [ 92.8068, 24.4188 ], [ 92.8124, 24.4093 ], [ 92.8189, 24.4101 ], [ 92.8202, 24.4037 ], [ 92.8299, 24.4003 ], [ 92.8231, 24.3865 ], [ 92.8296, 24.3736 ], [ 92.8434, 24.3779 ], [ 92.8609, 24.3985 ], [ 92.8733, 24.3949 ], [ 92.8837, 24.4024 ], [ 92.8915, 24.4004 ], [ 92.893, 24.3927 ], [ 92.9029, 24.3911 ], [ 92.9093, 24.4129 ], [ 92.9337, 24.3923 ], [ 92.9391, 24.4006 ], [ 92.9512, 24.403 ], [ 92.9602, 24.3919 ], [ 92.9748, 24.4085 ], [ 93.0204, 24.3879 ], [ 93.0131, 24.3774 ], [ 93.0181, 24.3716 ], [ 93.0175, 24.3442 ], [ 93.0393, 24.3407 ], [ 93.0312, 24.3158 ], [ 93.007, 24.2855 ], [ 93.0098, 24.2691 ], [ 93.0026, 24.2514 ], [ 93.0225, 24.23 ], [ 93.0153, 24.2263 ], [ 93.0195, 24.215 ], [ 93.0125, 24.1974 ], [ 92.9989, 24.195 ], [ 93.0067, 24.1796 ], [ 92.9991, 24.1715 ], [ 93.0013, 24.1581 ], [ 92.9889, 24.1507 ], [ 92.9852, 24.1293 ], [ 92.9694, 24.1214 ], [ 92.9707, 24.1145 ], [ 92.9922, 24.1142 ], [ 93.0099, 24.102 ], [ 93.0494, 24.088 ], [ 93.0752, 24.1003 ], [ 93.0979, 24.0713 ], [ 93.0965, 24.0423 ], [ 93.1249, 24.0613 ], [ 93.1378, 24.084 ], [ 93.154, 24.081 ], [ 93.1654, 24.0722 ], [ 93.1583, 24.005 ], [ 93.1741, 23.9748 ], [ 93.1819, 23.9718 ], [ 93.182, 23.9524 ], [ 93.1902, 23.9413 ], [ 93.1876, 23.93 ], [ 93.17, 23.9345 ], [ 93.1652, 23.9311 ], [ 93.1563, 23.9089 ], [ 93.1696, 23.8776 ], [ 93.1639, 23.8755 ], [ 93.1626, 23.857 ], [ 93.1378, 23.8423 ], [ 93.1329, 23.8264 ], [ 93.0914, 23.8298 ], [ 93.0589, 23.8043 ], [ 93.0629, 23.7941 ], [ 93.0539, 23.7891 ], [ 93.0101, 23.8029 ], [ 93.0162, 23.7926 ], [ 93.0218, 23.7932 ], [ 93.0258, 23.7522 ], [ 93.0332, 23.7392 ], [ 93.024, 23.7326 ], [ 93.0312, 23.6938 ], [ 93.024, 23.6851 ], [ 93.0326, 23.6472 ], [ 93.0279, 23.5971 ], [ 93.0394, 23.519 ], [ 93.0177, 23.51 ], [ 93.0098, 23.4916 ], [ 92.9962, 23.479 ], [ 92.9792, 23.4921 ], [ 92.9841, 23.5122 ], [ 92.9613, 23.5326 ], [ 92.9484, 23.5547 ], [ 92.9365, 23.5602 ], [ 92.9099, 23.561 ], [ 92.8969, 23.5717 ], [ 92.899, 23.5779 ], [ 92.8839, 23.5685 ] ] ] } },
{ "type": "Feature", "properties": { "district": "Champhai", "did": "mizoram:Champhai", "state_key": "mizoram" }, "geometry": { "type": "Polygon", "coordinates": [ [ [ 93.1461, 23.2022 ], [ 93.1365, 23.2168 ], [ 93.1054, 23.2404 ], [ 93.0827, 23.2261 ], [ 93.0691, 23.2298 ], [ 93.0543, 23.2435 ], [ 93.0385, 23.2368 ], [ 93.0342, 23.2449 ], [ 93.0429, 23.2497 ], [ 93.0323, 23.2544 ], [ 93.0308, 23.2658 ], [ 93.0185, 23.2685 ], [ 93.0069, 23.282 ], [ 93.0058, 23.3048 ], [ 93.0319, 23.3268 ], [ 93.049, 23.3716 ], [ 93.0325, 23.3977 ], [ 93.0533, 23.4029 ], [ 93.0665, 23.3971 ], [ 93.0741, 23.4011 ], [ 93.0857, 23.4333 ], [ 93.0989, 23.4465 ], [ 93.0978, 23.451 ], [ 93.0779, 23.4561 ], [ 93.07, 23.465 ], [ 93.0817, 23.4693 ], [ 93.0775, 23.4781 ], [ 93.0605, 23.4773 ], [ 93.0446, 23.4854 ], [ 93.034, 23.4737 ], [ 93.023, 23.4707 ], [ 93.0025, 23.4834 ], [ 93.0177, 23.51 ], [ 93.033, 23.5138 ], [ 93.0409, 23.5239 ], [ 93.0285, 23.5903 ], [ 93.0326, 23.6472 ], [ 93.024, 23.6847 ], [ 93.0312, 23.6938 ], [ 93.024, 23.7326 ], [ 93.0332, 23.7392 ], [ 93.0258, 23.7522 ], [ 93.0218, 23.7932 ], [ 93.0097, 23.8011 ], [ 93.0555, 23.7896 ], [ 93.0629, 23.7941 ], [ 93.0589, 23.8043 ], [ 93.0909, 23.8296 ], [ 93.1329, 23.8264 ], [ 93.1378, 23.8423 ], [ 93.1626, 23.857 ], [ 93.1639, 23.8755 ], [ 93.1697, 23.8778 ], [ 93.1563, 23.9089 ], [ 93.1658, 23.9318 ], [ 93.1876, 23.93 ], [ 93.1902, 23.9413 ], [ 93.182, 23.9524 ], [ 93.1819, 23.9718 ], [ 93.1741, 23.9748 ], [ 93.1583, 24.005 ], [ 93.1646, 24.0501 ], [ 93.1895, 24.0533 ], [ 93.2122, 24.0471 ], [ 93.2193, 24.081 ], [ 93.2378, 24.0835 ], [ 93.2591, 24.0697 ], [ 93.262, 24.0572 ], [ 93.2478, 24.0308 ], [ 93.2506, 24.0207 ], [ 93.2693, 24.0308 ], [ 93.2835, 24.0484 ], [ 93.3258, 24.0504 ], [ 93.3276, 24.0424 ], [ 93.3379, 24.0406 ], [ 93.3259, 24.0299 ], [ 93.339, 24.0215 ], [ 93.3296, 24.0204 ], [ 93.3375, 23.9897 ], [ 93.3289, 23.9848 ], [ 93.3342, 23.9851 ], [ 93.3333, 23.9791 ], [ 93.3395, 23.9806 ], [ 93.3367, 23.9759 ], [ 93.3433, 23.9751 ], [ 93.341, 23.9698 ], [ 93.3511, 23.9617 ], [ 93.3508, 23.9416 ], [ 93.3612, 23.9448 ], [ 93.3689, 23.9302 ], [ 93.3807, 23.9345 ], [ 93.3943, 23.9243 ], [ 93.385, 23.8481 ], [ 93.3901, 23.8177 ], [ 93.4033, 23.807 ], [ 93.3916, 23.7567 ], [ 93.411, 23.7294 ], [ 93.4073, 23.7072 ], [ 93.4194, 23.7015 ], [ 93.4273, 23.6881 ], [ 93.4369, 23.687 ], [ 93.4165, 23.6476 ], [ 93.4246, 23.6295 ], [ 93.4205, 23.6116 ], [ 93.4286, 23.5883 ], [ 93.4221, 23.5714 ], [ 93.4147, 23.5712 ], [ 93.4098, 23.5636 ], [ 93.4185, 23.54 ], [ 93.4088, 23.5173 ], [ 93.3947, 23.5038 ], [ 93.3925, 23.4788 ], [ 93.3993, 23.4719 ], [ 93.3922, 23.4574 ], [ 93.3948, 23.4481 ], [ 93.3905, 23.4507 ], [ 93.388, 23.4464 ], [ 93.3883, 23.4208 ], [ 93.4016, 23.3837 ], [ 93.3865, 23.3741 ], [ 93.3912, 23.37 ], [ 93.3876, 23.3594 ], [ 93.3558, 23.3519 ], [ 93.3581, 23.3423 ], [ 93.3729, 23.3294 ], [ 93.3669, 23.3222 ], [ 93.3716, 23.3135 ], [ 93.3638, 23.3132 ], [ 93.3716, 23.3096 ], [ 93.3651, 23.3063 ], [ 93.3699, 23.2872 ], [ 93.3626, 23.2791 ], [ 93.3692, 23.2761 ], [ 93.3657, 23.2692 ], [ 93.3736, 23.2613 ], [ 93.3695, 23.2504 ], [ 93.3766, 23.2479 ], [ 93.3813, 23.2243 ], [ 93.3886, 23.2169 ], [ 93.3806, 23.2153 ], [ 93.3755, 23.2042 ], [ 93.3806, 23.1866 ], [ 93.3686, 23.1753 ], [ 93.3682, 23.1441 ], [ 93.3783, 23.1407 ], [ 93.3865, 23.1441 ], [ 93.3856, 23.1338 ], [ 93.3775, 23.1326 ], [ 93.3632, 23.1149 ], [ 93.3557, 23.1161 ], [ 93.3543, 23.0968 ], [ 93.3446, 23.0918 ], [ 93.3393, 23.0738 ], [ 93.3521, 23.0704 ], [ 93.3408, 23.0677 ], [ 93.3432, 23.0582 ], [ 93.3346, 23.0595 ], [ 93.3336, 23.0486 ], [ 93.3274, 23.0475 ], [ 93.3139, 23.0194 ], [ 93.3045, 23.0202 ], [ 93.2935, 23.0064 ], [ 93.275, 23.0039 ], [ 93.2712, 23.0107 ], [ 93.2469, 23.0066 ], [ 93.2295, 23.0116 ], [ 93.2298, 23.0199 ], [ 93.215, 23.0273 ], [ 93.2099, 23.0485 ], [ 93.2015, 23.0549 ], [ 93.1882, 23.0522 ], [ 93.1855, 23.0592 ], [ 93.1767, 23.0603 ], [ 93.1704, 23.0772 ], [ 93.1752, 23.0812 ], [ 93.1628, 23.1015 ], [ 93.1728, 23.1408 ], [ 93.1611, 23.1757 ], [ 93.1453, 23.1847 ], [ 93.1455, 23.1903 ], [ 93.1618, 23.1938 ], [ 93.1589, 23.201 ], [ 93.1461, 23.2022 ] ] ] } },
{ "type": "Feature", "properties": { "district": "Kolasib", "did": "mizoram:Kolasib", "state_key": "mizoram" }, "geometry": { "type": "Polygon", "coordinates": [ [ [ 92.8543, 24.0731 ], [ 92.8461, 24.0641 ], [ 92.8458, 24.0268 ], [ 92.8389, 24.0151 ], [ 92.8313, 24.0237 ], [ 92.8208, 23.9941 ], [ 92.8267, 23.9861 ], [ 92.8161, 23.9664 ], [ 92.8225, 23.9534 ], [ 92.815, 23.9388 ], [ 92.8186, 23.935 ], [ 92.8066, 23.9196 ], [ 92.8219, 23.9121 ], [ 92.8174, 23.8962 ], [ 92.806, 23.886 ], [ 92.7983, 23.8491 ], [ 92.7768, 23.8522 ], [ 92.7492, 23.8459 ], [ 92.7262, 23.8511 ], [ 92.7087, 23.8618 ], [ 92.6956, 23.8558 ], [ 92.6799, 23.8672 ], [ 92.6625, 23.8679 ], [ 92.6618, 23.8814 ], [ 92.65, 23.8918 ], [ 92.661, 23.9053 ], [ 92.6591, 23.9167 ], [ 92.6441, 23.9223 ], [ 92.6419, 23.9305 ], [ 92.6213, 23.9373 ], [ 92.6291, 23.9455 ], [ 92.6204, 23.9623 ], [ 92.6329, 23.9983 ], [ 92.6186, 24.0124 ], [ 92.6287, 24.0326 ], [ 92.6363, 24.0351 ], [ 92.6245, 24.043 ], [ 92.622, 24.032 ], [ 92.6117, 24.0519 ], [ 92.6011, 24.0523 ], [ 92.5932, 24.0628 ], [ 92.5856, 24.0637 ], [ 92.5862, 24.0757 ], [ 92.5808, 24.0775 ], [ 92.5716, 24.0759 ], [ 92.5737, 24.0533 ], [ 92.5661, 24.0411 ], [ 92.5588, 24.0409 ], [ 92.5636, 24.0544 ], [ 92.552, 24.0634 ], [ 92.5498, 24.0424 ], [ 92.5382, 24.0357 ], [ 92.5366, 24.1097 ], [ 92.5437, 24.1248 ], [ 92.536, 24.1271 ], [ 92.5452, 24.1418 ], [ 92.5269, 24.1656 ], [ 92.5364, 24.1754 ], [ 92.5311, 24.1851 ], [ 92.5471, 24.2202 ], [ 92.5507, 24.247 ], [ 92.5721, 24.2519 ], [ 92.606, 24.2485 ], [ 92.6142, 24.256 ], [ 92.6248, 24.3341 ], [ 92.6357, 24.3367 ], [ 92.6387, 24.3284 ], [ 92.6495, 24.3287 ], [ 92.6612, 24.3481 ], [ 92.6845, 24.3464 ], [ 92.6898, 24.3536 ], [ 92.763, 24.5211 ], [ 92.7971, 24.4327 ], [ 92.7856, 24.3912 ], [ 92.7773, 24.3852 ], [ 92.7847, 24.3746 ], [ 92.7794, 24.3717 ], [ 92.7796, 24.3552 ], [ 92.7725, 24.3541 ], [ 92.7803, 24.3454 ], [ 92.7685, 24.3403 ], [ 92.7668, 24.3292 ], [ 92.772, 24.3256 ], [ 92.7647, 24.3167 ], [ 92.7791, 24.3115 ], [ 92.796, 24.3244 ], [ 92.8117, 24.3116 ], [ 92.8116, 24.2993 ], [ 92.8174, 24.2961 ], [ 92.8373, 24.2993 ], [ 92.8497, 24.3164 ], [ 92.856, 24.3151 ], [ 92.8543, 24.3065 ], [ 92.8621, 24.3086 ], [ 92.8724, 24.2869 ], [ 92.8722, 24.2776 ], [ 92.8602, 24.268 ], [ 92.8652, 24.2624 ], [ 92.8585, 24.2587 ], [ 92.8645, 24.2523 ], [ 92.8591, 24.2436 ], [ 92.8709, 24.243 ], [ 92.8796, 24.2332 ], [ 92.8881, 24.2456 ], [ 92.8993, 24.2308 ], [ 92.8911, 24.1749 ], [ 92.8819, 24.1704 ], [ 92.8819, 24.1547 ], [ 92.8715, 24.1401 ], [ 92.8765, 24.1303 ], [ 92.8661, 24.1186 ], [ 92.8676, 24.1097 ], [ 92.8586, 24.1072 ], [ 92.8543, 24.0731 ] ] ] } },
{ "type": "Feature", "properties": { "district": "Lawngtlai", "did": "mizoram:Lawngtlai", "state_key": "mizoram" }, "geometry": { "type": "MultiPolygon", "coordinates": [ [ [ [ 92.6616, 22.6172 ], [ 92.6693, 22.6245 ], [ 92.6963, 22.622 ], [ 92.6904, 22.6103 ], [ 92.6933, 22.5914 ], [ 92.7063, 22.5824 ], [ 92.7099, 22.5853 ], [ 92.7197, 22.5641 ], [ 92.7351, 22.5595 ], [ 92.7522, 22.5449 ], [ 92.7535, 22.5123 ], [ 92.7606, 22.4969 ], [ 92.769, 22.5031 ], [ 92.7769, 22.497 ], [ 92.7725, 22.5277 ], [ 92.7812, 22.5333 ], [ 92.7765, 22.5366 ], [ 92.7824, 22.5457 ], [ 92.7959, 22.5521 ], [ 92.8031, 22.5695 ], [ 92.7959, 22.5978 ], [ 92.8057, 22.6291 ], [ 92.8372, 22.6254 ], [ 92.8493, 22.6096 ], [ 92.8625, 22.6041 ], [ 92.8619, 22.599 ], [ 92.875, 22.5951 ], [ 92.8771, 22.5841 ], [ 92.8947, 22.5849 ], [ 92.9113, 22.5473 ], [ 92.9312, 22.5556 ], [ 92.9387, 22.5369 ], [ 92.9308, 22.4844 ], [ 92.9442, 22.4668 ], [ 92.9347, 22.4587 ], [ 92.9372, 22.441 ], [ 92.9501, 22.4036 ], [ 92.9653, 22.3923 ], [ 92.9536, 22.3722 ], [ 92.9328, 22.3813 ], [ 92.9358, 22.3947 ], [ 92.9195, 22.3909 ], [ 92.8765, 22.3554 ], [ 92.8599, 22.3198 ], [ 92.8491, 22.3193 ], [ 92.8432, 22.3303 ], [ 92.8253, 22.3339 ], [ 92.8214, 22.3293 ], [ 92.8264, 22.3168 ], [ 92.8224, 22.307 ], [ 92.8369, 22.2911 ], [ 92.8296, 22.2559 ], [ 92.8502, 22.0626 ], [ 92.8417, 22.0591 ], [ 92.8367, 22.0717 ], [ 92.8185, 22.0747 ], [ 92.8099, 22.0959 ], [ 92.7984, 22.0935 ], [ 92.7903, 22.1048 ], [ 92.7737, 22.107 ], [ 92.76, 22.1255 ], [ 92.7354, 22.1344 ], [ 92.7268, 22.1491 ], [ 92.7128, 22.1474 ], [ 92.6947, 22.1535 ], [ 92.6896, 22.0719 ], [ 92.688, 22.1037 ], [ 92.6818, 22.1035 ], [ 92.6852, 22.043 ], [ 92.6799, 22.0119 ], [ 92.6698, 22.0097 ], [ 92.6516, 22.0159 ], [ 92.6349, 21.9832 ], [ 92.6075, 21.9747 ], [ 92.6032, 21.98 ], [ 92.6126, 21.9908 ], [ 92.5981, 22.009 ], [ 92.6001, 22.0284 ], [ 92.5926, 22.0374 ], [ 92.5991, 22.0423 ], [ 92.6027, 22.0611 ], [ 92.5922, 22.0656 ], [ 92.5751, 22.1162 ], [ 92.5626, 22.128 ], [ 92.5657, 22.1348 ], [ 92.5774, 22.1364 ], [ 92.5785, 22.1434 ], [ 92.5926, 22.1388 ], [ 92.589, 22.1314 ], [ 92.5945, 22.1251 ], [ 92.6057, 22.1234 ], [ 92.6092, 22.164 ], [ 92.6071, 22.1725 ], [ 92.5952, 22.1754 ], [ 92.5948, 22.2042 ], [ 92.588, 22.216 ], [ 92.5908, 22.2555 ], [ 92.581, 22.2692 ], [ 92.5866, 22.2802 ], [ 92.5818, 22.2818 ], [ 92.5834, 22.3039 ], [ 92.5773, 22.3112 ], [ 92.5812, 22.3218 ], [ 92.5593, 22.3819 ], [ 92.5598, 22.4018 ], [ 92.5521, 22.409 ], [ 92.5507, 22.4226 ], [ 92.5564, 22.4251 ], [ 92.5512, 22.4274 ], [ 92.5554, 22.4292 ], [ 92.5433, 22.4933 ], [ 92.5499, 22.4973 ], [ 92.5426, 22.4988 ], [ 92.5493, 22.5014 ], [ 92.5513, 22.5133 ], [ 92.5434, 22.5142 ], [ 92.54, 22.5406 ], [ 92.5217, 22.5599 ], [ 92.5273, 22.573 ], [ 92.5381, 22.5751 ], [ 92.5385, 22.5859 ], [ 92.5344, 22.5852 ], [ 92.533, 22.5878 ], [ 92.5394, 22.5891 ], [ 92.5304, 22.6035 ], [ 92.5354, 22.6117 ], [ 92.5274, 22.6208 ], [ 92.5325, 22.6327 ], [ 92.5262, 22.6336 ], [ 92.5249, 22.6401 ], [ 92.5287, 22.6652 ], [ 92.5139, 22.708 ], [ 92.5167, 22.7222 ], [ 92.5041, 22.7385 ], [ 92.5167, 22.76 ], [ 92.5233, 22.7617 ], [ 92.5275, 22.7567 ], [ 92.5425, 22.7627 ], [ 92.5669, 22.7317 ], [ 92.5783, 22.7401 ], [ 92.5783, 22.7554 ], [ 92.5908, 22.7444 ], [ 92.5859, 22.7381 ], [ 92.6021, 22.7205 ], [ 92.5937, 22.7099 ], [ 92.5966, 22.6962 ], [ 92.6089, 22.6812 ], [ 92.6138, 22.679 ], [ 92.6171, 22.6845 ], [ 92.6177, 22.6714 ], [ 92.6297, 22.6664 ], [ 92.6263, 22.6596 ], [ 92.6384, 22.657 ], [ 92.6445, 22.6479 ], [ 92.6405, 22.622 ], [ 92.6616, 22.6172 ] ] ], [ [ [ 93.0817, 22.7978 ], [ 93.096, 22.7864 ], [ 93.1074, 22.7526 ], [ 93.091, 22.7048 ], [ 93.1019, 22.6827 ], [ 93.0948, 22.6805 ], [ 93.0956, 22.6718 ], [ 93.1096, 22.6555 ], [ 93.1083, 22.6357 ], [ 93.1264, 22.6256 ], [ 93.1337, 22.6141 ], [ 93.1402, 22.5889 ], [ 93.1149, 22.5629 ], [ 93.1095, 22.5408 ], [ 93.0805, 22.5538 ], [ 93.073, 22.5154 ], [ 93.0487, 22.5199 ], [ 93.0209, 22.5161 ], [ 93.0276, 22.5547 ], [ 93.0214, 22.5623 ], [ 92.993, 22.5738 ], [ 92.9903, 22.5901 ], [ 92.9958, 22.5983 ], [ 92.9793, 22.6082 ], [ 92.9887, 22.6342 ], [ 92.9752, 22.6297 ], [ 92.9622, 22.6336 ], [ 92.9549, 22.6266 ], [ 92.9383, 22.6438 ], [ 92.9317, 22.6612 ], [ 92.9357, 22.7082 ], [ 92.9125, 22.7267 ], [ 92.9202, 22.7509 ], [ 92.918, 22.7649 ], [ 92.9332, 22.7773 ], [ 92.9231, 22.78 ], [ 92.923, 22.7893 ], [ 92.943, 22.7913 ], [ 92.9538, 22.7857 ], [ 92.9854, 22.7532 ], [ 93.0097, 22.7532 ], [ 93.009, 22.7655 ], [ 93.0301, 22.7756 ], [ 93.0406, 22.77 ], [ 93.0515, 22.7415 ], [ 93.0676, 22.7573 ], [ 93.0694, 22.781 ], [ 93.0596, 22.7929 ], [ 93.0611, 22.8038 ], [ 93.0825, 22.8084 ], [ 93.0817, 22.7978 ] ] ] ] } },
{ "type": "Feature", "properties": { "district": "Lunglei", "did": "mizoram:Lunglei", "state_key": "mizoram" }, "geometry": { "type": "Polygon", "coordinates": [ [ [ 92.713, 23.1904 ], [ 92.72, 23.1942 ], [ 92.7218, 23.2401 ], [ 92.7532, 23.2327 ], [ 92.7545, 23.227 ], [ 92.7692, 23.2343 ], [ 92.7798, 23.2274 ], [ 92.7873, 23.2326 ], [ 92.8123, 23.2262 ], [ 92.8179, 23.2414 ], [ 92.8333, 23.2459 ], [ 92.8458, 23.2368 ], [ 92.8453, 23.2276 ], [ 92.8585, 23.2144 ], [ 92.8542, 23.1945 ], [ 92.8626, 23.1741 ], [ 92.8824, 23.1701 ], [ 92.8912, 23.177 ], [ 92.9053, 23.1775 ], [ 92.9169, 23.1891 ], [ 92.932, 23.1878 ], [ 92.9361, 23.1695 ], [ 92.9541, 23.1644 ], [ 92.9576, 23.116 ], [ 93.0164, 23.0811 ], [ 93.0372, 23.0815 ], [ 93.043, 23.074 ], [ 93.0385, 23.0498 ], [ 93.0683, 23.0427 ], [ 93.0813, 23.035 ], [ 93.0797, 23.0299 ], [ 93.1171, 23.0124 ], [ 93.1319, 22.9912 ], [ 93.1402, 22.9908 ], [ 93.1438, 22.9749 ], [ 93.1358, 22.9704 ], [ 93.138, 22.9506 ], [ 93.1461, 22.9437 ], [ 93.1481, 22.9251 ], [ 93.1645, 22.911 ], [ 93.1503, 22.9079 ], [ 93.1398, 22.9135 ], [ 93.1299, 22.9039 ], [ 93.1343, 22.8913 ], [ 93.1267, 22.8706 ], [ 93.1173, 22.8631 ], [ 93.1131, 22.829 ], [ 93.1036, 22.8243 ], [ 93.1105, 22.8181 ], [ 93.0949, 22.8067 ], [ 93.0965, 22.7867 ], [ 93.0817, 22.7978 ], [ 93.0835, 22.8083 ], [ 93.0611, 22.8038 ], [ 93.0596, 22.7929 ], [ 93.0694, 22.781 ], [ 93.0677, 22.7582 ], [ 93.0548, 22.7426 ], [ 93.0482, 22.7456 ], [ 93.0406, 22.77 ], [ 93.0301, 22.7756 ], [ 93.009, 22.7655 ], [ 93.0097, 22.7532 ], [ 92.9854, 22.7532 ], [ 92.9538, 22.7857 ], [ 92.943, 22.7913 ], [ 92.9235, 22.7905 ], [ 92.9231, 22.78 ], [ 92.9332, 22.7773 ], [ 92.918, 22.7649 ], [ 92.9202, 22.7509 ], [ 92.9125, 22.7267 ], [ 92.9357, 22.7082 ], [ 92.9312, 22.6624 ], [ 92.9383, 22.6438 ], [ 92.9519, 22.6311 ], [ 92.9445, 22.5738 ], [ 92.9312, 22.5556 ], [ 92.9113, 22.5473 ], [ 92.8947, 22.5849 ], [ 92.8771, 22.5841 ], [ 92.875, 22.5951 ], [ 92.8619, 22.599 ], [ 92.8625, 22.6041 ], [ 92.8493, 22.6096 ], [ 92.8372, 22.6254 ], [ 92.8057, 22.6291 ], [ 92.7959, 22.5978 ], [ 92.8031, 22.5695 ], [ 92.7959, 22.5521 ], [ 92.7824, 22.5457 ], [ 92.7765, 22.5366 ], [ 92.7812, 22.5333 ], [ 92.7725, 22.5277 ], [ 92.7769, 22.497 ], [ 92.769, 22.5031 ], [ 92.763, 22.4974 ], [ 92.7565, 22.4995 ], [ 92.7522, 22.5449 ], [ 92.7351, 22.5595 ], [ 92.7197, 22.5641 ], [ 92.7099, 22.5853 ], [ 92.7063, 22.5824 ], [ 92.6933, 22.5914 ], [ 92.6904, 22.6103 ], [ 92.6962, 22.6222 ], [ 92.6693, 22.6245 ], [ 92.6616, 22.6172 ], [ 92.6407, 22.6218 ], [ 92.6445, 22.6479 ], [ 92.6384, 22.657 ], [ 92.6263, 22.6596 ], [ 92.6297, 22.6664 ], [ 92.6177, 22.6714 ], [ 92.6171, 22.6845 ], [ 92.6138, 22.679 ], [ 92.6089, 22.6812 ], [ 92.5968, 22.6958 ], [ 92.5936, 22.7096 ], [ 92.602, 22.721 ], [ 92.5936, 22.7252 ], [ 92.5955, 22.7317 ], [ 92.5856, 22.7392 ], [ 92.591, 22.7441 ], [ 92.5798, 22.7553 ], [ 92.5783, 22.7401 ], [ 92.5669, 22.7317 ], [ 92.5425, 22.7627 ], [ 92.5275, 22.7567 ], [ 92.5233, 22.7617 ], [ 92.5167, 22.76 ], [ 92.5025, 22.7374 ], [ 92.4887, 22.7463 ], [ 92.4738, 22.7462 ], [ 92.4794, 22.7528 ], [ 92.4691, 22.7825 ], [ 92.4723, 22.7959 ], [ 92.4542, 22.8189 ], [ 92.4619, 22.8308 ], [ 92.4529, 22.843 ], [ 92.4632, 22.8417 ], [ 92.4565, 22.851 ], [ 92.4645, 22.8547 ], [ 92.4616, 22.8615 ], [ 92.4527, 22.8622 ], [ 92.4605, 22.8709 ], [ 92.4485, 22.8764 ], [ 92.4502, 22.8932 ], [ 92.446, 22.8971 ], [ 92.4337, 22.8858 ], [ 92.4203, 22.9183 ], [ 92.413, 22.9134 ], [ 92.4041, 22.9178 ], [ 92.4011, 22.912 ], [ 92.3976, 22.9297 ], [ 92.3764, 22.9286 ], [ 92.3718, 22.9362 ], [ 92.3782, 22.9521 ], [ 92.3743, 22.9706 ], [ 92.385, 22.9861 ], [ 92.3825, 23.0333 ], [ 92.3924, 23.0565 ], [ 92.3801, 23.0863 ], [ 92.3751, 23.0844 ], [ 92.3702, 23.0965 ], [ 92.358, 23.1033 ], [ 92.3682, 23.1273 ], [ 92.357, 23.1342 ], [ 92.3644, 23.1566 ], [ 92.3545, 23.1785 ], [ 92.3613, 23.1826 ], [ 92.3533, 23.1857 ], [ 92.3539, 23.2198 ], [ 92.3468, 23.2357 ], [ 92.4014, 23.2366 ], [ 92.3985, 23.2558 ], [ 92.3896, 23.2594 ], [ 92.3887, 23.2661 ], [ 92.4087, 23.2657 ], [ 92.417, 23.2566 ], [ 92.4158, 23.2628 ], [ 92.4376, 23.2766 ], [ 92.4332, 23.285 ], [ 92.4514, 23.2861 ], [ 92.4609, 23.3187 ], [ 92.4713, 23.3244 ], [ 92.4673, 23.3437 ], [ 92.4599, 23.3494 ], [ 92.4652, 23.3588 ], [ 92.4553, 23.3647 ], [ 92.4634, 23.3913 ], [ 92.4754, 23.3936 ], [ 92.4899, 23.3818 ], [ 92.4952, 23.3926 ], [ 92.5094, 23.3797 ], [ 92.5414, 23.3824 ], [ 92.5542, 23.3707 ], [ 92.5615, 23.3708 ], [ 92.5656, 23.3797 ], [ 92.5845, 23.3821 ], [ 92.5842, 23.4039 ], [ 92.5896, 23.4073 ], [ 92.6136, 23.3935 ], [ 92.6161, 23.3863 ], [ 92.6345, 23.3932 ], [ 92.6435, 23.384 ], [ 92.6719, 23.3842 ], [ 92.6761, 23.3794 ], [ 92.6712, 23.3678 ], [ 92.6831, 23.3668 ], [ 92.6868, 23.3405 ], [ 92.6858, 23.3279 ], [ 92.6809, 23.3271 ], [ 92.6884, 23.3074 ], [ 92.6834, 23.29 ], [ 92.6905, 23.2548 ], [ 92.6866, 23.2461 ], [ 92.6919, 23.2186 ], [ 92.7022, 23.2054 ], [ 92.7, 23.1962 ], [ 92.713, 23.1904 ] ] ] } },
{ "type": "Feature", "properties": { "district": "Mamit", "did": "mizoram:Mamit", "state_key": "mizoram" }, "geometry": { "type": "MultiPolygon", "coordinates": [ [ [ [ 92.6346, 23.7581 ], [ 92.6487, 23.7178 ], [ 92.6666, 23.7078 ], [ 92.6353, 23.6574 ], [ 92.6513, 23.63 ], [ 92.6726, 23.6236 ], [ 92.6734, 23.6099 ], [ 92.6648, 23.5969 ], [ 92.6496, 23.5911 ], [ 92.659, 23.5675 ], [ 92.6334, 23.5391 ], [ 92.6393, 23.5236 ], [ 92.6538, 23.5202 ], [ 92.6588, 23.5018 ], [ 92.6527, 23.4875 ], [ 92.655, 23.4389 ], [ 92.6693, 23.3851 ], [ 92.6435, 23.384 ], [ 92.6345, 23.3932 ], [ 92.6161, 23.3863 ], [ 92.6136, 23.3935 ], [ 92.5896, 23.4073 ], [ 92.5842, 23.4039 ], [ 92.5845, 23.3821 ], [ 92.5656, 23.3797 ], [ 92.5615, 23.3708 ], [ 92.5542, 23.3707 ], [ 92.5414, 23.3824 ], [ 92.5094, 23.3797 ], [ 92.4952, 23.3926 ], [ 92.4899, 23.3818 ], [ 92.4754, 23.3936 ], [ 92.4636, 23.3915 ], [ 92.4553, 23.3647 ], [ 92.4652, 23.3588 ], [ 92.4599, 23.3494 ], [ 92.4673, 23.3437 ], [ 92.4712, 23.3237 ], [ 92.4609, 23.3187 ], [ 92.4514, 23.2861 ], [ 92.4332, 23.285 ], [ 92.4376, 23.2766 ], [ 92.4158, 23.2628 ], [ 92.4167, 23.2566 ], [ 92.409, 23.2655 ], [ 92.3937, 23.2671 ], [ 92.3812, 23.2851 ], [ 92.3857, 23.3062 ], [ 92.3761, 23.3199 ], [ 92.3674, 23.3229 ], [ 92.368, 23.3171 ], [ 92.3644, 23.3229 ], [ 92.3807, 23.3512 ], [ 92.3791, 23.3618 ], [ 92.3693, 23.367 ], [ 92.3705, 23.3736 ], [ 92.3639, 23.3662 ], [ 92.3564, 23.3723 ], [ 92.3651, 23.3796 ], [ 92.3527, 23.3809 ], [ 92.3588, 23.3907 ], [ 92.3545, 23.3891 ], [ 92.3529, 23.3994 ], [ 92.3574, 23.4107 ], [ 92.3478, 23.4128 ], [ 92.3465, 23.4332 ], [ 92.3414, 23.4355 ], [ 92.3339, 23.4288 ], [ 92.3271, 23.4485 ], [ 92.3333, 23.4559 ], [ 92.3255, 23.4591 ], [ 92.3318, 23.4661 ], [ 92.3171, 23.4717 ], [ 92.3262, 23.4788 ], [ 92.3161, 23.4868 ], [ 92.3228, 23.501 ], [ 92.3177, 23.5172 ], [ 92.3136, 23.5155 ], [ 92.3179, 23.5263 ], [ 92.3063, 23.535 ], [ 92.3135, 23.555 ], [ 92.3067, 23.5645 ], [ 92.3082, 23.5777 ], [ 92.3014, 23.5929 ], [ 92.2965, 23.588 ], [ 92.2873, 23.596 ], [ 92.2873, 23.6167 ], [ 92.2958, 23.6216 ], [ 92.2807, 23.6306 ], [ 92.2786, 23.6249 ], [ 92.2818, 23.6386 ], [ 92.273, 23.6419 ], [ 92.2909, 23.6908 ], [ 92.2797, 23.7158 ], [ 92.2655, 23.725 ], [ 92.2673, 23.7686 ], [ 92.2571, 23.8128 ], [ 92.2823, 23.8146 ], [ 92.2687, 23.8422 ], [ 92.2851, 23.8671 ], [ 92.3085, 23.8568 ], [ 92.3167, 23.8643 ], [ 92.3112, 23.8801 ], [ 92.3252, 23.9141 ], [ 92.309, 23.9312 ], [ 92.308, 23.9606 ], [ 92.3262, 23.9978 ], [ 92.314, 24.0212 ], [ 92.3198, 24.0244 ], [ 92.3121, 24.0324 ], [ 92.3164, 24.0456 ], [ 92.3122, 24.0521 ], [ 92.3198, 24.0634 ], [ 92.3189, 24.0777 ], [ 92.3242, 24.0793 ], [ 92.3246, 24.1394 ], [ 92.3307, 24.1397 ], [ 92.3317, 24.1518 ], [ 92.3239, 24.1691 ], [ 92.3321, 24.1796 ], [ 92.3225, 24.1883 ], [ 92.3262, 24.1969 ], [ 92.3191, 24.1979 ], [ 92.3215, 24.2037 ], [ 92.2974, 24.2315 ], [ 92.2896, 24.2524 ], [ 92.4225, 24.2549 ], [ 92.4189, 24.1927 ], [ 92.4338, 24.1831 ], [ 92.4362, 24.1535 ], [ 92.4428, 24.1545 ], [ 92.4491, 24.144 ], [ 92.4567, 24.1444 ], [ 92.4655, 24.1363 ], [ 92.479, 24.1423 ], [ 92.4839, 24.1632 ], [ 92.5015, 24.1604 ], [ 92.5033, 24.1678 ], [ 92.5114, 24.1654 ], [ 92.5069, 24.1699 ], [ 92.5144, 24.1695 ], [ 92.51, 24.1725 ], [ 92.5158, 24.179 ], [ 92.525, 24.1718 ], [ 92.5342, 24.1801 ], [ 92.5363, 24.1769 ], [ 92.5268, 24.1652 ], [ 92.5452, 24.1418 ], [ 92.536, 24.1271 ], [ 92.5437, 24.1248 ], [ 92.5366, 24.1097 ], [ 92.5382, 24.0357 ], [ 92.5498, 24.0424 ], [ 92.552, 24.0634 ], [ 92.5636, 24.0544 ], [ 92.5588, 24.0409 ], [ 92.5661, 24.0411 ], [ 92.5737, 24.0533 ], [ 92.5716, 24.0759 ], [ 92.5808, 24.0775 ], [ 92.5862, 24.0757 ], [ 92.5856, 24.0637 ], [ 92.5932, 24.0628 ], [ 92.6011, 24.0523 ], [ 92.6117, 24.0519 ], [ 92.622, 24.032 ], [ 92.6245, 24.043 ], [ 92.6363, 24.0351 ], [ 92.6287, 24.0326 ], [ 92.6186, 24.0124 ], [ 92.6329, 23.9983 ], [ 92.6204, 23.9623 ], [ 92.6291, 23.9455 ], [ 92.6213, 23.9373 ], [ 92.6419, 23.9305 ], [ 92.6441, 23.9223 ], [ 92.6533, 23.9223 ], [ 92.6601, 23.9146 ], [ 92.6592, 23.9031 ], [ 92.6423, 23.8982 ], [ 92.6396, 23.8923 ], [ 92.6479, 23.8569 ], [ 92.6629, 23.8367 ], [ 92.6436, 23.8282 ], [ 92.6454, 23.8192 ], [ 92.6543, 23.8201 ], [ 92.6485, 23.8099 ], [ 92.6425, 23.805 ], [ 92.6336, 23.817 ], [ 92.6236, 23.7984 ], [ 92.6402, 23.7921 ], [ 92.6375, 23.7731 ], [ 92.6282, 23.7615 ], [ 92.6346, 23.7581 ] ] ], [ [ [ 92.5319, 24.1835 ], [ 92.5312, 24.1847 ], [ 92.5311, 24.1851 ], [ 92.5342, 24.1801 ], [ 92.5319, 24.1835 ] ] ] ] } },
{ "type": "Feature", "properties": { "district": "Saiha", "did": "mizoram:Saiha", "state_key": "mizoram" }, "geometry": { "type": "Polygon", "coordinates": [ [ [ 93.1635, 22.4513 ], [ 93.1853, 22.4282 ], [ 93.1815, 22.4189 ], [ 93.1875, 22.4034 ], [ 93.1816, 22.3953 ], [ 93.1898, 22.3827 ], [ 93.1835, 22.3744 ], [ 93.1858, 22.3399 ], [ 93.1967, 22.3288 ], [ 93.189, 22.3227 ], [ 93.1957, 22.3143 ], [ 93.1905, 22.3095 ], [ 93.1954, 22.3017 ], [ 93.1896, 22.3008 ], [ 93.1993, 22.2937 ], [ 93.1935, 22.2892 ], [ 93.202, 22.264 ], [ 93.199, 22.2557 ], [ 93.177, 22.2456 ], [ 93.1639, 22.25 ], [ 93.1421, 22.2455 ], [ 93.1399, 22.2347 ], [ 93.1523, 22.2166 ], [ 93.1486, 22.2117 ], [ 93.1615, 22.1971 ], [ 93.1508, 22.1763 ], [ 93.1236, 22.1735 ], [ 93.111, 22.204 ], [ 93.0887, 22.1965 ], [ 93.0633, 22.2073 ], [ 93.0382, 22.195 ], [ 93.0491, 22.1689 ], [ 93.0372, 22.1444 ], [ 93.0441, 22.1432 ], [ 93.0395, 22.1385 ], [ 93.0571, 22.1214 ], [ 93.0596, 22.1013 ], [ 93.0474, 22.0981 ], [ 93.0045, 22.1036 ], [ 93.0116, 22.0884 ], [ 92.9948, 22.0322 ], [ 93.0043, 22.017 ], [ 93.0074, 21.9823 ], [ 92.9806, 21.9801 ], [ 92.9779, 21.9975 ], [ 92.965, 22.0108 ], [ 92.961, 22.0257 ], [ 92.9522, 22.0297 ], [ 92.94, 22.0136 ], [ 92.9272, 22.0156 ], [ 92.9358, 22.0057 ], [ 92.9207, 21.9918 ], [ 92.9115, 21.9508 ], [ 92.9035, 21.9401 ], [ 92.8913, 22.0113 ], [ 92.8786, 22.0151 ], [ 92.8797, 22.0222 ], [ 92.8651, 22.0237 ], [ 92.8635, 22.0624 ], [ 92.8588, 22.067 ], [ 92.8502, 22.0626 ], [ 92.8475, 22.0689 ], [ 92.8368, 22.2258 ], [ 92.8296, 22.2559 ], [ 92.8369, 22.2911 ], [ 92.8226, 22.3065 ], [ 92.8264, 22.3168 ], [ 92.8206, 22.3258 ], [ 92.8268, 22.3338 ], [ 92.844, 22.33 ], [ 92.8495, 22.3191 ], [ 92.8599, 22.3198 ], [ 92.8765, 22.3554 ], [ 92.9195, 22.3909 ], [ 92.9358, 22.3947 ], [ 92.9328, 22.3813 ], [ 92.9536, 22.3722 ], [ 92.9651, 22.3914 ], [ 92.963, 22.3978 ], [ 92.9507, 22.4026 ], [ 92.9431, 22.4209 ], [ 92.9346, 22.4579 ], [ 92.9442, 22.4668 ], [ 92.9308, 22.4844 ], [ 92.9389, 22.5361 ], [ 92.9315, 22.5579 ], [ 92.945, 22.5749 ], [ 92.9513, 22.6289 ], [ 92.9887, 22.6342 ], [ 92.9793, 22.6082 ], [ 92.9958, 22.5983 ], [ 92.9903, 22.5901 ], [ 92.993, 22.5738 ], [ 93.0214, 22.5623 ], [ 93.0276, 22.5547 ], [ 93.0209, 22.5161 ], [ 93.0487, 22.5199 ], [ 93.073, 22.5154 ], [ 93.0811, 22.5543 ], [ 93.0891, 22.5464 ], [ 93.1095, 22.5408 ], [ 93.108, 22.5251 ], [ 93.1278, 22.5242 ], [ 93.1238, 22.5084 ], [ 93.1346, 22.4918 ], [ 93.1309, 22.4682 ], [ 93.1387, 22.4545 ], [ 93.1635, 22.4513 ] ] ] } },
{ "type": "Feature", "properties": { "district": "Serchhip", "did": "mizoram:Serchhip", "state_key": "mizoram" }, "geometry": { "type": "Polygon", "coordinates": [ [ [ 93.0107, 23.2744 ], [ 93.0306, 23.266 ], [ 93.0323, 23.2544 ], [ 93.0432, 23.2493 ], [ 93.0342, 23.2449 ], [ 93.0384, 23.2369 ], [ 93.0543, 23.2435 ], [ 93.0691, 23.2298 ], [ 93.0827, 23.2261 ], [ 93.1054, 23.2404 ], [ 93.1365, 23.2168 ], [ 93.1461, 23.2022 ], [ 93.1627, 23.1979 ], [ 93.1612, 23.1931 ], [ 93.1455, 23.1903 ], [ 93.1453, 23.1847 ], [ 93.1611, 23.1757 ], [ 93.1728, 23.1408 ], [ 93.1628, 23.1015 ], [ 93.1752, 23.0812 ], [ 93.1704, 23.0772 ], [ 93.1798, 23.057 ], [ 93.1561, 23.0432 ], [ 93.1514, 23.0537 ], [ 93.1402, 23.0533 ], [ 93.1351, 23.06 ], [ 93.1354, 23.0484 ], [ 93.1258, 23.0407 ], [ 93.1223, 23.0064 ], [ 93.0797, 23.0299 ], [ 93.0813, 23.035 ], [ 93.068, 23.0429 ], [ 93.0385, 23.0498 ], [ 93.043, 23.074 ], [ 93.0372, 23.0815 ], [ 93.0164, 23.0811 ], [ 92.9576, 23.116 ], [ 92.9541, 23.1644 ], [ 92.9361, 23.1695 ], [ 92.9325, 23.1875 ], [ 92.9169, 23.1891 ], [ 92.9053, 23.1775 ], [ 92.8912, 23.177 ], [ 92.8804, 23.1697 ], [ 92.8626, 23.1741 ], [ 92.8542, 23.1945 ], [ 92.8585, 23.2144 ], [ 92.8453, 23.2276 ], [ 92.8458, 23.2368 ], [ 92.8333, 23.2459 ], [ 92.8179, 23.2414 ], [ 92.8123, 23.2262 ], [ 92.7873, 23.2326 ], [ 92.7798, 23.2274 ], [ 92.7692, 23.2343 ], [ 92.7545, 23.227 ], [ 92.7532, 23.2327 ], [ 92.7218, 23.2401 ], [ 92.72, 23.1942 ], [ 92.713, 23.1904 ], [ 92.6999, 23.1962 ], [ 92.7022, 23.2054 ], [ 92.6919, 23.2186 ], [ 92.6866, 23.2461 ], [ 92.6905, 23.2548 ], [ 92.6834, 23.29 ], [ 92.6884, 23.3074 ], [ 92.6831, 23.3227 ], [ 92.6944, 23.3274 ], [ 92.7006, 23.3196 ], [ 92.7134, 23.3217 ], [ 92.7192, 23.3465 ], [ 92.7151, 23.3489 ], [ 92.7213, 23.351 ], [ 92.733, 23.3494 ], [ 92.7314, 23.3449 ], [ 92.7405, 23.3391 ], [ 92.7517, 23.3417 ], [ 92.7696, 23.3357 ], [ 92.7793, 23.327 ], [ 92.8135, 23.3255 ], [ 92.8259, 23.3343 ], [ 92.8403, 23.3363 ], [ 92.833, 23.3625 ], [ 92.8224, 23.3709 ], [ 92.8309, 23.3842 ], [ 92.8212, 23.3861 ], [ 92.8365, 23.441 ], [ 92.8354, 23.4676 ], [ 92.7995, 23.4795 ], [ 92.7945, 23.5266 ], [ 92.802, 23.5391 ], [ 92.7973, 23.5505 ], [ 92.7773, 23.5564 ], [ 92.772, 23.565 ], [ 92.7692, 23.5944 ], [ 92.7856, 23.6001 ], [ 92.7901, 23.6447 ], [ 92.8043, 23.639 ], [ 92.8099, 23.6425 ], [ 92.8158, 23.6365 ], [ 92.8107, 23.6278 ], [ 92.8213, 23.6178 ], [ 92.8219, 23.589 ], [ 92.8343, 23.5762 ], [ 92.8526, 23.5742 ], [ 92.8686, 23.5547 ], [ 92.8823, 23.5581 ], [ 92.8805, 23.5643 ], [ 92.8967, 23.578 ], [ 92.8969, 23.5717 ], [ 92.9117, 23.5602 ], [ 92.9443, 23.5588 ], [ 92.962, 23.5317 ], [ 92.9846, 23.5115 ], [ 92.9791, 23.4924 ], [ 92.9862, 23.4859 ], [ 92.9962, 23.479 ], [ 93.0024, 23.4842 ], [ 93.023, 23.4707 ], [ 93.034, 23.4737 ], [ 93.0446, 23.4854 ], [ 93.0605, 23.4773 ], [ 93.0775, 23.4781 ], [ 93.0817, 23.4693 ], [ 93.0705, 23.4688 ], [ 93.0704, 23.4645 ], [ 93.0786, 23.4557 ], [ 93.0981, 23.4508 ], [ 93.0979, 23.4431 ], [ 93.0857, 23.4333 ], [ 93.0766, 23.4029 ], [ 93.0672, 23.3971 ], [ 93.0539, 23.4029 ], [ 93.0325, 23.3977 ], [ 93.0486, 23.3697 ], [ 93.0319, 23.3268 ], [ 93.0057, 23.3042 ], [ 93.0107, 23.2744 ] ] ] } }
]
}
