{
"type": "FeatureCollection",
"crs": { "type": "name", "properties": { "name": "urn:ogc:def:crs:OGC:1.3:CRS84" } },
"xy_coordinate_resolution": 0.0001,
"features": [
{ "type": "Feature", "properties": { "district": "North Goa", "did": "goa:North Goa", "state_key": "goa" }, "geometry": { "type": "MultiPolygon", "coordinates": [ [ [ [ 74.0769, 15.3904 ], [ 74.081, 15.3944 ], [ 74.0886, 15.3903 ], [ 74.0913, 15.3807 ], [ 74.0993, 15.3775 ], [ 74.0954, 15.3785 ], [ 74.0942, 15.373 ], [ 74.1013, 15.3726 ], [ 74.1051, 15.3638 ], [ 74.0992, 15.3501 ], [ 74.1057, 15.3457 ], [ 74.0966, 15.3439 ], [ 74.0834, 15.3233 ], [ 74.0887, 15.2987 ], [ 74.1059, 15.2861 ], [ 74.1003, 15.2683 ], [ 74.0928, 15.2672 ], [ 74.0839, 15.2765 ], [ 74.0751, 15.2737 ], [ 74.0711, 15.2914 ], [ 74.0637, 15.2967 ], [ 74.0457, 15.2982 ], [ 74.0394, 15.3061 ], [ 74.0262, 15.3008 ], [ 74.013, 15.3034 ], [ 74.0058, 15.3465 ], [ 73.9778, 15.3665 ], [ 73.9604, 15.3698 ], [ 73.9481, 15.402 ], [ 73.8646, 15.4167 ], [ 73.8417, 15.4266 ], [ 73.786, 15.4373 ], [ 73.7897, 15.4638 ], [ 73.7757, 15.4891 ], [ 73.7666, 15.4928 ], [ 73.7499, 15.5626 ], [ 73.7419, 15.5624 ], [ 73.7322, 15.5886 ], [ 73.7321, 15.6069 ], [ 73.7447, 15.6057 ], [ 73.7228, 15.6267 ], [ 73.6896, 15.7194 ], [ 73.7167, 15.7244 ], [ 73.7263, 15.717 ], [ 73.7428, 15.7366 ], [ 73.785, 15.7261 ], [ 73.7932, 15.7372 ], [ 73.7972, 15.7342 ], [ 73.8094, 15.742 ], [ 73.8224, 15.7405 ], [ 73.8308, 15.7539 ], [ 73.8297, 15.7643 ], [ 73.8385, 15.7676 ], [ 73.8439, 15.7811 ], [ 73.8527, 15.7809 ], [ 73.8471, 15.7858 ], [ 73.8563, 15.801 ], [ 73.8675, 15.797 ], [ 73.8661, 15.7853 ], [ 73.8801, 15.7743 ], [ 73.8731, 15.7609 ], [ 73.8757, 15.7513 ], [ 73.9387, 15.7433 ], [ 73.9523, 15.7144 ], [ 73.9437, 15.6969 ], [ 73.9592, 15.7001 ], [ 73.9638, 15.6923 ], [ 73.9678, 15.6603 ], [ 73.9618, 15.6417 ], [ 73.9708, 15.6274 ], [ 73.9791, 15.6271 ], [ 73.9934, 15.6106 ], [ 74.0208, 15.6061 ], [ 74.0312, 15.6226 ], [ 74.0634, 15.6265 ], [ 74.0943, 15.6424 ], [ 74.1139, 15.6461 ], [ 74.1176, 15.6521 ], [ 74.1355, 15.6484 ], [ 74.1644, 15.6535 ], [ 74.1674, 15.672 ], [ 74.1815, 15.6821 ], [ 74.1899, 15.6791 ], [ 74.1868, 15.6674 ], [ 74.2041, 15.6637 ], [ 74.2051, 15.651 ], [ 74.2222, 15.6556 ], [ 74.2151, 15.6629 ], [ 74.2238, 15.669 ], [ 74.2284, 15.6644 ], [ 74.2364, 15.6686 ], [ 74.2504, 15.6573 ], [ 74.2442, 15.6261 ], [ 74.2483, 15.6229 ], [ 74.2537, 15.6267 ], [ 74.2643, 15.6155 ], [ 74.2602, 15.5926 ], [ 74.2452, 15.5666 ], [ 74.2583, 15.5617 ], [ 74.2617, 15.5649 ], [ 74.2779, 15.5461 ], [ 74.2827, 15.5314 ], [ 74.2785, 15.5175 ], [ 74.2538, 15.5017 ], [ 74.2515, 15.4904 ], [ 74.2002, 15.4654 ], [ 74.1795, 15.4361 ], [ 74.1692, 15.4421 ], [ 74.1338, 15.4336 ], [ 74.1249, 15.4367 ], [ 74.1115, 15.4268 ], [ 74.1106, 15.4179 ], [ 74.1043, 15.4262 ], [ 74.0743, 15.4097 ], [ 74.0769, 15.3904 ] ] ], [ [ [ 73.6908, 15.7292 ], [ 73.696, 15.7218 ], [ 73.6799, 15.7211 ], [ 73.677, 15.7263 ], [ 73.6908, 15.7292 ] ] ] ] } },
{ "type": "Feature", "properties": { "district": "South Goa", "did": "goa:South Goa", "state_key": "goa" }, "geometry": { "type": "MultiPolygon", "coordinates": [ [ [ [ 74.0854, 14.8998 ], [ 74.0865, 14.8997 ], [ 74.0856, 14.8984 ], [ 74.0854, 14.8998 ] ] ], [ [ [ 74.2643, 14.9785 ], [ 74.2526, 14.9591 ], [ 74.2367, 14.9668 ], [ 74.2298, 14.9505 ], [ 74.2137, 14.9477 ], [ 74.2015, 14.9257 ], [ 74.1795, 14.957 ], [ 74.1636, 14.9585 ], [ 74.1542, 14.9434 ], [ 74.1659, 14.9186 ], [ 74.1621, 14.9121 ], [ 74.1242, 14.9253 ], [ 74.12, 14.9169 ], [ 74.1016, 14.9158 ], [ 74.0854, 14.9003 ], [ 74.0811, 14.9091 ], [ 74.0671, 14.9058 ], [ 74.0445, 14.9161 ], [ 74.0435, 14.9464 ], [ 74.0501, 14.9573 ], [ 74.0406, 14.9809 ], [ 74.0354, 14.982 ], [ 74.041, 14.9954 ], [ 74.0354, 14.9923 ], [ 74.0328, 14.9983 ], [ 74.0279, 14.9968 ], [ 74.0265, 15.0064 ], [ 74.017, 15.0112 ], [ 74.021, 15.0172 ], [ 74.0137, 15.009 ], [ 73.9978, 15.0199 ], [ 73.9895, 15.0189 ], [ 73.9863, 15.0275 ], [ 73.9911, 15.0316 ], [ 73.9807, 15.054 ], [ 73.982, 15.0529 ], [ 73.984, 15.0529 ], [ 73.9884, 15.0551 ], [ 73.9803, 15.0547 ], [ 73.975, 15.0489 ], [ 73.9675, 15.0646 ], [ 73.955, 15.0719 ], [ 73.9327, 15.0772 ], [ 73.9263, 15.0848 ], [ 73.9128, 15.0837 ], [ 73.9277, 15.0953 ], [ 73.9257, 15.1039 ], [ 73.9185, 15.1062 ], [ 73.9361, 15.1103 ], [ 73.9413, 15.1166 ], [ 73.9368, 15.1322 ], [ 73.9465, 15.1408 ], [ 73.9503, 15.1403 ], [ 73.9541, 15.1366 ], [ 73.9557, 15.1355 ], [ 73.9565, 15.1355 ], [ 73.8843, 15.353 ], [ 73.8713, 15.3692 ], [ 73.8427, 15.3584 ], [ 73.8318, 15.3695 ], [ 73.8089, 15.3756 ], [ 73.806, 15.3918 ], [ 73.7906, 15.3939 ], [ 73.7837, 15.4081 ], [ 73.7918, 15.4175 ], [ 73.786, 15.4373 ], [ 73.8417, 15.4266 ], [ 73.8646, 15.4167 ], [ 73.9481, 15.402 ], [ 73.9604, 15.3698 ], [ 73.9778, 15.3665 ], [ 74.0058, 15.3465 ], [ 74.013, 15.3034 ], [ 74.0262, 15.3008 ], [ 74.0394, 15.3061 ], [ 74.0457, 15.2982 ], [ 74.0637, 15.2967 ], [ 74.0711, 15.2914 ], [ 74.0751, 15.2737 ], [ 74.0839, 15.2765 ], [ 74.0928, 15.2672 ], [ 74.1003, 15.2683 ], [ 74.1059, 15.2861 ], [ 74.0887, 15.2987 ], [ 74.0834, 15.3233 ], [ 74.0966, 15.3439 ], [ 74.1057, 15.3457 ], [ 74.0992, 15.3501 ], [ 74.1051, 15.3638 ], [ 74.1013, 15.3726 ], [ 74.0942, 15.373 ], [ 74.0993, 15.3775 ], [ 74.0913, 15.3807 ], [ 74.0886, 15.3903 ], [ 74.081, 15.3944 ], [ 74.0769, 15.3904 ], [ 74.0721, 15.4115 ], [ 74.1043, 15.4262 ], [ 74.1106, 15.4179 ], [ 74.1115, 15.4268 ], [ 74.1249, 15.4367 ], [ 74.1338, 15.4336 ], [ 74.1692, 15.4421 ], [ 74.1795, 15.4361 ], [ 74.2002, 15.4654 ], [ 74.2515, 15.4908 ], [ 74.2755, 15.4492 ], [ 74.2769, 15.4352 ], [ 74.2688, 15.4191 ], [ 74.2783, 15.4057 ], [ 74.2759, 15.3916 ], [ 74.283, 15.3829 ], [ 74.2987, 15.3819 ], [ 74.3232, 15.3677 ], [ 74.3163, 15.363 ], [ 74.3218, 15.3436 ], [ 74.317, 15.3291 ], [ 74.3364, 15.2949 ], [ 74.3264, 15.2837 ], [ 74.308, 15.2833 ], [ 74.2943, 15.2892 ], [ 74.2818, 15.2804 ], [ 74.2763, 15.2835 ], [ 74.261, 15.2602 ], [ 74.2511, 15.2588 ], [ 74.2595, 15.241 ], [ 74.2915, 15.2338 ], [ 74.3016, 15.2243 ], [ 74.3174, 15.1838 ], [ 74.2957, 15.1512 ], [ 74.2851, 15.149 ], [ 74.2849, 15.1139 ], [ 74.2726, 15.0975 ], [ 74.2965, 15.0412 ], [ 74.2833, 15.0316 ], [ 74.2681, 15.002 ], [ 74.2526, 14.9957 ], [ 74.2643, 14.9785 ] ] ] ] } }
]
}
