{
"type": "FeatureCollection",
"crs": { "type": "name", "properties": { "name": "urn:ogc:def:crs:OGC:1.3:CRS84" } },
"xy_coordinate_resolution": 0.0001,
"features": [
{ "type": "Feature", "properties": { "district": "Dimapur", "did": "nagaland:Dimapur", "state_key": "nagaland" }, "geometry": { "type": "Polygon", "coordinates": [ [ [ 93.9741, 25.894 ], [ 93.9863, 25.8966 ], [ 93.9854, 25.8888 ], [ 93.9946, 25.8812 ], [ 93.9751, 25.8685 ], [ 93.9706, 25.8407 ], [ 93.9892, 25.7923 ], [ 93.9775, 25.7722 ], [ 93.9888, 25.7482 ], [ 93.9606, 25.7145 ], [ 93.947, 25.72 ], [ 93.9298, 25.7163 ], [ 93.9207, 25.7243 ], [ 93.8968, 25.7293 ], [ 93.8907, 25.7385 ], [ 93.8749, 25.7253 ], [ 93.8951, 25.7094 ], [ 93.9046, 25.7122 ], [ 93.9288, 25.6953 ], [ 93.9313, 25.6832 ], [ 93.9428, 25.6793 ], [ 93.9467, 25.6704 ], [ 93.9395, 25.6566 ], [ 93.9533, 25.6558 ], [ 93.9223, 25.6166 ], [ 93.9157, 25.6143 ], [ 93.912, 25.6186 ], [ 93.8721, 25.6758 ], [ 93.84, 25.6928 ], [ 93.821, 25.7174 ], [ 93.8165, 25.7031 ], [ 93.8004, 25.6942 ], [ 93.7922, 25.673 ], [ 93.7691, 25.7033 ], [ 93.7444, 25.7137 ], [ 93.7466, 25.7252 ], [ 93.734, 25.7313 ], [ 93.7367, 25.7393 ], [ 93.7269, 25.7516 ], [ 93.7308, 25.7581 ], [ 93.7191, 25.7554 ], [ 93.7167, 25.7642 ], [ 93.7036, 25.769 ], [ 93.6912, 25.7663 ], [ 93.685, 25.7705 ], [ 93.682, 25.7637 ], [ 93.6895, 25.7551 ], [ 93.6927, 25.7184 ], [ 93.682, 25.6971 ], [ 93.6484, 25.6867 ], [ 93.6495, 25.677 ], [ 93.6359, 25.6606 ], [ 93.6014, 25.6507 ], [ 93.5877, 25.6563 ], [ 93.5911, 25.6691 ], [ 93.5812, 25.671 ], [ 93.5903, 25.6771 ], [ 93.5899, 25.6906 ], [ 93.5774, 25.6943 ], [ 93.5744, 25.7147 ], [ 93.563, 25.7076 ], [ 93.5432, 25.7191 ], [ 93.5425, 25.7309 ], [ 93.5494, 25.7293 ], [ 93.5543, 25.7378 ], [ 93.5615, 25.7378 ], [ 93.5663, 25.7548 ], [ 93.5732, 25.7541 ], [ 93.5679, 25.7584 ], [ 93.5778, 25.7545 ], [ 93.5855, 25.758 ], [ 93.5859, 25.7661 ], [ 93.6027, 25.7651 ], [ 93.605, 25.7749 ], [ 93.6174, 25.776 ], [ 93.6268, 25.7896 ], [ 93.6247, 25.8026 ], [ 93.6329, 25.8028 ], [ 93.6331, 25.8114 ], [ 93.6386, 25.8098 ], [ 93.6461, 25.8224 ], [ 93.6683, 25.8218 ], [ 93.6676, 25.826 ], [ 93.6786, 25.8284 ], [ 93.6806, 25.8383 ], [ 93.6902, 25.8407 ], [ 93.6883, 25.8459 ], [ 93.7011, 25.8496 ], [ 93.7009, 25.8433 ], [ 93.7078, 25.8478 ], [ 93.7143, 25.8445 ], [ 93.7021, 25.8515 ], [ 93.6815, 25.9044 ], [ 93.7009, 25.9107 ], [ 93.7066, 25.9188 ], [ 93.7361, 25.9228 ], [ 93.7395, 25.9318 ], [ 93.7513, 25.9328 ], [ 93.7451, 25.9423 ], [ 93.7585, 25.9455 ], [ 93.7587, 25.9526 ], [ 93.768, 25.951 ], [ 93.7654, 25.9698 ], [ 93.7772, 25.9682 ], [ 93.7957, 25.9065 ], [ 93.7954, 25.8924 ], [ 93.7842, 25.8843 ], [ 93.7898, 25.8678 ], [ 93.7775, 25.8498 ], [ 93.7875, 25.8158 ], [ 93.7955, 25.8089 ], [ 93.8164, 25.8226 ], [ 93.8211, 25.8387 ], [ 93.8397, 25.8566 ], [ 93.8523, 25.8582 ], [ 93.8818, 25.8433 ], [ 93.916, 25.8837 ], [ 93.934, 25.8852 ], [ 93.938, 25.8963 ], [ 93.9669, 25.9063 ], [ 93.9741, 25.894 ] ] ] } },
{ "type": "Feature", "properties": { "district": "Kiphire", "did": "nagaland:Kiphire", "state_key": "nagaland" }, "geometry": { "type": "Polygon", "coordinates": [ [ [ 94.8705, 25.9457 ], [ 94.9113, 25.9429 ], [ 94.9255, 25.9493 ], [ 94.9385, 25.9371 ], [ 94.9359, 25.9165 ], [ 94.9514, 25.901 ], [ 94.9633, 25.9031 ], [ 94.9699, 25.8974 ], [ 94.9739, 25.8807 ], [ 94.9822, 25.8757 ], [ 94.9998, 25.8854 ], [ 95.0116, 25.876 ], [ 95.0092, 25.8666 ], [ 95.0304, 25.8384 ], [ 95.0333, 25.8142 ], [ 95.05, 25.8 ], [ 95.044, 25.7737 ], [ 95.0491, 25.7597 ], [ 95.0405, 25.7418 ], [ 94.9972, 25.725 ], [ 94.9887, 25.7066 ], [ 94.9706, 25.6891 ], [ 94.936, 25.6676 ], [ 94.9228, 25.6454 ], [ 94.9151, 25.6077 ], [ 94.8823, 25.5917 ], [ 94.8816, 25.5851 ], [ 94.8662, 25.6088 ], [ 94.8514, 25.6108 ], [ 94.8461, 25.6501 ], [ 94.858, 25.6966 ], [ 94.8566, 25.7174 ], [ 94.8204, 25.7628 ], [ 94.7902, 25.7775 ], [ 94.7554, 25.7823 ], [ 94.7251, 25.7481 ], [ 94.7204, 25.7395 ], [ 94.727, 25.7252 ], [ 94.7168, 25.722 ], [ 94.7162, 25.7557 ], [ 94.6957, 25.7923 ], [ 94.6542, 25.8149 ], [ 94.6103, 25.818 ], [ 94.6028, 25.8262 ], [ 94.6107, 25.8342 ], [ 94.6102, 25.8441 ], [ 94.5959, 25.8754 ], [ 94.5698, 25.8897 ], [ 94.6871, 26.0381 ], [ 94.723, 26.0215 ], [ 94.7586, 26.0236 ], [ 94.7786, 26.0114 ], [ 94.7871, 25.9941 ], [ 94.8659, 25.9836 ], [ 94.8699, 25.9795 ], [ 94.843, 25.9301 ], [ 94.8705, 25.9457 ] ] ] } },
{ "type": "Feature", "properties": { "district": "Kohima", "did": "nagaland:Kohima", "state_key": "nagaland" }, "geometry": { "type": "Polygon", "coordinates": [ [ [ 94.2692, 25.9879 ], [ 94.2868, 25.9793 ], [ 94.2859, 25.9678 ], [ 94.2988, 25.9403 ], [ 94.2719, 25.9203 ], [ 94.248, 25.9211 ], [ 94.2486, 25.8991 ], [ 94.2408, 25.8927 ], [ 94.2414, 25.8719 ], [ 94.2292, 25.8414 ], [ 94.2561, 25.805 ], [ 94.2674, 25.8134 ], [ 94.2823, 25.8036 ], [ 94.2301, 25.714 ], [ 94.2311, 25.6947 ], [ 94.2133, 25.6725 ], [ 94.2203, 25.6568 ], [ 94.2142, 25.6313 ], [ 94.2083, 25.6287 ], [ 94.2144, 25.61 ], [ 94.1968, 25.5819 ], [ 94.1921, 25.5484 ], [ 94.1638, 25.5423 ], [ 94.156, 25.5505 ], [ 94.1346, 25.519 ], [ 94.088, 25.5282 ], [ 94.0921, 25.5371 ], [ 94.0819, 25.5552 ], [ 94.0654, 25.5545 ], [ 94.0502, 25.5723 ], [ 94.031, 25.5771 ], [ 94.0216, 25.589 ], [ 94.0065, 25.591 ], [ 94.0084, 25.5709 ], [ 94.0035, 25.5655 ], [ 93.9967, 25.5695 ], [ 93.9667, 25.5685 ], [ 93.9686, 25.5873 ], [ 93.9791, 25.5962 ], [ 93.966, 25.5994 ], [ 93.955, 25.5921 ], [ 93.9442, 25.5968 ], [ 93.9274, 25.6203 ], [ 93.954, 25.6537 ], [ 93.9505, 25.658 ], [ 93.9395, 25.6566 ], [ 93.9468, 25.6664 ], [ 93.9428, 25.6793 ], [ 93.9313, 25.6832 ], [ 93.9288, 25.6953 ], [ 93.9147, 25.7063 ], [ 93.9036, 25.7125 ], [ 93.8951, 25.7094 ], [ 93.8749, 25.7253 ], [ 93.8907, 25.7385 ], [ 93.8968, 25.7293 ], [ 93.9207, 25.7243 ], [ 93.9298, 25.7163 ], [ 93.947, 25.72 ], [ 93.9606, 25.7145 ], [ 93.9888, 25.7482 ], [ 93.9775, 25.7722 ], [ 93.9892, 25.7923 ], [ 93.9706, 25.8407 ], [ 93.9751, 25.8685 ], [ 93.9946, 25.8812 ], [ 93.9854, 25.8888 ], [ 93.9863, 25.8966 ], [ 93.9758, 25.8934 ], [ 93.9671, 25.9019 ], [ 93.9787, 25.9167 ], [ 93.978, 25.9266 ], [ 93.9794, 25.9224 ], [ 93.9911, 25.9221 ], [ 93.9947, 25.9266 ], [ 93.9903, 25.9277 ], [ 94.0197, 25.941 ], [ 94.0217, 25.9511 ], [ 94.0445, 25.9738 ], [ 94.0659, 25.9802 ], [ 94.0742, 25.9731 ], [ 94.0954, 25.9915 ], [ 94.1113, 25.9876 ], [ 94.1395, 25.9923 ], [ 94.1607, 25.973 ], [ 94.1763, 25.9863 ], [ 94.1927, 25.9894 ], [ 94.2111, 26.0089 ], [ 94.2146, 26.0218 ], [ 94.236, 26.0033 ], [ 94.2557, 26.0044 ], [ 94.2692, 25.9879 ] ] ] } },
{ "type": "Feature", "properties": { "district": "Longleng", "did": "nagaland:Longleng", "state_key": "nagaland" }, "geometry": { "type": "Polygon", "coordinates": [ [ [ 94.8948, 26.604 ], [ 94.8897, 26.6037 ], [ 94.894, 26.6005 ], [ 94.884, 26.5956 ], [ 94.8844, 26.59 ], [ 94.8933, 26.5895 ], [ 94.8806, 26.5835 ], [ 94.8794, 26.5773 ], [ 94.8872, 26.5661 ], [ 94.8826, 26.5639 ], [ 94.8938, 26.5602 ], [ 94.8896, 26.5513 ], [ 94.8824, 26.5538 ], [ 94.8912, 26.5446 ], [ 94.8913, 26.5094 ], [ 94.8976, 26.5054 ], [ 94.8942, 26.4988 ], [ 94.8906, 26.5024 ], [ 94.8966, 26.482 ], [ 94.8892, 26.4761 ], [ 94.8968, 26.4729 ], [ 94.9058, 26.4547 ], [ 94.8985, 26.4466 ], [ 94.9005, 26.4299 ], [ 94.8926, 26.4239 ], [ 94.9063, 26.4104 ], [ 94.9047, 26.4029 ], [ 94.9145, 26.4002 ], [ 94.9099, 26.3937 ], [ 94.916, 26.3846 ], [ 94.9043, 26.3728 ], [ 94.8911, 26.3741 ], [ 94.8825, 26.3813 ], [ 94.8477, 26.3719 ], [ 94.7889, 26.4268 ], [ 94.7554, 26.4151 ], [ 94.7321, 26.435 ], [ 94.7165, 26.4371 ], [ 94.7008, 26.4308 ], [ 94.7116, 26.4373 ], [ 94.7107, 26.4456 ], [ 94.6883, 26.4794 ], [ 94.6943, 26.4973 ], [ 94.6861, 26.5235 ], [ 94.7259, 26.5657 ], [ 94.7248, 26.5827 ], [ 94.7335, 26.5905 ], [ 94.7331, 26.601 ], [ 94.7201, 26.6102 ], [ 94.7215, 26.6224 ], [ 94.7067, 26.6382 ], [ 94.6861, 26.6397 ], [ 94.6777, 26.6482 ], [ 94.6669, 26.6483 ], [ 94.7185, 26.6808 ], [ 94.7277, 26.6954 ], [ 94.7238, 26.6985 ], [ 94.7489, 26.6981 ], [ 94.7434, 26.7314 ], [ 94.7567, 26.7296 ], [ 94.7363, 26.7497 ], [ 94.7402, 26.776 ], [ 94.7583, 26.766 ], [ 94.7714, 26.7898 ], [ 94.789, 26.796 ], [ 94.8133, 26.7923 ], [ 94.8088, 26.7852 ], [ 94.8153, 26.7841 ], [ 94.8145, 26.7745 ], [ 94.7936, 26.7685 ], [ 94.805, 26.7678 ], [ 94.798, 26.7609 ], [ 94.8044, 26.7491 ], [ 94.8158, 26.7436 ], [ 94.8342, 26.7184 ], [ 94.8149, 26.6958 ], [ 94.8055, 26.6975 ], [ 94.8049, 26.6892 ], [ 94.78, 26.6984 ], [ 94.7901, 26.6884 ], [ 94.7795, 26.6587 ], [ 94.7875, 26.655 ], [ 94.7867, 26.6338 ], [ 94.8147, 26.6223 ], [ 94.8307, 26.6224 ], [ 94.8552, 26.6102 ], [ 94.8703, 26.6137 ], [ 94.8744, 26.6091 ], [ 94.8831, 26.6159 ], [ 94.8852, 26.606 ], [ 94.8948, 26.604 ] ] ] } },
{ "type": "Feature", "properties": { "district": "Mokokchung", "did": "nagaland:Mokokchung", "state_key": "nagaland" }, "geometry": { "type": "Polygon", "coordinates": [ [ [ 94.6933, 26.4129 ], [ 94.6781, 26.3814 ], [ 94.6575, 26.3759 ], [ 94.6637, 26.3715 ], [ 94.6532, 26.3616 ], [ 94.6513, 26.3516 ], [ 94.6575, 26.3476 ], [ 94.6508, 26.3477 ], [ 94.6506, 26.3386 ], [ 94.6386, 26.3367 ], [ 94.6376, 26.3299 ], [ 94.6288, 26.3342 ], [ 94.6231, 26.3261 ], [ 94.6145, 26.3265 ], [ 94.5965, 26.3124 ], [ 94.5928, 26.2959 ], [ 94.5828, 26.301 ], [ 94.5813, 26.2895 ], [ 94.5756, 26.2874 ], [ 94.5727, 26.2923 ], [ 94.5594, 26.2826 ], [ 94.5654, 26.2682 ], [ 94.5598, 26.2559 ], [ 94.5831, 26.2385 ], [ 94.587, 26.2271 ], [ 94.572, 26.2072 ], [ 94.5535, 26.2019 ], [ 94.5375, 26.2075 ], [ 94.5312, 26.217 ], [ 94.5261, 26.2122 ], [ 94.4991, 26.2143 ], [ 94.4977, 26.2292 ], [ 94.516, 26.2395 ], [ 94.4982, 26.2549 ], [ 94.4959, 26.2743 ], [ 94.4789, 26.2936 ], [ 94.4546, 26.2447 ], [ 94.4591, 26.2362 ], [ 94.4441, 26.2182 ], [ 94.4457, 26.2062 ], [ 94.4055, 26.2117 ], [ 94.3957, 26.202 ], [ 94.3712, 26.1931 ], [ 94.3837, 26.2288 ], [ 94.356, 26.242 ], [ 94.335, 26.2406 ], [ 94.3593, 26.2689 ], [ 94.3519, 26.31 ], [ 94.366, 26.3367 ], [ 94.3435, 26.3315 ], [ 94.3585, 26.357 ], [ 94.3506, 26.3724 ], [ 94.3293, 26.3902 ], [ 94.3236, 26.4029 ], [ 94.3013, 26.3773 ], [ 94.304, 26.3943 ], [ 94.2972, 26.4061 ], [ 94.291, 26.4067 ], [ 94.2902, 26.418 ], [ 94.2987, 26.4377 ], [ 94.3238, 26.4655 ], [ 94.3196, 26.4742 ], [ 94.3265, 26.4754 ], [ 94.3255, 26.4819 ], [ 94.3397, 26.4807 ], [ 94.3529, 26.4902 ], [ 94.3501, 26.4924 ], [ 94.3466, 26.4921 ], [ 94.353, 26.4993 ], [ 94.3478, 26.5045 ], [ 94.3722, 26.506 ], [ 94.3761, 26.5218 ], [ 94.3854, 26.5305 ], [ 94.3958, 26.5273 ], [ 94.3952, 26.5336 ], [ 94.4009, 26.5342 ], [ 94.3978, 26.5386 ], [ 94.4027, 26.5413 ], [ 94.3966, 26.5427 ], [ 94.4062, 26.544 ], [ 94.402, 26.5547 ], [ 94.4134, 26.5772 ], [ 94.4019, 26.5936 ], [ 94.4029, 26.6106 ], [ 94.4356, 26.622 ], [ 94.4513, 26.6363 ], [ 94.4536, 26.6319 ], [ 94.4655, 26.6331 ], [ 94.4531, 26.6525 ], [ 94.4603, 26.6616 ], [ 94.4927, 26.6659 ], [ 94.5082, 26.6853 ], [ 94.5176, 26.6819 ], [ 94.5207, 26.6992 ], [ 94.5242, 26.6958 ], [ 94.5393, 26.7062 ], [ 94.5503, 26.7017 ], [ 94.5624, 26.7051 ], [ 94.5594, 26.6864 ], [ 94.5671, 26.6835 ], [ 94.5716, 26.6866 ], [ 94.5679, 26.6929 ], [ 94.5773, 26.7007 ], [ 94.5939, 26.6972 ], [ 94.5934, 26.715 ], [ 94.6033, 26.7124 ], [ 94.6015, 26.7191 ], [ 94.5911, 26.7206 ], [ 94.5971, 26.7346 ], [ 94.6096, 26.7369 ], [ 94.6081, 26.7288 ], [ 94.6208, 26.7228 ], [ 94.6191, 26.712 ], [ 94.643, 26.7207 ], [ 94.653, 26.7188 ], [ 94.6923, 26.7319 ], [ 94.7369, 26.7639 ], [ 94.7363, 26.7497 ], [ 94.7567, 26.7296 ], [ 94.7434, 26.7314 ], [ 94.7489, 26.6981 ], [ 94.7238, 26.6985 ], [ 94.7277, 26.6954 ], [ 94.7185, 26.6808 ], [ 94.6669, 26.6483 ], [ 94.6777, 26.6482 ], [ 94.6861, 26.6397 ], [ 94.7067, 26.6382 ], [ 94.7215, 26.6224 ], [ 94.7201, 26.6102 ], [ 94.7331, 26.601 ], [ 94.7335, 26.5905 ], [ 94.7248, 26.5827 ], [ 94.7259, 26.5657 ], [ 94.6861, 26.5235 ], [ 94.6943, 26.4973 ], [ 94.6883, 26.4794 ], [ 94.7107, 26.4456 ], [ 94.7022, 26.4083 ], [ 94.6933, 26.4129 ] ] ] } },
{ "type": "Feature", "properties": { "district": "Mon", "did": "nagaland:Mon", "state_key": "nagaland" }, "geometry": { "type": "Polygon", "coordinates": [ [ [ 95.063, 26.4454 ], [ 95.0661, 26.4418 ], [ 95.0729, 26.4479 ], [ 95.0845, 26.4471 ], [ 95.1039, 26.4207 ], [ 95.0965, 26.4011 ], [ 95.0998, 26.3937 ], [ 95.1084, 26.3953 ], [ 95.1295, 26.3845 ], [ 95.1308, 26.3707 ], [ 95.1212, 26.3496 ], [ 95.1284, 26.3393 ], [ 95.044, 26.3277 ], [ 94.9997, 26.2854 ], [ 94.9797, 26.2937 ], [ 94.96, 26.2915 ], [ 94.9376, 26.2987 ], [ 94.913, 26.32 ], [ 94.8966, 26.3496 ], [ 94.909, 26.3652 ], [ 94.9077, 26.3807 ], [ 94.9161, 26.3852 ], [ 94.9099, 26.3937 ], [ 94.9145, 26.4002 ], [ 94.9047, 26.4029 ], [ 94.9063, 26.4104 ], [ 94.8926, 26.4239 ], [ 94.9005, 26.4299 ], [ 94.8985, 26.4466 ], [ 94.9058, 26.4547 ], [ 94.8968, 26.4729 ], [ 94.8892, 26.4761 ], [ 94.8966, 26.482 ], [ 94.8906, 26.5024 ], [ 94.8942, 26.4988 ], [ 94.8976, 26.5054 ], [ 94.8913, 26.5094 ], [ 94.8912, 26.5446 ], [ 94.8824, 26.5538 ], [ 94.8896, 26.5513 ], [ 94.8938, 26.5602 ], [ 94.8826, 26.5639 ], [ 94.8872, 26.5661 ], [ 94.8794, 26.5775 ], [ 94.8806, 26.5835 ], [ 94.8933, 26.5895 ], [ 94.885, 26.5893 ], [ 94.8838, 26.5949 ], [ 94.8945, 26.6048 ], [ 94.8846, 26.6065 ], [ 94.8834, 26.6159 ], [ 94.8744, 26.6091 ], [ 94.8703, 26.6137 ], [ 94.8552, 26.6102 ], [ 94.8307, 26.6224 ], [ 94.8147, 26.6223 ], [ 94.7867, 26.6338 ], [ 94.7875, 26.655 ], [ 94.7795, 26.6587 ], [ 94.7901, 26.6884 ], [ 94.78, 26.6984 ], [ 94.8049, 26.6892 ], [ 94.8055, 26.6975 ], [ 94.8149, 26.6958 ], [ 94.8342, 26.7187 ], [ 94.8158, 26.7436 ], [ 94.8044, 26.7491 ], [ 94.798, 26.7609 ], [ 94.805, 26.7678 ], [ 94.7936, 26.7685 ], [ 94.8145, 26.7745 ], [ 94.8153, 26.7841 ], [ 94.8088, 26.7852 ], [ 94.8133, 26.7923 ], [ 94.7888, 26.7973 ], [ 94.8027, 26.8013 ], [ 94.7951, 26.814 ], [ 94.8145, 26.8195 ], [ 94.8132, 26.8336 ], [ 94.8211, 26.8411 ], [ 94.8176, 26.8477 ], [ 94.8345, 26.8603 ], [ 94.8365, 26.8688 ], [ 94.8501, 26.8746 ], [ 94.866, 26.9087 ], [ 94.8894, 26.9289 ], [ 94.9144, 26.9368 ], [ 94.924, 26.9465 ], [ 94.9309, 26.9326 ], [ 94.9555, 26.9401 ], [ 94.9612, 26.9371 ], [ 94.9672, 26.9235 ], [ 94.9826, 26.913 ], [ 94.99, 26.9142 ], [ 94.9913, 26.9208 ], [ 95.0168, 26.9211 ], [ 95.0341, 26.9356 ], [ 95.1018, 26.9618 ], [ 95.112, 26.9807 ], [ 95.1502, 26.9992 ], [ 95.1925, 27.0352 ], [ 95.197, 27.0008 ], [ 95.192, 26.9845 ], [ 95.2068, 26.9771 ], [ 95.202, 26.9767 ], [ 95.2118, 26.9648 ], [ 95.2035, 26.9571 ], [ 95.2102, 26.9532 ], [ 95.206, 26.9511 ], [ 95.2112, 26.9314 ], [ 95.2223, 26.9288 ], [ 95.2306, 26.9149 ], [ 95.2305, 26.8852 ], [ 95.2266, 26.88 ], [ 95.2095, 26.8799 ], [ 95.1811, 26.8592 ], [ 95.1922, 26.8439 ], [ 95.2052, 26.845 ], [ 95.1956, 26.8342 ], [ 95.2116, 26.7926 ], [ 95.2414, 26.7815 ], [ 95.2165, 26.754 ], [ 95.2125, 26.7294 ], [ 95.2324, 26.7062 ], [ 95.2332, 26.6811 ], [ 95.2096, 26.6488 ], [ 95.1991, 26.6425 ], [ 95.1807, 26.6428 ], [ 95.1669, 26.6344 ], [ 95.1632, 26.6217 ], [ 95.1489, 26.6159 ], [ 95.1466, 26.5931 ], [ 95.1542, 26.5831 ], [ 95.1389, 26.5566 ], [ 95.1256, 26.5581 ], [ 95.1075, 26.5415 ], [ 95.1145, 26.5185 ], [ 95.1002, 26.5058 ], [ 95.0965, 26.4928 ], [ 95.0728, 26.4724 ], [ 95.063, 26.4454 ] ] ] } },
{ "type": "Feature", "properties": { "district": "Paren", "did": "nagaland:Paren", "state_key": "nagaland" }, "geometry": { "type": "Polygon", "coordinates": [ [ [ 93.9442, 25.5968 ], [ 93.955, 25.5921 ], [ 93.966, 25.5994 ], [ 93.9791, 25.5962 ], [ 93.9686, 25.5873 ], [ 93.9657, 25.5739 ], [ 93.9667, 25.5685 ], [ 93.9764, 25.5666 ], [ 93.9614, 25.5523 ], [ 93.8882, 25.5643 ], [ 93.8585, 25.5535 ], [ 93.8328, 25.5591 ], [ 93.816, 25.5404 ], [ 93.767, 25.5364 ], [ 93.7621, 25.496 ], [ 93.7697, 25.4939 ], [ 93.7847, 25.5025 ], [ 93.8003, 25.4951 ], [ 93.8101, 25.4807 ], [ 93.8052, 25.4616 ], [ 93.7773, 25.4208 ], [ 93.7429, 25.4018 ], [ 93.736, 25.3805 ], [ 93.7193, 25.3717 ], [ 93.7142, 25.3577 ], [ 93.7078, 25.3542 ], [ 93.689, 25.3578 ], [ 93.6833, 25.3274 ], [ 93.6683, 25.3249 ], [ 93.6691, 25.3077 ], [ 93.6623, 25.3045 ], [ 93.6461, 25.2654 ], [ 93.6042, 25.1984 ], [ 93.5892, 25.2002 ], [ 93.5865, 25.2163 ], [ 93.5711, 25.2239 ], [ 93.551, 25.247 ], [ 93.5015, 25.2407 ], [ 93.5071, 25.2721 ], [ 93.4731, 25.2756 ], [ 93.4706, 25.3051 ], [ 93.4534, 25.3215 ], [ 93.4565, 25.3354 ], [ 93.4485, 25.3403 ], [ 93.4516, 25.354 ], [ 93.465, 25.3607 ], [ 93.4736, 25.3793 ], [ 93.4597, 25.4032 ], [ 93.4582, 25.431 ], [ 93.4364, 25.4482 ], [ 93.4155, 25.445 ], [ 93.3903, 25.4604 ], [ 93.3845, 25.4692 ], [ 93.3914, 25.4822 ], [ 93.3855, 25.4904 ], [ 93.3673, 25.4995 ], [ 93.3501, 25.5322 ], [ 93.3353, 25.5342 ], [ 93.3267, 25.5453 ], [ 93.338, 25.5569 ], [ 93.3522, 25.56 ], [ 93.3587, 25.5546 ], [ 93.3625, 25.566 ], [ 93.3798, 25.5766 ], [ 93.3856, 25.5928 ], [ 93.3988, 25.596 ], [ 93.4015, 25.6111 ], [ 93.411, 25.6136 ], [ 93.4137, 25.621 ], [ 93.4216, 25.6182 ], [ 93.4274, 25.6325 ], [ 93.4337, 25.6294 ], [ 93.4444, 25.6396 ], [ 93.4467, 25.6346 ], [ 93.4496, 25.6395 ], [ 93.4609, 25.6323 ], [ 93.4573, 25.6411 ], [ 93.472, 25.6424 ], [ 93.4767, 25.6478 ], [ 93.4817, 25.6445 ], [ 93.4814, 25.6512 ], [ 93.4852, 25.6483 ], [ 93.488, 25.6543 ], [ 93.4966, 25.6545 ], [ 93.5183, 25.6794 ], [ 93.5127, 25.6846 ], [ 93.5225, 25.6976 ], [ 93.5275, 25.6912 ], [ 93.5363, 25.7018 ], [ 93.5412, 25.6988 ], [ 93.548, 25.7114 ], [ 93.5432, 25.7191 ], [ 93.563, 25.7076 ], [ 93.5744, 25.7147 ], [ 93.5774, 25.6943 ], [ 93.588, 25.6929 ], [ 93.5919, 25.6855 ], [ 93.5812, 25.671 ], [ 93.5911, 25.6691 ], [ 93.5873, 25.6572 ], [ 93.5917, 25.6534 ], [ 93.6014, 25.6507 ], [ 93.6359, 25.6606 ], [ 93.6495, 25.677 ], [ 93.6484, 25.6867 ], [ 93.6685, 25.6963 ], [ 93.6795, 25.6948 ], [ 93.692, 25.7145 ], [ 93.685, 25.7705 ], [ 93.7167, 25.7642 ], [ 93.7191, 25.7554 ], [ 93.7308, 25.7581 ], [ 93.7269, 25.7516 ], [ 93.7367, 25.7393 ], [ 93.734, 25.7313 ], [ 93.7466, 25.7252 ], [ 93.7444, 25.7137 ], [ 93.7691, 25.7033 ], [ 93.7922, 25.673 ], [ 93.8004, 25.6942 ], [ 93.8165, 25.7031 ], [ 93.821, 25.7174 ], [ 93.84, 25.6928 ], [ 93.8724, 25.6755 ], [ 93.9157, 25.6143 ], [ 93.9279, 25.6206 ], [ 93.9442, 25.5968 ] ] ] } },
{ "type": "Feature", "properties": { "district": "Phek", "did": "nagaland:Phek", "state_key": "nagaland" }, "geometry": { "type": "Polygon", "coordinates": [ [ [ 94.463, 25.8463 ], [ 94.4655, 25.8304 ], [ 94.495, 25.8315 ], [ 94.5157, 25.8149 ], [ 94.5181, 25.825 ], [ 94.5295, 25.8224 ], [ 94.5423, 25.8113 ], [ 94.536, 25.7829 ], [ 94.5546, 25.7768 ], [ 94.5518, 25.7462 ], [ 94.5597, 25.732 ], [ 94.5844, 25.7501 ], [ 94.6068, 25.7786 ], [ 94.6367, 25.7693 ], [ 94.6585, 25.7778 ], [ 94.6958, 25.7575 ], [ 94.7129, 25.7595 ], [ 94.718, 25.7218 ], [ 94.727, 25.7252 ], [ 94.7204, 25.7395 ], [ 94.7251, 25.7481 ], [ 94.7554, 25.7823 ], [ 94.7902, 25.7775 ], [ 94.8192, 25.7637 ], [ 94.8566, 25.7174 ], [ 94.858, 25.6966 ], [ 94.8461, 25.6501 ], [ 94.8516, 25.6102 ], [ 94.8662, 25.6088 ], [ 94.8985, 25.5653 ], [ 94.8459, 25.5619 ], [ 94.8258, 25.5425 ], [ 94.8254, 25.5238 ], [ 94.8124, 25.5113 ], [ 94.808, 25.4933 ], [ 94.7887, 25.4896 ], [ 94.7835, 25.4804 ], [ 94.762, 25.482 ], [ 94.7514, 25.4939 ], [ 94.744, 25.4811 ], [ 94.7181, 25.4695 ], [ 94.6836, 25.4664 ], [ 94.6803, 25.454 ], [ 94.6649, 25.4494 ], [ 94.6281, 25.4598 ], [ 94.5527, 25.5071 ], [ 94.56, 25.5623 ], [ 94.5511, 25.5802 ], [ 94.5792, 25.6288 ], [ 94.5906, 25.6382 ], [ 94.5716, 25.6391 ], [ 94.5911, 25.6857 ], [ 94.5686, 25.6921 ], [ 94.5473, 25.6569 ], [ 94.5271, 25.6446 ], [ 94.5262, 25.6371 ], [ 94.5197, 25.6379 ], [ 94.5009, 25.6115 ], [ 94.4974, 25.6146 ], [ 94.489, 25.6089 ], [ 94.4867, 25.6144 ], [ 94.4696, 25.6162 ], [ 94.4434, 25.5927 ], [ 94.4256, 25.5874 ], [ 94.418, 25.5707 ], [ 94.4219, 25.5561 ], [ 94.4158, 25.5373 ], [ 94.3841, 25.5313 ], [ 94.3246, 25.5032 ], [ 94.3091, 25.4894 ], [ 94.2983, 25.4896 ], [ 94.2824, 25.5067 ], [ 94.2698, 25.498 ], [ 94.2478, 25.4941 ], [ 94.2248, 25.4911 ], [ 94.2106, 25.4954 ], [ 94.186, 25.5298 ], [ 94.1966, 25.5572 ], [ 94.1968, 25.5819 ], [ 94.2144, 25.61 ], [ 94.2083, 25.6287 ], [ 94.2142, 25.6313 ], [ 94.2203, 25.6568 ], [ 94.2133, 25.6725 ], [ 94.2315, 25.6958 ], [ 94.2301, 25.714 ], [ 94.2582, 25.7586 ], [ 94.2707, 25.7524 ], [ 94.3288, 25.7484 ], [ 94.3321, 25.7606 ], [ 94.3225, 25.7656 ], [ 94.3157, 25.7794 ], [ 94.3265, 25.8057 ], [ 94.3367, 25.8263 ], [ 94.3436, 25.8191 ], [ 94.3539, 25.8188 ], [ 94.371, 25.8271 ], [ 94.3756, 25.8365 ], [ 94.3701, 25.8542 ], [ 94.4457, 25.8424 ], [ 94.463, 25.8463 ] ] ] } },
{ "type": "Feature", "properties": { "district": "Tuensang", "did": "nagaland:Tuensang", "state_key": "nagaland" }, "geometry": { "type": "Polygon", "coordinates": [ [ [ 94.8345, 25.9904 ], [ 94.7871, 25.9941 ], [ 94.7786, 26.0114 ], [ 94.7586, 26.0236 ], [ 94.723, 26.0215 ], [ 94.6871, 26.0381 ], [ 94.6791, 26.0484 ], [ 94.6838, 26.0659 ], [ 94.6928, 26.0728 ], [ 94.6883, 26.1377 ], [ 94.7057, 26.172 ], [ 94.6966, 26.1715 ], [ 94.6894, 26.1983 ], [ 94.6809, 26.1987 ], [ 94.6666, 26.2127 ], [ 94.6565, 26.2033 ], [ 94.6382, 26.2174 ], [ 94.6124, 26.1936 ], [ 94.5997, 26.1975 ], [ 94.5834, 26.2191 ], [ 94.5831, 26.2385 ], [ 94.5597, 26.2563 ], [ 94.5654, 26.2682 ], [ 94.5594, 26.2826 ], [ 94.5727, 26.2923 ], [ 94.5756, 26.2874 ], [ 94.5813, 26.2895 ], [ 94.5828, 26.301 ], [ 94.5928, 26.2959 ], [ 94.5965, 26.3124 ], [ 94.6145, 26.3265 ], [ 94.6231, 26.3261 ], [ 94.6288, 26.3342 ], [ 94.6376, 26.3299 ], [ 94.6386, 26.3367 ], [ 94.6506, 26.3386 ], [ 94.6508, 26.3477 ], [ 94.6575, 26.3476 ], [ 94.6513, 26.3516 ], [ 94.6532, 26.3616 ], [ 94.6637, 26.3715 ], [ 94.6575, 26.3759 ], [ 94.6781, 26.3814 ], [ 94.6889, 26.3963 ], [ 94.687, 26.4069 ], [ 94.6936, 26.4131 ], [ 94.7022, 26.4083 ], [ 94.7035, 26.4283 ], [ 94.7161, 26.437 ], [ 94.7348, 26.434 ], [ 94.7546, 26.4152 ], [ 94.7747, 26.4189 ], [ 94.7834, 26.4279 ], [ 94.7905, 26.4261 ], [ 94.8474, 26.372 ], [ 94.8825, 26.3813 ], [ 94.8919, 26.3739 ], [ 94.9106, 26.377 ], [ 94.8966, 26.3496 ], [ 94.9023, 26.3375 ], [ 94.9376, 26.2987 ], [ 94.9568, 26.2922 ], [ 94.9797, 26.2937 ], [ 94.9997, 26.2854 ], [ 95.044, 26.3277 ], [ 95.1284, 26.3393 ], [ 95.1225, 26.3074 ], [ 95.1284, 26.2941 ], [ 95.1198, 26.2645 ], [ 95.1273, 26.254 ], [ 95.1146, 26.2329 ], [ 95.1427, 26.2116 ], [ 95.1222, 26.1863 ], [ 95.1266, 26.1778 ], [ 95.1172, 26.1586 ], [ 95.1263, 26.1285 ], [ 95.1156, 26.1125 ], [ 95.1219, 26.0977 ], [ 95.142, 26.0944 ], [ 95.1503, 26.0865 ], [ 95.1653, 26.0921 ], [ 95.1858, 26.0735 ], [ 95.1643, 26.0492 ], [ 95.1591, 26.0249 ], [ 95.0899, 25.9508 ], [ 95.0541, 25.9381 ], [ 95.0439, 25.9269 ], [ 95.0312, 25.931 ], [ 95.0287, 25.9137 ], [ 95.0118, 25.8978 ], [ 95.0194, 25.8814 ], [ 95.0112, 25.8755 ], [ 94.9998, 25.8854 ], [ 94.9822, 25.8757 ], [ 94.9739, 25.8807 ], [ 94.9699, 25.8974 ], [ 94.9633, 25.9031 ], [ 94.9514, 25.901 ], [ 94.9359, 25.9165 ], [ 94.9385, 25.9371 ], [ 94.9255, 25.9493 ], [ 94.9113, 25.9429 ], [ 94.8705, 25.9457 ], [ 94.8429, 25.9302 ], [ 94.8698, 25.9806 ], [ 94.8345, 25.9904 ] ] ] } },
{ "type": "Feature", "properties": { "district": "Wokha", "did": "nagaland:Wokha", "state_key": "nagaland" }, "geometry": { "type": "Polygon", "coordinates": [ [ [ 94.281, 26.5351 ], [ 94.2897, 26.4797 ], [ 94.2999, 26.4637 ], [ 94.3156, 26.4582 ], [ 94.2902, 26.418 ], [ 94.291, 26.4067 ], [ 94.2972, 26.4061 ], [ 94.304, 26.3943 ], [ 94.3013, 26.3773 ], [ 94.3251, 26.4021 ], [ 94.3585, 26.357 ], [ 94.3435, 26.3315 ], [ 94.366, 26.3367 ], [ 94.3519, 26.31 ], [ 94.3593, 26.2689 ], [ 94.3351, 26.2403 ], [ 94.356, 26.242 ], [ 94.3848, 26.224 ], [ 94.3712, 26.1931 ], [ 94.3352, 26.1784 ], [ 94.3351, 26.1722 ], [ 94.3473, 26.1711 ], [ 94.3475, 26.1555 ], [ 94.3607, 26.1472 ], [ 94.3634, 26.135 ], [ 94.3849, 26.1256 ], [ 94.387, 26.1159 ], [ 94.3799, 26.1005 ], [ 94.3833, 26.0871 ], [ 94.3906, 26.084 ], [ 94.3578, 26.0216 ], [ 94.3561, 26.0098 ], [ 94.3628, 26.0087 ], [ 94.3328, 25.9982 ], [ 94.317, 26.0185 ], [ 94.2997, 26.0065 ], [ 94.2749, 26.0097 ], [ 94.2442, 26.0019 ], [ 94.2146, 26.0218 ], [ 94.2111, 26.0089 ], [ 94.1927, 25.9894 ], [ 94.1763, 25.9863 ], [ 94.1625, 25.9732 ], [ 94.1395, 25.9923 ], [ 94.1113, 25.9876 ], [ 94.0954, 25.9915 ], [ 94.0742, 25.9731 ], [ 94.0659, 25.9802 ], [ 94.0445, 25.9738 ], [ 94.0217, 25.9511 ], [ 94.0195, 25.9408 ], [ 93.9903, 25.9277 ], [ 93.9947, 25.9266 ], [ 93.9911, 25.9221 ], [ 93.9794, 25.9224 ], [ 93.97, 25.9368 ], [ 93.9687, 25.9573 ], [ 93.9542, 25.9693 ], [ 93.9591, 25.9943 ], [ 93.953, 26.003 ], [ 93.9625, 26.0365 ], [ 93.9874, 26.0668 ], [ 93.9815, 26.0812 ], [ 93.9979, 26.1096 ], [ 93.9868, 26.1139 ], [ 93.9978, 26.1288 ], [ 93.9872, 26.1311 ], [ 94.0022, 26.1344 ], [ 94.0036, 26.1442 ], [ 93.9945, 26.1483 ], [ 94.0037, 26.1601 ], [ 94.0011, 26.1723 ], [ 94.032, 26.1975 ], [ 94.0477, 26.2494 ], [ 94.0746, 26.2644 ], [ 94.0747, 26.2836 ], [ 94.0841, 26.2833 ], [ 94.1051, 26.3199 ], [ 94.1217, 26.3178 ], [ 94.1159, 26.3297 ], [ 94.1387, 26.3363 ], [ 94.1451, 26.3306 ], [ 94.1746, 26.3405 ], [ 94.1776, 26.3464 ], [ 94.1687, 26.3509 ], [ 94.162, 26.3472 ], [ 94.1602, 26.3543 ], [ 94.1711, 26.3628 ], [ 94.1776, 26.382 ], [ 94.1717, 26.4298 ], [ 94.1833, 26.4553 ], [ 94.2027, 26.4691 ], [ 94.2075, 26.4865 ], [ 94.2366, 26.5061 ], [ 94.2563, 26.5412 ], [ 94.2847, 26.5611 ], [ 94.281, 26.5351 ] ] ] } },
{ "type": "Feature", "properties": { "district": "Zunheboto", "did": "nagaland:Zunheboto", "state_key": "nagaland" }, "geometry": { "type": "Polygon", "coordinates": [ [ [ 94.4457, 25.8424 ], [ 94.3712, 25.8566 ], [ 94.3718, 25.828 ], [ 94.3539, 25.8188 ], [ 94.3436, 25.8191 ], [ 94.3367, 25.8263 ], [ 94.3265, 25.8057 ], [ 94.3158, 25.7789 ], [ 94.3316, 25.7546 ], [ 94.3215, 25.7459 ], [ 94.27, 25.7525 ], [ 94.2582, 25.7586 ], [ 94.2815, 25.8074 ], [ 94.2666, 25.8133 ], [ 94.2561, 25.805 ], [ 94.2292, 25.8414 ], [ 94.2414, 25.8719 ], [ 94.2408, 25.8927 ], [ 94.2486, 25.8991 ], [ 94.248, 25.9211 ], [ 94.2719, 25.9203 ], [ 94.2988, 25.9403 ], [ 94.2859, 25.9678 ], [ 94.2868, 25.9793 ], [ 94.2692, 25.9879 ], [ 94.2557, 26.0044 ], [ 94.2759, 26.0097 ], [ 94.2997, 26.0065 ], [ 94.317, 26.0185 ], [ 94.3328, 25.9982 ], [ 94.3625, 26.0084 ], [ 94.3561, 26.0098 ], [ 94.3578, 26.0216 ], [ 94.3906, 26.084 ], [ 94.3833, 26.0871 ], [ 94.3799, 26.1005 ], [ 94.3869, 26.1109 ], [ 94.3852, 26.1252 ], [ 94.3634, 26.135 ], [ 94.3607, 26.1472 ], [ 94.3475, 26.1555 ], [ 94.3473, 26.1711 ], [ 94.3351, 26.1722 ], [ 94.3352, 26.1784 ], [ 94.385, 26.1968 ], [ 94.4055, 26.2117 ], [ 94.4457, 26.2062 ], [ 94.4441, 26.2182 ], [ 94.4591, 26.2362 ], [ 94.4546, 26.2447 ], [ 94.4789, 26.2936 ], [ 94.4959, 26.2743 ], [ 94.4982, 26.2549 ], [ 94.516, 26.2395 ], [ 94.4977, 26.2292 ], [ 94.4996, 26.214 ], [ 94.5261, 26.2122 ], [ 94.5312, 26.217 ], [ 94.5375, 26.2075 ], [ 94.5535, 26.2019 ], [ 94.572, 26.2072 ], [ 94.5834, 26.2191 ], [ 94.5997, 26.1975 ], [ 94.6124, 26.1936 ], [ 94.6382, 26.2174 ], [ 94.6565, 26.2033 ], [ 94.6666, 26.2127 ], [ 94.6809, 26.1987 ], [ 94.6894, 26.1983 ], [ 94.6966, 26.1715 ], [ 94.7057, 26.172 ], [ 94.6883, 26.1377 ], [ 94.6928, 26.0728 ], [ 94.6838, 26.0659 ], [ 94.6791, 26.0484 ], [ 94.6871, 26.0381 ], [ 94.5698, 25.8897 ], [ 94.5959, 25.8754 ], [ 94.6102, 25.8441 ], [ 94.6107, 25.8342 ], [ 94.6028, 25.8262 ], [ 94.6103, 25.818 ], [ 94.6513, 25.8156 ], [ 94.685, 25.8004 ], [ 94.6986, 25.7887 ], [ 94.7129, 25.7595 ], [ 94.6958, 25.7575 ], [ 94.6585, 25.7778 ], [ 94.6367, 25.7693 ], [ 94.6068, 25.7786 ], [ 94.5844, 25.7501 ], [ 94.5597, 25.732 ], [ 94.5525, 25.7408 ], [ 94.5534, 25.7797 ], [ 94.5354, 25.7844 ], [ 94.5417, 25.8122 ], [ 94.5181, 25.825 ], [ 94.5177, 25.8154 ], [ 94.5112, 25.8167 ], [ 94.4943, 25.8317 ], [ 94.4664, 25.83 ], [ 94.4595, 25.846 ], [ 94.4457, 25.8424 ] ] ] } }
]
}
