{
"type": "FeatureCollection",
"crs": { "type": "name", "properties": { "name": "urn:ogc:def:crs:OGC:1.3:CRS84" } },
"xy_coordinate_resolution": 0.0001,
"features": [
{ "type": "Feature", "properties": { "district": "East", "did": "sikkim:East", "state_key": "sikkim" }, "geometry": { "type": "Polygon", "coordinates": [ [ [ 88.9136, 27.2901 ], [ 88.9033, 27.2726 ], [ 88.8791, 27.2611 ], [ 88.8314, 27.2622 ], [ 88.8031, 27.2478 ], [ 88.8033, 27.22 ], [ 88.7868, 27.182 ], [ 88.7646, 27.177 ], [ 88.7572, 27.1654 ], [ 88.7601, 27.1522 ], [ 88.7386, 27.1354 ], [ 88.7178, 27.1433 ], [ 88.7101, 27.1668 ], [ 88.6851, 27.1799 ], [ 88.6604, 27.1606 ], [ 88.6355, 27.1667 ], [ 88.626, 27.1804 ], [ 88.5929, 27.1912 ], [ 88.5888, 27.1864 ], [ 88.5859, 27.1904 ], [ 88.543, 27.1832 ], [ 88.5315, 27.1724 ], [ 88.5264, 27.1738 ], [ 88.5037, 27.1851 ], [ 88.491, 27.2023 ], [ 88.4907, 27.2395 ], [ 88.4469, 27.2612 ], [ 88.4415, 27.2739 ], [ 88.4544, 27.3153 ], [ 88.4862, 27.3336 ], [ 88.4803, 27.3604 ], [ 88.486, 27.3783 ], [ 88.5232, 27.3971 ], [ 88.5548, 27.3924 ], [ 88.5907, 27.3963 ], [ 88.6268, 27.3873 ], [ 88.6588, 27.3911 ], [ 88.6751, 27.4002 ], [ 88.6948, 27.3984 ], [ 88.7187, 27.4167 ], [ 88.7672, 27.4137 ], [ 88.7822, 27.4229 ], [ 88.8048, 27.4152 ], [ 88.8062, 27.4068 ], [ 88.8184, 27.4015 ], [ 88.8377, 27.3792 ], [ 88.861, 27.3865 ], [ 88.8628, 27.3698 ], [ 88.8811, 27.3604 ], [ 88.884, 27.3425 ], [ 88.8951, 27.3322 ], [ 88.9192, 27.328 ], [ 88.9086, 27.3034 ], [ 88.9136, 27.2901 ] ] ] } },
{ "type": "Feature", "properties": { "district": "North", "did": "sikkim:North", "state_key": "sikkim" }, "geometry": { "type": "Polygon", "coordinates": [ [ [ 88.7837, 27.4748 ], [ 88.777, 27.4681 ], [ 88.7844, 27.4586 ], [ 88.7825, 27.4497 ], [ 88.7963, 27.4473 ], [ 88.7917, 27.4384 ], [ 88.7956, 27.4283 ], [ 88.809, 27.4234 ], [ 88.8048, 27.4152 ], [ 88.7822, 27.4229 ], [ 88.7672, 27.4137 ], [ 88.7314, 27.4193 ], [ 88.7187, 27.4167 ], [ 88.6948, 27.3984 ], [ 88.6751, 27.4002 ], [ 88.6588, 27.3911 ], [ 88.6268, 27.3873 ], [ 88.5907, 27.3963 ], [ 88.5548, 27.3924 ], [ 88.5232, 27.3971 ], [ 88.486, 27.3783 ], [ 88.4366, 27.3999 ], [ 88.4167, 27.4235 ], [ 88.416, 27.4465 ], [ 88.4056, 27.4757 ], [ 88.3756, 27.4975 ], [ 88.3557, 27.5213 ], [ 88.3192, 27.5271 ], [ 88.2816, 27.5129 ], [ 88.2415, 27.5348 ], [ 88.232, 27.5571 ], [ 88.2097, 27.5813 ], [ 88.115, 27.6179 ], [ 88.1202, 27.6452 ], [ 88.1437, 27.6637 ], [ 88.1542, 27.6918 ], [ 88.1476, 27.7028 ], [ 88.1562, 27.7361 ], [ 88.1784, 27.7462 ], [ 88.1822, 27.7758 ], [ 88.1972, 27.7912 ], [ 88.1736, 27.8206 ], [ 88.2028, 27.8385 ], [ 88.1952, 27.8545 ], [ 88.179, 27.8565 ], [ 88.135, 27.8816 ], [ 88.1399, 27.8891 ], [ 88.1196, 27.916 ], [ 88.1379, 27.9372 ], [ 88.1294, 27.9494 ], [ 88.1452, 27.9641 ], [ 88.1855, 27.9435 ], [ 88.2064, 27.9417 ], [ 88.208, 27.9617 ], [ 88.2251, 27.9604 ], [ 88.2372, 27.9708 ], [ 88.2511, 27.9424 ], [ 88.2662, 27.9573 ], [ 88.2756, 27.9547 ], [ 88.286, 27.9663 ], [ 88.3082, 27.9671 ], [ 88.3179, 27.9788 ], [ 88.3304, 27.9732 ], [ 88.3367, 27.9842 ], [ 88.3523, 27.9899 ], [ 88.377, 27.9899 ], [ 88.3874, 27.9794 ], [ 88.3991, 27.978 ], [ 88.4108, 27.9833 ], [ 88.4147, 27.9989 ], [ 88.4306, 28.0081 ], [ 88.4678, 28.0171 ], [ 88.4804, 28.0425 ], [ 88.4956, 28.0539 ], [ 88.5096, 28.0412 ], [ 88.5197, 28.0436 ], [ 88.5235, 28.035 ], [ 88.5436, 28.0333 ], [ 88.5508, 28.0376 ], [ 88.5525, 28.0814 ], [ 88.5663, 28.0903 ], [ 88.584, 28.0833 ], [ 88.6026, 28.0892 ], [ 88.6052, 28.0976 ], [ 88.6193, 28.0981 ], [ 88.6177, 28.1178 ], [ 88.6086, 28.1226 ], [ 88.61, 28.1287 ], [ 88.6344, 28.1196 ], [ 88.646, 28.0987 ], [ 88.6643, 28.0874 ], [ 88.6721, 28.0723 ], [ 88.6836, 28.0777 ], [ 88.7096, 28.0776 ], [ 88.7552, 28.0763 ], [ 88.7657, 28.0705 ], [ 88.8136, 28.0224 ], [ 88.8363, 28.0148 ], [ 88.8438, 27.9904 ], [ 88.8369, 27.9288 ], [ 88.8604, 27.9272 ], [ 88.87, 27.9156 ], [ 88.8718, 27.8985 ], [ 88.8826, 27.8908 ], [ 88.8778, 27.8758 ], [ 88.8877, 27.8562 ], [ 88.8813, 27.8498 ], [ 88.8805, 27.8292 ], [ 88.8558, 27.8153 ], [ 88.8615, 27.797 ], [ 88.8533, 27.7645 ], [ 88.8652, 27.7427 ], [ 88.8567, 27.7317 ], [ 88.8563, 27.7165 ], [ 88.838, 27.7063 ], [ 88.8477, 27.6936 ], [ 88.8419, 27.6822 ], [ 88.8484, 27.668 ], [ 88.8279, 27.6443 ], [ 88.8153, 27.6461 ], [ 88.8049, 27.6235 ], [ 88.8117, 27.6184 ], [ 88.809, 27.6025 ], [ 88.7884, 27.5849 ], [ 88.7913, 27.5751 ], [ 88.77, 27.5713 ], [ 88.7637, 27.5651 ], [ 88.7739, 27.5538 ], [ 88.7773, 27.5326 ], [ 88.7928, 27.5289 ], [ 88.7837, 27.4748 ] ] ] } },
{ "type": "Feature", "properties": { "district": "South", "did": "sikkim:South", "state_key": "sikkim" }, "geometry": { "type": "Polygon", "coordinates": [ [ [ 88.4907, 27.2395 ], [ 88.4945, 27.2305 ], [ 88.491, 27.2023 ], [ 88.5037, 27.1851 ], [ 88.5254, 27.1782 ], [ 88.5208, 27.1729 ], [ 88.5312, 27.1655 ], [ 88.5276, 27.1574 ], [ 88.5335, 27.1546 ], [ 88.5053, 27.1362 ], [ 88.4977, 27.1238 ], [ 88.4754, 27.1217 ], [ 88.4605, 27.0915 ], [ 88.4505, 27.0839 ], [ 88.4329, 27.0793 ], [ 88.3874, 27.0949 ], [ 88.3587, 27.096 ], [ 88.3414, 27.1101 ], [ 88.3221, 27.1046 ], [ 88.3229, 27.1176 ], [ 88.3153, 27.1262 ], [ 88.2838, 27.1275 ], [ 88.2822, 27.1488 ], [ 88.3008, 27.1737 ], [ 88.3344, 27.1945 ], [ 88.323, 27.2205 ], [ 88.3077, 27.2261 ], [ 88.304, 27.2609 ], [ 88.281, 27.2782 ], [ 88.2791, 27.2863 ], [ 88.311, 27.3057 ], [ 88.3087, 27.3187 ], [ 88.2968, 27.3267 ], [ 88.3004, 27.3341 ], [ 88.3227, 27.3493 ], [ 88.3306, 27.3687 ], [ 88.3583, 27.3783 ], [ 88.3576, 27.3993 ], [ 88.348, 27.4141 ], [ 88.339, 27.4062 ], [ 88.3315, 27.4171 ], [ 88.3057, 27.4168 ], [ 88.2841, 27.4051 ], [ 88.2748, 27.4119 ], [ 88.2661, 27.4898 ], [ 88.2715, 27.5035 ], [ 88.291, 27.5188 ], [ 88.3288, 27.528 ], [ 88.3557, 27.5213 ], [ 88.3756, 27.4975 ], [ 88.4056, 27.4757 ], [ 88.416, 27.4465 ], [ 88.4167, 27.4235 ], [ 88.4366, 27.3999 ], [ 88.486, 27.3783 ], [ 88.4803, 27.3604 ], [ 88.4862, 27.3336 ], [ 88.4544, 27.3153 ], [ 88.4415, 27.2739 ], [ 88.4469, 27.2612 ], [ 88.4907, 27.2395 ] ] ] } },
{ "type": "Feature", "properties": { "district": "West", "did": "sikkim:West", "state_key": "sikkim" }, "geometry": { "type": "Polygon", "coordinates": [ [ [ 88.304, 27.2609 ], [ 88.3077, 27.2261 ], [ 88.323, 27.2205 ], [ 88.3344, 27.1945 ], [ 88.3008, 27.1737 ], [ 88.2822, 27.1488 ], [ 88.2832, 27.1282 ], [ 88.2748, 27.131 ], [ 88.2412, 27.1194 ], [ 88.2289, 27.1191 ], [ 88.2157, 27.1317 ], [ 88.1949, 27.1349 ], [ 88.1759, 27.1298 ], [ 88.1563, 27.11 ], [ 88.1364, 27.1147 ], [ 88.1355, 27.1205 ], [ 88.0967, 27.1328 ], [ 88.0888, 27.1433 ], [ 88.0871, 27.1642 ], [ 88.0727, 27.1872 ], [ 88.0793, 27.2008 ], [ 88.0647, 27.2143 ], [ 88.0344, 27.221 ], [ 88.0124, 27.2157 ], [ 88.0309, 27.2499 ], [ 88.032, 27.2864 ], [ 88.0446, 27.2932 ], [ 88.0415, 27.3041 ], [ 88.0523, 27.3242 ], [ 88.0669, 27.3358 ], [ 88.0416, 27.3729 ], [ 88.0507, 27.413 ], [ 88.0741, 27.4268 ], [ 88.0751, 27.4332 ], [ 88.0678, 27.4383 ], [ 88.0724, 27.4458 ], [ 88.0644, 27.4537 ], [ 88.0669, 27.4579 ], [ 88.0441, 27.4781 ], [ 88.0441, 27.4958 ], [ 88.0619, 27.5122 ], [ 88.0584, 27.5204 ], [ 88.0663, 27.5273 ], [ 88.0587, 27.5348 ], [ 88.0811, 27.5651 ], [ 88.0755, 27.5716 ], [ 88.0818, 27.5842 ], [ 88.1128, 27.609 ], [ 88.115, 27.6179 ], [ 88.2097, 27.5813 ], [ 88.232, 27.5571 ], [ 88.2415, 27.5348 ], [ 88.2816, 27.5129 ], [ 88.2661, 27.4898 ], [ 88.2792, 27.4058 ], [ 88.3057, 27.4168 ], [ 88.3315, 27.4171 ], [ 88.339, 27.4062 ], [ 88.348, 27.4141 ], [ 88.3576, 27.3993 ], [ 88.3583, 27.3783 ], [ 88.3306, 27.3687 ], [ 88.3227, 27.3493 ], [ 88.2981, 27.3309 ], [ 88.3107, 27.3157 ], [ 88.311, 27.3057 ], [ 88.2803, 27.2882 ], [ 88.2784, 27.2816 ], [ 88.304, 27.2609 ] ] ] } }
]
}
