{
"type": "FeatureCollection",
"crs": { "type": "name", "properties": { "name": "urn:ogc:def:crs:OGC:1.3:CRS84" } },
"xy_coordinate_resolution": 0.0001,
"features": [
{ "type": "Feature", "properties": { "district": "Alappuzha", "did": "kerala:Alappuzha", "state_key": "kerala" }, "geometry": { "type": "Polygon", "coordinates": [ [ [ 76.6474, 9.2074 ], [ 76.6771, 9.1939 ], [ 76.6767, 9.1829 ], [ 76.6907, 9.177 ], [ 76.6878, 9.169 ], [ 76.6748, 9.17 ], [ 76.6724, 9.1532 ], [ 76.6381, 9.1483 ], [ 76.6331, 9.1383 ], [ 76.6238, 9.1388 ], [ 76.6146, 9.131 ], [ 76.5913, 9.1316 ], [ 76.5848, 9.1167 ], [ 76.5595, 9.1099 ], [ 76.5512, 9.1107 ], [ 76.5416, 9.1351 ], [ 76.5086, 9.1367 ], [ 76.5031, 9.135 ], [ 76.5065, 9.1256 ], [ 76.4664, 9.1305 ], [ 76.3443, 9.3953 ], [ 76.3161, 9.4973 ], [ 76.2772, 9.7888 ], [ 76.2841, 9.7915 ], [ 76.2821, 9.8047 ], [ 76.2909, 9.8067 ], [ 76.2795, 9.8276 ], [ 76.2857, 9.8492 ], [ 76.2975, 9.8527 ], [ 76.2927, 9.8906 ], [ 76.3338, 9.8768 ], [ 76.3534, 9.884 ], [ 76.3719, 9.8555 ], [ 76.3715, 9.8386 ], [ 76.3816, 9.8199 ], [ 76.365, 9.7936 ], [ 76.3807, 9.7514 ], [ 76.3757, 9.6974 ], [ 76.4026, 9.6859 ], [ 76.3922, 9.5477 ], [ 76.4141, 9.5633 ], [ 76.4265, 9.5496 ], [ 76.4661, 9.5617 ], [ 76.4655, 9.5422 ], [ 76.4794, 9.5376 ], [ 76.4803, 9.5074 ], [ 76.508, 9.5044 ], [ 76.5108, 9.5 ], [ 76.5091, 9.4782 ], [ 76.495, 9.4441 ], [ 76.5114, 9.4367 ], [ 76.5045, 9.4299 ], [ 76.5097, 9.42 ], [ 76.5059, 9.4052 ], [ 76.5133, 9.4007 ], [ 76.5145, 9.3905 ], [ 76.5093, 9.3772 ], [ 76.5237, 9.3659 ], [ 76.5158, 9.3652 ], [ 76.5133, 9.354 ], [ 76.4825, 9.3458 ], [ 76.4745, 9.3281 ], [ 76.4978, 9.3234 ], [ 76.5318, 9.3296 ], [ 76.5364, 9.3222 ], [ 76.5506, 9.3247 ], [ 76.5598, 9.3434 ], [ 76.5503, 9.3511 ], [ 76.5669, 9.3561 ], [ 76.5798, 9.3534 ], [ 76.5816, 9.3473 ], [ 76.595, 9.3527 ], [ 76.5981, 9.3463 ], [ 76.6279, 9.3372 ], [ 76.6286, 9.3426 ], [ 76.6416, 9.3411 ], [ 76.6354, 9.3271 ], [ 76.6451, 9.3099 ], [ 76.6517, 9.3084 ], [ 76.6514, 9.2897 ], [ 76.6757, 9.2894 ], [ 76.6776, 9.2856 ], [ 76.6644, 9.266 ], [ 76.6559, 9.2638 ], [ 76.654, 9.2378 ], [ 76.6395, 9.2334 ], [ 76.6474, 9.2074 ] ] ] } },
{ "type": "Feature", "properties": { "district": "Ernakulam", "did": "kerala:Ernakulam", "state_key": "kerala" }, "geometry": { "type": "Polygon", "coordinates": [ [ [ 76.7114, 9.973 ], [ 76.7237, 9.9545 ], [ 76.7126, 9.9534 ], [ 76.7132, 9.943 ], [ 76.6989, 9.9292 ], [ 76.6924, 9.9323 ], [ 76.6832, 9.9239 ], [ 76.6951, 9.9152 ], [ 76.6987, 9.9195 ], [ 76.7015, 9.9166 ], [ 76.6964, 9.9089 ], [ 76.6833, 9.9106 ], [ 76.6814, 9.9176 ], [ 76.6732, 9.9191 ], [ 76.6616, 9.9164 ], [ 76.6488, 9.9215 ], [ 76.6318, 9.9159 ], [ 76.628, 9.9011 ], [ 76.6374, 9.8733 ], [ 76.6322, 9.8714 ], [ 76.6327, 9.8578 ], [ 76.6113, 9.854 ], [ 76.6156, 9.838 ], [ 76.5991, 9.8464 ], [ 76.58, 9.843 ], [ 76.5807, 9.8224 ], [ 76.5653, 9.8244 ], [ 76.5555, 9.8024 ], [ 76.5445, 9.8009 ], [ 76.539, 9.8231 ], [ 76.5199, 9.8242 ], [ 76.5149, 9.8488 ], [ 76.5096, 9.8511 ], [ 76.4737, 9.8417 ], [ 76.4603, 9.847 ], [ 76.4613, 9.8509 ], [ 76.4461, 9.8347 ], [ 76.4143, 9.8223 ], [ 76.4116, 9.828 ], [ 76.3945, 9.8307 ], [ 76.3884, 9.8444 ], [ 76.3724, 9.8371 ], [ 76.3719, 9.8555 ], [ 76.3534, 9.884 ], [ 76.3338, 9.8768 ], [ 76.2966, 9.8914 ], [ 76.2924, 9.8842 ], [ 76.2975, 9.8527 ], [ 76.2857, 9.8492 ], [ 76.2796, 9.8306 ], [ 76.2909, 9.8067 ], [ 76.2821, 9.8047 ], [ 76.2841, 9.7915 ], [ 76.2772, 9.7891 ], [ 76.2608, 9.8812 ], [ 76.238, 9.9534 ], [ 76.2412, 9.9676 ], [ 76.2185, 10.0035 ], [ 76.1648, 10.1798 ], [ 76.1852, 10.1909 ], [ 76.2137, 10.1942 ], [ 76.2116, 10.2009 ], [ 76.2197, 10.207 ], [ 76.2637, 10.2007 ], [ 76.2613, 10.1899 ], [ 76.2707, 10.1853 ], [ 76.274, 10.1752 ], [ 76.2964, 10.1761 ], [ 76.3019, 10.1854 ], [ 76.312, 10.1824 ], [ 76.3107, 10.2055 ], [ 76.3312, 10.2095 ], [ 76.3393, 10.2311 ], [ 76.3794, 10.2451 ], [ 76.3778, 10.2548 ], [ 76.3914, 10.2554 ], [ 76.3901, 10.264 ], [ 76.4134, 10.2811 ], [ 76.4154, 10.2943 ], [ 76.4297, 10.2895 ], [ 76.4477, 10.2969 ], [ 76.4724, 10.2917 ], [ 76.4898, 10.2944 ], [ 76.4985, 10.2877 ], [ 76.5246, 10.2843 ], [ 76.5444, 10.2896 ], [ 76.5542, 10.2829 ], [ 76.5734, 10.2845 ], [ 76.5661, 10.2932 ], [ 76.5774, 10.3025 ], [ 76.5898, 10.2989 ], [ 76.6033, 10.2802 ], [ 76.6188, 10.2803 ], [ 76.6213, 10.2735 ], [ 76.6619, 10.28 ], [ 76.6692, 10.2717 ], [ 76.6957, 10.2639 ], [ 76.7471, 10.2778 ], [ 76.7684, 10.2689 ], [ 76.7751, 10.2765 ], [ 76.7982, 10.2778 ], [ 76.8042, 10.2852 ], [ 76.8262, 10.281 ], [ 76.8297, 10.2753 ], [ 76.8402, 10.2833 ], [ 76.867, 10.2694 ], [ 76.8789, 10.2695 ], [ 76.8779, 10.2604 ], [ 76.8965, 10.2581 ], [ 76.9046, 10.2508 ], [ 76.903, 10.2403 ], [ 76.9126, 10.2347 ], [ 76.9216, 10.2322 ], [ 76.9394, 10.2389 ], [ 76.9685, 10.2308 ], [ 76.9824, 10.2201 ], [ 77.0144, 10.2458 ], [ 77.0406, 10.2527 ], [ 77.0506, 10.2618 ], [ 77.0628, 10.2478 ], [ 77.0605, 10.2362 ], [ 77.0222, 10.2295 ], [ 77.0134, 10.2227 ], [ 77.0336, 10.2047 ], [ 77.0423, 10.2033 ], [ 77.0553, 10.2119 ], [ 77.0663, 10.2086 ], [ 77.0664, 10.196 ], [ 77.076, 10.197 ], [ 77.0878, 10.1864 ], [ 77.0851, 10.1745 ], [ 77.0684, 10.1745 ], [ 77.0615, 10.1698 ], [ 77.0575, 10.1782 ], [ 77.0283, 10.1724 ], [ 77.0234, 10.1784 ], [ 77.0026, 10.1705 ], [ 76.9977, 10.1625 ], [ 76.9882, 10.1609 ], [ 76.9828, 10.1658 ], [ 76.9665, 10.1598 ], [ 76.9292, 10.1788 ], [ 76.9217, 10.1764 ], [ 76.9025, 10.1483 ], [ 76.9043, 10.1405 ], [ 76.8915, 10.1311 ], [ 76.864, 10.091 ], [ 76.8648, 10.0737 ], [ 76.8226, 10.0906 ], [ 76.814, 10.0806 ], [ 76.8163, 10.069 ], [ 76.8253, 10.0623 ], [ 76.81, 10.0628 ], [ 76.8113, 10.0585 ], [ 76.8036, 10.0575 ], [ 76.8069, 10.066 ], [ 76.7696, 10.0661 ], [ 76.7964, 10.0418 ], [ 76.8396, 10.0245 ], [ 76.8378, 10.0117 ], [ 76.8263, 10.0127 ], [ 76.784, 10.036 ], [ 76.779, 10.0238 ], [ 76.7652, 10.0159 ], [ 76.7704, 9.9944 ], [ 76.765, 9.9893 ], [ 76.7601, 9.9915 ], [ 76.7656, 9.981 ], [ 76.7447, 9.9907 ], [ 76.7238, 9.9815 ], [ 76.7159, 9.9864 ], [ 76.7114, 9.973 ] ] ] } },
{ "type": "Feature", "properties": { "district": "Idukki", "did": "kerala:Idukki", "state_key": "kerala" }, "geometry": { "type": "Polygon", "coordinates": [ [ [ 77.1763, 9.6295 ], [ 77.1657, 9.6139 ], [ 77.1697, 9.6099 ], [ 77.1887, 9.6061 ], [ 77.1982, 9.6144 ], [ 77.209, 9.6134 ], [ 77.2098, 9.605 ], [ 77.2343, 9.5815 ], [ 77.2531, 9.583 ], [ 77.2639, 9.5737 ], [ 77.2769, 9.5757 ], [ 77.3038, 9.5987 ], [ 77.3178, 9.6025 ], [ 77.3299, 9.599 ], [ 77.3254, 9.58 ], [ 77.3395, 9.5733 ], [ 77.3546, 9.6041 ], [ 77.3611, 9.6023 ], [ 77.3661, 9.596 ], [ 77.3575, 9.5944 ], [ 77.3599, 9.5774 ], [ 77.3503, 9.5671 ], [ 77.3651, 9.5527 ], [ 77.3656, 9.5351 ], [ 77.3852, 9.5192 ], [ 77.4005, 9.5274 ], [ 77.4004, 9.5179 ], [ 77.4116, 9.5116 ], [ 77.3989, 9.4955 ], [ 77.4017, 9.4769 ], [ 77.3915, 9.4687 ], [ 77.3926, 9.4594 ], [ 77.3772, 9.4528 ], [ 77.366, 9.4601 ], [ 77.3489, 9.4403 ], [ 77.3365, 9.4134 ], [ 77.3437, 9.4024 ], [ 77.3346, 9.3812 ], [ 77.3358, 9.361 ], [ 77.3253, 9.3371 ], [ 77.3, 9.3367 ], [ 77.3023, 9.3185 ], [ 77.2937, 9.3048 ], [ 77.283, 9.3013 ], [ 77.2885, 9.2742 ], [ 77.282, 9.2728 ], [ 77.2488, 9.2898 ], [ 77.2372, 9.2827 ], [ 77.2353, 9.2934 ], [ 77.2246, 9.2959 ], [ 77.2246, 9.3117 ], [ 77.2351, 9.3242 ], [ 77.2303, 9.3303 ], [ 77.2379, 9.3396 ], [ 77.2348, 9.3502 ], [ 77.2482, 9.3775 ], [ 77.2459, 9.3875 ], [ 77.2316, 9.4037 ], [ 77.2288, 9.4197 ], [ 77.2207, 9.4213 ], [ 77.2237, 9.4345 ], [ 77.2116, 9.4439 ], [ 77.208, 9.4415 ], [ 77.2069, 9.4504 ], [ 77.1912, 9.4496 ], [ 77.1881, 9.4562 ], [ 77.1834, 9.4544 ], [ 77.182, 9.4727 ], [ 77.1686, 9.4616 ], [ 77.1664, 9.4697 ], [ 77.1553, 9.4711 ], [ 77.1351, 9.4586 ], [ 77.1008, 9.4681 ], [ 77.0988, 9.4627 ], [ 77.0685, 9.4543 ], [ 77.0592, 9.4457 ], [ 77.0585, 9.4276 ], [ 77.0664, 9.4169 ], [ 77.0533, 9.4181 ], [ 77.0287, 9.407 ], [ 77.0095, 9.4086 ], [ 77.0084, 9.4289 ], [ 77.0186, 9.4307 ], [ 77.0174, 9.4414 ], [ 76.9939, 9.4471 ], [ 76.9689, 9.4646 ], [ 76.9846, 9.4706 ], [ 76.978, 9.498 ], [ 76.9628, 9.5088 ], [ 76.9501, 9.49 ], [ 76.9366, 9.504 ], [ 76.9298, 9.5018 ], [ 76.904, 9.5212 ], [ 76.9029, 9.5365 ], [ 76.8877, 9.5377 ], [ 76.8829, 9.5815 ], [ 76.8952, 9.5866 ], [ 76.8876, 9.6102 ], [ 76.8909, 9.6292 ], [ 76.9031, 9.634 ], [ 76.9301, 9.6144 ], [ 76.9349, 9.6219 ], [ 76.9183, 9.6432 ], [ 76.9272, 9.6535 ], [ 76.903, 9.6763 ], [ 76.8892, 9.7167 ], [ 76.8688, 9.7287 ], [ 76.8672, 9.7359 ], [ 76.8605, 9.7305 ], [ 76.8081, 9.7896 ], [ 76.7786, 9.8083 ], [ 76.7544, 9.8176 ], [ 76.7505, 9.8063 ], [ 76.7422, 9.8037 ], [ 76.6747, 9.8428 ], [ 76.6462, 9.8408 ], [ 76.6271, 9.8509 ], [ 76.6374, 9.8733 ], [ 76.6295, 9.9134 ], [ 76.6488, 9.9215 ], [ 76.6616, 9.9164 ], [ 76.6814, 9.9176 ], [ 76.6833, 9.9106 ], [ 76.6964, 9.9089 ], [ 76.7015, 9.9166 ], [ 76.6987, 9.9195 ], [ 76.6951, 9.9152 ], [ 76.6832, 9.9239 ], [ 76.6924, 9.9323 ], [ 76.6989, 9.9292 ], [ 76.7132, 9.943 ], [ 76.7126, 9.9534 ], [ 76.7237, 9.9545 ], [ 76.7114, 9.973 ], [ 76.7163, 9.9872 ], [ 76.7234, 9.9815 ], [ 76.7447, 9.9907 ], [ 76.7656, 9.981 ], [ 76.7601, 9.9915 ], [ 76.765, 9.9893 ], [ 76.7704, 9.9944 ], [ 76.7652, 10.0159 ], [ 76.779, 10.0238 ], [ 76.784, 10.036 ], [ 76.8263, 10.0127 ], [ 76.8378, 10.0117 ], [ 76.8396, 10.0245 ], [ 76.7964, 10.0418 ], [ 76.7696, 10.0661 ], [ 76.8069, 10.066 ], [ 76.8036, 10.0575 ], [ 76.8113, 10.0585 ], [ 76.81, 10.0628 ], [ 76.8253, 10.0623 ], [ 76.8163, 10.069 ], [ 76.814, 10.0806 ], [ 76.8226, 10.0906 ], [ 76.8648, 10.0737 ], [ 76.864, 10.091 ], [ 76.8915, 10.1311 ], [ 76.9043, 10.1405 ], [ 76.9025, 10.1483 ], [ 76.9211, 10.176 ], [ 76.9292, 10.1788 ], [ 76.9665, 10.1598 ], [ 76.9828, 10.1658 ], [ 76.9882, 10.1609 ], [ 76.9977, 10.1625 ], [ 77.0026, 10.1705 ], [ 77.0234, 10.1784 ], [ 77.0283, 10.1724 ], [ 77.0575, 10.1782 ], [ 77.0615, 10.1698 ], [ 77.0684, 10.1745 ], [ 77.0851, 10.1745 ], [ 77.0878, 10.1864 ], [ 77.076, 10.197 ], [ 77.0664, 10.196 ], [ 77.0663, 10.2086 ], [ 77.0553, 10.2119 ], [ 77.0423, 10.2033 ], [ 77.0336, 10.2047 ], [ 77.0134, 10.2227 ], [ 77.0222, 10.2295 ], [ 77.0605, 10.2362 ], [ 77.0628, 10.2478 ], [ 77.0429, 10.2838 ], [ 77.0565, 10.287 ], [ 77.0914, 10.3139 ], [ 77.0961, 10.309 ], [ 77.1017, 10.3156 ], [ 77.1204, 10.318 ], [ 77.1766, 10.3584 ], [ 77.2356, 10.3523 ], [ 77.2277, 10.3154 ], [ 77.2629, 10.2633 ], [ 77.2572, 10.2594 ], [ 77.2597, 10.2303 ], [ 77.2693, 10.237 ], [ 77.2819, 10.2366 ], [ 77.295, 10.2179 ], [ 77.2831, 10.2086 ], [ 77.2848, 10.2006 ], [ 77.2753, 10.1844 ], [ 77.2748, 10.1325 ], [ 77.2678, 10.1216 ], [ 77.2382, 10.1301 ], [ 77.2304, 10.1205 ], [ 77.2079, 10.1177 ], [ 77.2013, 10.1062 ], [ 77.204, 10.0877 ], [ 77.2314, 10.0663 ], [ 77.2619, 10.0297 ], [ 77.2532, 10.0128 ], [ 77.2661, 10.0019 ], [ 77.2609, 9.9927 ], [ 77.2668, 9.9903 ], [ 77.2729, 9.9642 ], [ 77.261, 9.9525 ], [ 77.2465, 9.9514 ], [ 77.2301, 9.9125 ], [ 77.2183, 9.9043 ], [ 77.2207, 9.8845 ], [ 77.2125, 9.8769 ], [ 77.2213, 9.8631 ], [ 77.2363, 9.8596 ], [ 77.2372, 9.8514 ], [ 77.2229, 9.8449 ], [ 77.2275, 9.8381 ], [ 77.2218, 9.8225 ], [ 77.2412, 9.8156 ], [ 77.2467, 9.7979 ], [ 77.2227, 9.7878 ], [ 77.2324, 9.7686 ], [ 77.2202, 9.745 ], [ 77.2239, 9.7304 ], [ 77.204, 9.723 ], [ 77.2067, 9.6947 ], [ 77.1941, 9.6706 ], [ 77.1811, 9.6592 ], [ 77.1763, 9.6295 ] ] ] } },
{ "type": "Feature", "properties": { "district": "Kannur", "did": "kerala:Kannur", "state_key": "kerala" }, "geometry": { "type": "Polygon", "coordinates": [ [ [ 75.7899, 11.8405 ], [ 75.7981, 11.8188 ], [ 75.7761, 11.8037 ], [ 75.7573, 11.8059 ], [ 75.7458, 11.7995 ], [ 75.7575, 11.7896 ], [ 75.7501, 11.7821 ], [ 75.7376, 11.787 ], [ 75.7377, 11.7815 ], [ 75.729, 11.7804 ], [ 75.7166, 11.7968 ], [ 75.6914, 11.7995 ], [ 75.6836, 11.7754 ], [ 75.6691, 11.7704 ], [ 75.6655, 11.7585 ], [ 75.6551, 11.7562 ], [ 75.6354, 11.7365 ], [ 75.6268, 11.738 ], [ 75.6073, 11.7186 ], [ 75.6062, 11.7226 ], [ 75.5874, 11.7122 ], [ 75.6032, 11.6891 ], [ 75.5872, 11.6873 ], [ 75.5696, 11.6752 ], [ 75.5619, 11.6817 ], [ 75.5636, 11.6943 ], [ 75.5535, 11.7031 ], [ 75.5373, 11.7097 ], [ 75.53, 11.7036 ], [ 75.4727, 11.7643 ], [ 75.4537, 11.7703 ], [ 75.4567, 11.7791 ], [ 75.4467, 11.782 ], [ 75.4361, 11.8054 ], [ 75.4233, 11.8129 ], [ 75.3858, 11.8563 ], [ 75.3748, 11.8582 ], [ 75.3746, 11.852 ], [ 75.3676, 11.8513 ], [ 75.3557, 11.8598 ], [ 75.2953, 11.942 ], [ 75.3004, 11.9479 ], [ 75.2949, 11.9457 ], [ 75.2503, 12.0082 ], [ 75.2291, 12.0226 ], [ 75.2211, 12.0123 ], [ 75.2011, 12.0061 ], [ 75.1678, 12.0913 ], [ 75.1756, 12.1009 ], [ 75.1831, 12.0956 ], [ 75.1904, 12.0973 ], [ 75.1938, 12.119 ], [ 75.1882, 12.13 ], [ 75.1965, 12.14 ], [ 75.1727, 12.1899 ], [ 75.2039, 12.1914 ], [ 75.2316, 12.222 ], [ 75.2521, 12.2194 ], [ 75.2892, 12.2343 ], [ 75.2871, 12.2605 ], [ 75.2991, 12.2698 ], [ 75.3191, 12.2743 ], [ 75.3292, 12.2665 ], [ 75.3455, 12.2672 ], [ 75.3703, 12.2858 ], [ 75.3873, 12.2878 ], [ 75.3899, 12.2966 ], [ 75.3923, 12.2902 ], [ 75.4102, 12.2952 ], [ 75.4144, 12.2906 ], [ 75.4301, 12.299 ], [ 75.4599, 12.294 ], [ 75.4701, 12.3007 ], [ 75.4866, 12.2886 ], [ 75.4939, 12.2728 ], [ 75.5054, 12.2707 ], [ 75.5269, 12.2257 ], [ 75.5397, 12.2168 ], [ 75.5326, 12.2014 ], [ 75.5398, 12.2027 ], [ 75.5526, 12.1928 ], [ 75.5772, 12.1578 ], [ 75.5833, 12.1591 ], [ 75.5929, 12.1478 ], [ 75.5959, 12.1543 ], [ 75.619, 12.1565 ], [ 75.6361, 12.1492 ], [ 75.6491, 12.1093 ], [ 75.662, 12.0992 ], [ 75.6769, 12.0982 ], [ 75.6872, 12.1102 ], [ 75.7033, 12.1082 ], [ 75.7021, 12.0923 ], [ 75.7179, 12.0856 ], [ 75.7147, 12.0704 ], [ 75.7361, 12.0789 ], [ 75.7471, 12.0782 ], [ 75.7535, 12.0841 ], [ 75.7854, 12.0843 ], [ 75.8026, 12.0786 ], [ 75.7987, 12.056 ], [ 75.794, 12.055 ], [ 75.8099, 12.0227 ], [ 75.8229, 12.0134 ], [ 75.8204, 12.0025 ], [ 75.8252, 12.0027 ], [ 75.8295, 11.9845 ], [ 75.8469, 11.982 ], [ 75.8546, 11.9641 ], [ 75.8704, 11.9526 ], [ 75.9396, 11.941 ], [ 75.9252, 11.9294 ], [ 75.925, 11.92 ], [ 75.9393, 11.9033 ], [ 75.9363, 11.8907 ], [ 75.9298, 11.882 ], [ 75.9114, 11.8749 ], [ 75.9314, 11.8581 ], [ 75.9273, 11.8428 ], [ 75.926, 11.8471 ], [ 75.8917, 11.8426 ], [ 75.8719, 11.8489 ], [ 75.854, 11.8478 ], [ 75.8439, 11.8561 ], [ 75.8287, 11.8512 ], [ 75.8196, 11.8589 ], [ 75.8083, 11.8565 ], [ 75.7899, 11.8405 ] ], [ [ 75.5312, 11.7587 ], [ 75.5415, 11.7389 ], [ 75.5267, 11.7266 ], [ 75.531, 11.7083 ], [ 75.5365, 11.7193 ], [ 75.5478, 11.7154 ], [ 75.5553, 11.7215 ], [ 75.5556, 11.7276 ], [ 75.5421, 11.7372 ], [ 75.5463, 11.7566 ], [ 75.5372, 11.7626 ], [ 75.5312, 11.7587 ] ] ] } },
{ "type": "Feature", "properties": { "district": "Kasaragod", "did": "kerala:Kasaragod", "state_key": "kerala" }, "geometry": { "type": "Polygon", "coordinates": [ [ [ 75.2892, 12.2343 ], [ 75.2521, 12.2194 ], [ 75.2316, 12.222 ], [ 75.2039, 12.1914 ], [ 75.1727, 12.1899 ], [ 75.1965, 12.14 ], [ 75.1882, 12.13 ], [ 75.1938, 12.119 ], [ 75.1904, 12.0973 ], [ 75.1831, 12.0956 ], [ 75.1756, 12.1009 ], [ 75.1678, 12.0913 ], [ 75.1839, 12.0442 ], [ 75.1247, 12.1882 ], [ 75.1243, 12.2023 ], [ 75.1143, 12.2134 ], [ 75.0581, 12.3517 ], [ 75.0394, 12.3899 ], [ 75.0301, 12.3924 ], [ 75.0144, 12.417 ], [ 74.9738, 12.5004 ], [ 74.8646, 12.7602 ], [ 74.8722, 12.7611 ], [ 74.8741, 12.7549 ], [ 74.8823, 12.754 ], [ 74.9329, 12.7805 ], [ 74.9582, 12.7847 ], [ 74.9684, 12.7764 ], [ 74.9873, 12.783 ], [ 74.989, 12.7955 ], [ 74.9983, 12.7859 ], [ 75.0032, 12.7917 ], [ 75.0094, 12.7675 ], [ 74.9833, 12.7372 ], [ 74.9856, 12.7336 ], [ 74.9925, 12.7399 ], [ 75.0134, 12.728 ], [ 75.001, 12.7164 ], [ 75.015, 12.7142 ], [ 75.0186, 12.7211 ], [ 75.0336, 12.7235 ], [ 75.0525, 12.7201 ], [ 75.0556, 12.6935 ], [ 75.0439, 12.6926 ], [ 75.0405, 12.6854 ], [ 75.0466, 12.6676 ], [ 75.054, 12.6702 ], [ 75.0575, 12.6661 ], [ 75.0598, 12.6718 ], [ 75.0686, 12.6647 ], [ 75.0741, 12.6722 ], [ 75.0852, 12.6748 ], [ 75.0809, 12.6991 ], [ 75.086, 12.704 ], [ 75.1062, 12.6968 ], [ 75.1115, 12.6818 ], [ 75.1325, 12.6761 ], [ 75.152, 12.6832 ], [ 75.1499, 12.6733 ], [ 75.162, 12.672 ], [ 75.1508, 12.6501 ], [ 75.1385, 12.6434 ], [ 75.1607, 12.6221 ], [ 75.17, 12.6223 ], [ 75.1829, 12.6328 ], [ 75.2017, 12.63 ], [ 75.1993, 12.6121 ], [ 75.21, 12.6002 ], [ 75.2011, 12.5877 ], [ 75.2095, 12.5911 ], [ 75.2203, 12.5691 ], [ 75.2375, 12.5698 ], [ 75.2387, 12.5807 ], [ 75.2497, 12.5846 ], [ 75.2672, 12.6147 ], [ 75.2763, 12.6185 ], [ 75.2896, 12.6104 ], [ 75.2916, 12.6019 ], [ 75.3019, 12.6054 ], [ 75.3122, 12.5897 ], [ 75.327, 12.5924 ], [ 75.3264, 12.5814 ], [ 75.3154, 12.5725 ], [ 75.2905, 12.5826 ], [ 75.2847, 12.5696 ], [ 75.2729, 12.569 ], [ 75.2706, 12.5483 ], [ 75.2803, 12.5253 ], [ 75.3041, 12.5233 ], [ 75.3046, 12.5041 ], [ 75.3145, 12.5029 ], [ 75.315, 12.4971 ], [ 75.333, 12.4983 ], [ 75.3415, 12.4691 ], [ 75.3366, 12.4641 ], [ 75.3608, 12.465 ], [ 75.3726, 12.477 ], [ 75.3681, 12.4912 ], [ 75.3822, 12.502 ], [ 75.4161, 12.5 ], [ 75.4233, 12.4668 ], [ 75.3934, 12.4514 ], [ 75.3863, 12.4583 ], [ 75.3658, 12.4577 ], [ 75.3715, 12.4377 ], [ 75.3662, 12.4118 ], [ 75.3792, 12.3924 ], [ 75.4215, 12.3736 ], [ 75.4196, 12.3569 ], [ 75.4104, 12.3472 ], [ 75.4203, 12.319 ], [ 75.432, 12.3085 ], [ 75.4137, 12.2924 ], [ 75.3974, 12.294 ], [ 75.3923, 12.2902 ], [ 75.389, 12.2963 ], [ 75.3873, 12.2878 ], [ 75.3703, 12.2858 ], [ 75.3455, 12.2672 ], [ 75.3292, 12.2665 ], [ 75.3191, 12.2743 ], [ 75.2877, 12.2617 ], [ 75.2892, 12.2343 ] ] ] } },
{ "type": "Feature", "properties": { "district": "Kollam", "did": "kerala:Kollam", "state_key": "kerala" }, "geometry": { "type": "Polygon", "coordinates": [ [ [ 76.7754, 8.8439 ], [ 76.7944, 8.8281 ], [ 76.783, 8.8194 ], [ 76.7926, 8.8135 ], [ 76.7712, 8.8112 ], [ 76.771, 8.7999 ], [ 76.7613, 8.8003 ], [ 76.7605, 8.7914 ], [ 76.7219, 8.8038 ], [ 76.7097, 8.7911 ], [ 76.6927, 8.7916 ], [ 76.6899, 8.7787 ], [ 76.682, 8.776 ], [ 76.6772, 8.7887 ], [ 76.6729, 8.7817 ], [ 76.6101, 8.8594 ], [ 76.5817, 8.8801 ], [ 76.5709, 8.8831 ], [ 76.5659, 8.8797 ], [ 76.5467, 8.9039 ], [ 76.5354, 8.9337 ], [ 76.5417, 8.938 ], [ 76.5355, 8.936 ], [ 76.5158, 9.016 ], [ 76.4636, 9.1354 ], [ 76.4733, 9.1273 ], [ 76.4982, 9.1252 ], [ 76.5065, 9.1256 ], [ 76.5031, 9.135 ], [ 76.5086, 9.1367 ], [ 76.5416, 9.1351 ], [ 76.5512, 9.1107 ], [ 76.5579, 9.1098 ], [ 76.5848, 9.1167 ], [ 76.5913, 9.1316 ], [ 76.6146, 9.131 ], [ 76.6353, 9.1408 ], [ 76.6331, 9.1185 ], [ 76.6445, 9.1223 ], [ 76.6565, 9.1134 ], [ 76.6694, 9.1169 ], [ 76.6722, 9.1137 ], [ 76.6742, 9.0791 ], [ 76.6839, 9.0809 ], [ 76.6902, 9.0916 ], [ 76.7227, 9.0817 ], [ 76.7334, 9.0811 ], [ 76.7372, 9.0863 ], [ 76.745, 9.0801 ], [ 76.7542, 9.0884 ], [ 76.7593, 9.0721 ], [ 76.7714, 9.0748 ], [ 76.7656, 9.0945 ], [ 76.7833, 9.1141 ], [ 76.8093, 9.1084 ], [ 76.8227, 9.0934 ], [ 76.8421, 9.0921 ], [ 76.8519, 9.0996 ], [ 76.8519, 9.1127 ], [ 76.866, 9.1158 ], [ 76.8756, 9.1309 ], [ 76.884, 9.122 ], [ 76.8926, 9.1228 ], [ 76.8982, 9.1304 ], [ 76.9251, 9.1187 ], [ 76.9483, 9.1172 ], [ 76.9602, 9.13 ], [ 76.9489, 9.131 ], [ 76.9406, 9.1386 ], [ 76.9264, 9.1386 ], [ 76.9303, 9.1738 ], [ 76.9596, 9.1536 ], [ 76.9942, 9.1399 ], [ 77.0095, 9.1403 ], [ 77.0187, 9.1306 ], [ 77.0454, 9.1232 ], [ 77.0543, 9.1273 ], [ 77.0576, 9.1172 ], [ 77.0648, 9.1194 ], [ 77.0673, 9.1144 ], [ 77.0791, 9.1132 ], [ 77.1111, 9.0932 ], [ 77.1208, 9.0947 ], [ 77.1452, 9.0835 ], [ 77.1545, 9.0874 ], [ 77.1542, 9.0819 ], [ 77.167, 9.0783 ], [ 77.2081, 9.0729 ], [ 77.1969, 9.0568 ], [ 77.1975, 9.047 ], [ 77.1876, 9.0431 ], [ 77.1823, 9.0474 ], [ 77.1675, 9.0453 ], [ 77.1611, 9.0294 ], [ 77.1466, 9.0218 ], [ 77.1617, 8.995 ], [ 77.1736, 8.9912 ], [ 77.1782, 8.9691 ], [ 77.1856, 8.9702 ], [ 77.1963, 8.9546 ], [ 77.1928, 8.9262 ], [ 77.2182, 8.9187 ], [ 77.2212, 8.9039 ], [ 77.2385, 8.8977 ], [ 77.2377, 8.8857 ], [ 77.2566, 8.8776 ], [ 77.2628, 8.842 ], [ 77.2471, 8.8237 ], [ 77.2471, 8.8148 ], [ 77.232, 8.8077 ], [ 77.2297, 8.7846 ], [ 77.2131, 8.7786 ], [ 77.218, 8.7682 ], [ 77.2093, 8.7653 ], [ 77.1916, 8.7727 ], [ 77.1275, 8.8105 ], [ 77.1072, 8.8303 ], [ 77.0502, 8.8465 ], [ 77.0326, 8.8428 ], [ 77.0201, 8.8284 ], [ 77.0209, 8.8166 ], [ 77.0087, 8.8124 ], [ 77.0116, 8.7955 ], [ 77.0249, 8.7754 ], [ 77.0028, 8.7713 ], [ 76.9961, 8.7847 ], [ 76.9813, 8.79 ], [ 76.9728, 8.7754 ], [ 76.9465, 8.7712 ], [ 76.9336, 8.7614 ], [ 76.9152, 8.7768 ], [ 76.9213, 8.7865 ], [ 76.9001, 8.8115 ], [ 76.8828, 8.8055 ], [ 76.8554, 8.816 ], [ 76.8459, 8.8278 ], [ 76.8481, 8.8345 ], [ 76.8257, 8.8429 ], [ 76.8162, 8.8598 ], [ 76.8129, 8.8553 ], [ 76.8068, 8.8574 ], [ 76.8015, 8.8487 ], [ 76.7827, 8.8626 ], [ 76.7754, 8.8439 ] ] ] } },
{ "type": "Feature", "properties": { "district": "Kottayam", "did": "kerala:Kottayam", "state_key": "kerala" }, "geometry": { "type": "Polygon", "coordinates": [ [ [ 76.734, 9.4757 ], [ 76.7313, 9.4664 ], [ 76.7082, 9.4543 ], [ 76.7002, 9.477 ], [ 76.6799, 9.483 ], [ 76.6427, 9.4793 ], [ 76.6351, 9.4626 ], [ 76.6272, 9.4718 ], [ 76.626, 9.4618 ], [ 76.6093, 9.4603 ], [ 76.6099, 9.4548 ], [ 76.6029, 9.4578 ], [ 76.6046, 9.4506 ], [ 76.5915, 9.4487 ], [ 76.5934, 9.4129 ], [ 76.5791, 9.4223 ], [ 76.5594, 9.4114 ], [ 76.5535, 9.425 ], [ 76.5175, 9.4089 ], [ 76.5164, 9.4006 ], [ 76.5065, 9.4039 ], [ 76.5097, 9.42 ], [ 76.5045, 9.4299 ], [ 76.5114, 9.4367 ], [ 76.495, 9.4443 ], [ 76.5091, 9.4782 ], [ 76.5108, 9.5 ], [ 76.508, 9.5044 ], [ 76.4803, 9.5074 ], [ 76.4794, 9.5376 ], [ 76.4655, 9.5422 ], [ 76.4662, 9.5617 ], [ 76.4265, 9.5496 ], [ 76.4141, 9.5633 ], [ 76.3922, 9.5477 ], [ 76.4026, 9.6859 ], [ 76.3757, 9.6974 ], [ 76.3807, 9.7514 ], [ 76.365, 9.7923 ], [ 76.3816, 9.8184 ], [ 76.3728, 9.8367 ], [ 76.3804, 9.843 ], [ 76.3884, 9.8444 ], [ 76.3945, 9.8307 ], [ 76.4116, 9.828 ], [ 76.4143, 9.8223 ], [ 76.4461, 9.8347 ], [ 76.4613, 9.8509 ], [ 76.4603, 9.847 ], [ 76.4737, 9.8417 ], [ 76.5096, 9.8511 ], [ 76.5149, 9.8488 ], [ 76.5199, 9.8242 ], [ 76.539, 9.8231 ], [ 76.5469, 9.7999 ], [ 76.5561, 9.803 ], [ 76.5653, 9.8244 ], [ 76.5807, 9.8224 ], [ 76.58, 9.843 ], [ 76.5991, 9.8464 ], [ 76.6157, 9.838 ], [ 76.6096, 9.8513 ], [ 76.6249, 9.8572 ], [ 76.628, 9.8489 ], [ 76.6462, 9.8408 ], [ 76.6632, 9.8392 ], [ 76.6679, 9.8439 ], [ 76.6824, 9.8392 ], [ 76.6849, 9.8334 ], [ 76.6956, 9.8338 ], [ 76.699, 9.8256 ], [ 76.7422, 9.8037 ], [ 76.7505, 9.8063 ], [ 76.7544, 9.8176 ], [ 76.7786, 9.8083 ], [ 76.8081, 9.7896 ], [ 76.8605, 9.7305 ], [ 76.8672, 9.7359 ], [ 76.8688, 9.7287 ], [ 76.8892, 9.7167 ], [ 76.903, 9.6763 ], [ 76.9272, 9.6535 ], [ 76.9183, 9.6432 ], [ 76.9349, 9.6219 ], [ 76.9301, 9.6144 ], [ 76.9031, 9.634 ], [ 76.8909, 9.6292 ], [ 76.8876, 9.6102 ], [ 76.8952, 9.5866 ], [ 76.8829, 9.5815 ], [ 76.8877, 9.5377 ], [ 76.9029, 9.5365 ], [ 76.904, 9.5212 ], [ 76.9298, 9.5018 ], [ 76.9366, 9.504 ], [ 76.9501, 9.49 ], [ 76.9628, 9.5088 ], [ 76.978, 9.498 ], [ 76.9829, 9.4679 ], [ 76.9631, 9.4648 ], [ 76.9398, 9.4442 ], [ 76.9437, 9.4285 ], [ 76.9538, 9.435 ], [ 76.9623, 9.4258 ], [ 76.9667, 9.4333 ], [ 76.9844, 9.4239 ], [ 76.9362, 9.4213 ], [ 76.9245, 9.4156 ], [ 76.9231, 9.4241 ], [ 76.9112, 9.4234 ], [ 76.9046, 9.4316 ], [ 76.8542, 9.4573 ], [ 76.8488, 9.4455 ], [ 76.8329, 9.4524 ], [ 76.8234, 9.4458 ], [ 76.8187, 9.4553 ], [ 76.8003, 9.4588 ], [ 76.7927, 9.4467 ], [ 76.7829, 9.4487 ], [ 76.7652, 9.4367 ], [ 76.7544, 9.4539 ], [ 76.7487, 9.4523 ], [ 76.7522, 9.463 ], [ 76.7444, 9.4739 ], [ 76.734, 9.4757 ] ] ] } },
{ "type": "Feature", "properties": { "district": "Kozhikode", "did": "kerala:Kozhikode", "state_key": "kerala" }, "geometry": { "type": "Polygon", "coordinates": [ [ [ 76.0716, 11.2864 ], [ 76.0452, 11.2648 ], [ 76.0137, 11.268 ], [ 76.0092, 11.2597 ], [ 75.9955, 11.2541 ], [ 75.9748, 11.2692 ], [ 75.958, 11.2524 ], [ 75.927, 11.246 ], [ 75.9181, 11.2364 ], [ 75.9006, 11.2425 ], [ 75.8972, 11.23 ], [ 75.8778, 11.2231 ], [ 75.8697, 11.2075 ], [ 75.8577, 11.2079 ], [ 75.8556, 11.2016 ], [ 75.865, 11.1879 ], [ 75.8759, 11.1824 ], [ 75.8849, 11.1849 ], [ 75.8869, 11.1706 ], [ 75.8818, 11.1721 ], [ 75.8779, 11.1663 ], [ 75.865, 11.1714 ], [ 75.8523, 11.1538 ], [ 75.8576, 11.1382 ], [ 75.8461, 11.1429 ], [ 75.8246, 11.124 ], [ 75.8139, 11.149 ], [ 75.8025, 11.156 ], [ 75.747, 11.3184 ], [ 75.7365, 11.3247 ], [ 75.7318, 11.3558 ], [ 75.6977, 11.4249 ], [ 75.6816, 11.4496 ], [ 75.6637, 11.4625 ], [ 75.6452, 11.4682 ], [ 75.6342, 11.461 ], [ 75.6264, 11.4731 ], [ 75.6168, 11.4764 ], [ 75.5956, 11.5518 ], [ 75.5362, 11.6935 ], [ 75.5442, 11.7045 ], [ 75.5532, 11.7034 ], [ 75.5636, 11.6943 ], [ 75.5619, 11.6817 ], [ 75.57, 11.6751 ], [ 75.5885, 11.6878 ], [ 75.6011, 11.687 ], [ 75.6028, 11.6942 ], [ 75.5933, 11.6973 ], [ 75.5874, 11.7122 ], [ 75.6062, 11.7226 ], [ 75.6073, 11.7186 ], [ 75.6268, 11.738 ], [ 75.6354, 11.7365 ], [ 75.6551, 11.7562 ], [ 75.6655, 11.7585 ], [ 75.6691, 11.7704 ], [ 75.6836, 11.7754 ], [ 75.6915, 11.7995 ], [ 75.7166, 11.7968 ], [ 75.7291, 11.7804 ], [ 75.7377, 11.7815 ], [ 75.7376, 11.787 ], [ 75.75, 11.7821 ], [ 75.7538, 11.7852 ], [ 75.7575, 11.7896 ], [ 75.7458, 11.7995 ], [ 75.7573, 11.8059 ], [ 75.7767, 11.802 ], [ 75.7927, 11.7915 ], [ 75.7833, 11.7607 ], [ 75.7996, 11.75 ], [ 75.7908, 11.7435 ], [ 75.8101, 11.7429 ], [ 75.8321, 11.7201 ], [ 75.8456, 11.7142 ], [ 75.8507, 11.703 ], [ 75.8753, 11.7043 ], [ 75.9154, 11.6905 ], [ 75.9001, 11.676 ], [ 75.9053, 11.6615 ], [ 75.897, 11.6428 ], [ 75.898, 11.6229 ], [ 75.9092, 11.6008 ], [ 75.9511, 11.5817 ], [ 75.9578, 11.5607 ], [ 75.973, 11.5463 ], [ 76.0184, 11.5144 ], [ 76.0335, 11.5105 ], [ 76.037, 11.503 ], [ 76.0562, 11.5059 ], [ 76.0775, 11.5223 ], [ 76.0902, 11.5114 ], [ 76.093, 11.4936 ], [ 76.087, 11.4874 ], [ 76.1229, 11.4738 ], [ 76.1428, 11.4516 ], [ 76.1421, 11.4198 ], [ 76.1311, 11.427 ], [ 76.1179, 11.4085 ], [ 76.1054, 11.4101 ], [ 76.0994, 11.3959 ], [ 76.1021, 11.3684 ], [ 76.0921, 11.3526 ], [ 76.0987, 11.3423 ], [ 76.1176, 11.3372 ], [ 76.1187, 11.3201 ], [ 76.1134, 11.3141 ], [ 76.087, 11.31 ], [ 76.0702, 11.2933 ], [ 76.0716, 11.2864 ] ] ] } },
{ "type": "Feature", "properties": { "district": "Malappuram", "did": "kerala:Malappuram", "state_key": "kerala" }, "geometry": { "type": "Polygon", "coordinates": [ [ [ 76.0272, 10.8221 ], [ 76.0367, 10.8158 ], [ 76.035, 10.8086 ], [ 76.05, 10.8009 ], [ 76.0427, 10.796 ], [ 76.0397, 10.7558 ], [ 76.0472, 10.7517 ], [ 76.0489, 10.7409 ], [ 76.0638, 10.7435 ], [ 76.069, 10.7377 ], [ 76.067, 10.7235 ], [ 76.0593, 10.7276 ], [ 76.0611, 10.7197 ], [ 76.0516, 10.7044 ], [ 76.037, 10.7074 ], [ 76.0343, 10.7006 ], [ 76.0122, 10.6905 ], [ 76.0012, 10.6943 ], [ 75.9829, 10.6869 ], [ 75.9773, 10.6959 ], [ 75.9771, 10.6918 ], [ 75.967, 10.6941 ], [ 75.9562, 10.6854 ], [ 75.9101, 10.7861 ], [ 75.8624, 11.0014 ], [ 75.8251, 11.1229 ], [ 75.8461, 11.1429 ], [ 75.8576, 11.1382 ], [ 75.8523, 11.1538 ], [ 75.865, 11.1714 ], [ 75.8779, 11.1663 ], [ 75.8818, 11.1721 ], [ 75.8869, 11.1706 ], [ 75.8849, 11.1849 ], [ 75.8759, 11.1824 ], [ 75.865, 11.1879 ], [ 75.8556, 11.2016 ], [ 75.8577, 11.2079 ], [ 75.8697, 11.2075 ], [ 75.8778, 11.2231 ], [ 75.8972, 11.23 ], [ 75.9006, 11.2425 ], [ 75.9181, 11.2364 ], [ 75.927, 11.246 ], [ 75.958, 11.2524 ], [ 75.9748, 11.2692 ], [ 75.9955, 11.2541 ], [ 76.0092, 11.2597 ], [ 76.0137, 11.268 ], [ 76.0452, 11.2648 ], [ 76.0716, 11.2864 ], [ 76.0695, 11.2941 ], [ 76.0835, 11.3074 ], [ 76.1138, 11.3145 ], [ 76.1176, 11.3372 ], [ 76.0987, 11.3423 ], [ 76.0921, 11.3526 ], [ 76.1021, 11.3684 ], [ 76.0975, 11.3829 ], [ 76.1054, 11.4101 ], [ 76.1179, 11.4085 ], [ 76.1311, 11.427 ], [ 76.1421, 11.4198 ], [ 76.143, 11.4518 ], [ 76.1639, 11.4582 ], [ 76.1858, 11.4735 ], [ 76.1817, 11.484 ], [ 76.1913, 11.4984 ], [ 76.1992, 11.5067 ], [ 76.2242, 11.5097 ], [ 76.2341, 11.5287 ], [ 76.2482, 11.5165 ], [ 76.2523, 11.5 ], [ 76.2476, 11.4685 ], [ 76.2646, 11.4809 ], [ 76.2756, 11.4769 ], [ 76.2844, 11.4829 ], [ 76.2935, 11.4657 ], [ 76.3052, 11.4678 ], [ 76.3255, 11.4533 ], [ 76.3422, 11.4676 ], [ 76.3977, 11.435 ], [ 76.4187, 11.4418 ], [ 76.4151, 11.4226 ], [ 76.4621, 11.3875 ], [ 76.5178, 11.3716 ], [ 76.5082, 11.3541 ], [ 76.5479, 11.3589 ], [ 76.55, 11.331 ], [ 76.5373, 11.314 ], [ 76.5458, 11.3003 ], [ 76.5263, 11.2883 ], [ 76.5222, 11.2713 ], [ 76.4531, 11.2394 ], [ 76.449, 11.2055 ], [ 76.4335, 11.202 ], [ 76.4266, 11.2087 ], [ 76.4047, 11.2096 ], [ 76.4023, 11.1876 ], [ 76.4137, 11.1709 ], [ 76.4061, 11.1537 ], [ 76.4135, 11.1427 ], [ 76.4085, 11.1185 ], [ 76.3859, 11.1115 ], [ 76.3875, 11.0987 ], [ 76.3605, 11.0979 ], [ 76.3441, 11.088 ], [ 76.3395, 11.0777 ], [ 76.3294, 11.0739 ], [ 76.3347, 11.0627 ], [ 76.3313, 11.0547 ], [ 76.3091, 11.0467 ], [ 76.2946, 11.0506 ], [ 76.2926, 11.0405 ], [ 76.2842, 11.0354 ], [ 76.2884, 11.0214 ], [ 76.3117, 11.0296 ], [ 76.3281, 11.0242 ], [ 76.3242, 11.0049 ], [ 76.3347, 10.9985 ], [ 76.3711, 10.9972 ], [ 76.3612, 10.9732 ], [ 76.3371, 10.9762 ], [ 76.3326, 10.9817 ], [ 76.3279, 10.979 ], [ 76.3199, 10.942 ], [ 76.3338, 10.9233 ], [ 76.336, 10.9059 ], [ 76.3055, 10.9112 ], [ 76.2964, 10.9199 ], [ 76.2858, 10.9135 ], [ 76.2688, 10.9155 ], [ 76.2518, 10.8858 ], [ 76.2327, 10.8862 ], [ 76.2158, 10.9148 ], [ 76.2055, 10.8981 ], [ 76.1924, 10.8973 ], [ 76.1867, 10.9011 ], [ 76.1891, 10.9099 ], [ 76.1743, 10.9058 ], [ 76.1693, 10.915 ], [ 76.1596, 10.9104 ], [ 76.1508, 10.8903 ], [ 76.1308, 10.8965 ], [ 76.1312, 10.8788 ], [ 76.1158, 10.8821 ], [ 76.1121, 10.8667 ], [ 76.103, 10.8713 ], [ 76.1002, 10.8435 ], [ 76.0692, 10.8381 ], [ 76.0446, 10.8488 ], [ 76.0272, 10.8221 ] ] ] } },
{ "type": "Feature", "properties": { "district": "Palakkad", "did": "kerala:Palakkad", "state_key": "kerala" }, "geometry": { "type": "Polygon", "coordinates": [ [ [ 76.8642, 10.8171 ], [ 76.8701, 10.8083 ], [ 76.9007, 10.8073 ], [ 76.9075, 10.778 ], [ 76.8885, 10.7331 ], [ 76.8914, 10.7182 ], [ 76.8822, 10.7173 ], [ 76.8676, 10.6948 ], [ 76.8675, 10.6791 ], [ 76.8784, 10.675 ], [ 76.8825, 10.6397 ], [ 76.8607, 10.6323 ], [ 76.8142, 10.6359 ], [ 76.8101, 10.6242 ], [ 76.8173, 10.6032 ], [ 76.826, 10.5961 ], [ 76.8384, 10.5964 ], [ 76.8352, 10.5454 ], [ 76.8431, 10.5373 ], [ 76.831, 10.5 ], [ 76.8283, 10.4502 ], [ 76.8164, 10.4235 ], [ 76.8246, 10.4101 ], [ 76.8336, 10.4078 ], [ 76.8237, 10.3951 ], [ 76.8488, 10.3677 ], [ 76.8363, 10.346 ], [ 76.8377, 10.3378 ], [ 76.828, 10.3373 ], [ 76.816, 10.3489 ], [ 76.8057, 10.344 ], [ 76.8045, 10.3369 ], [ 76.7875, 10.3362 ], [ 76.7771, 10.342 ], [ 76.7718, 10.3342 ], [ 76.7516, 10.3384 ], [ 76.7526, 10.3476 ], [ 76.7648, 10.3563 ], [ 76.763, 10.3622 ], [ 76.7178, 10.373 ], [ 76.7062, 10.3701 ], [ 76.7031, 10.3631 ], [ 76.6868, 10.3633 ], [ 76.6614, 10.3856 ], [ 76.6545, 10.3768 ], [ 76.6456, 10.3829 ], [ 76.6326, 10.3765 ], [ 76.6286, 10.3831 ], [ 76.6227, 10.3793 ], [ 76.5881, 10.4354 ], [ 76.5586, 10.4341 ], [ 76.5574, 10.4435 ], [ 76.5363, 10.4483 ], [ 76.5231, 10.4688 ], [ 76.4894, 10.4793 ], [ 76.4872, 10.4863 ], [ 76.474, 10.4871 ], [ 76.4506, 10.5217 ], [ 76.4413, 10.5227 ], [ 76.4327, 10.5338 ], [ 76.439, 10.5569 ], [ 76.4297, 10.5585 ], [ 76.4203, 10.5787 ], [ 76.4085, 10.5801 ], [ 76.4012, 10.596 ], [ 76.4048, 10.6018 ], [ 76.4132, 10.5945 ], [ 76.4133, 10.6056 ], [ 76.4217, 10.606 ], [ 76.4281, 10.6135 ], [ 76.4255, 10.6275 ], [ 76.4205, 10.6291 ], [ 76.4211, 10.6225 ], [ 76.4177, 10.6276 ], [ 76.4218, 10.6472 ], [ 76.4342, 10.65 ], [ 76.4415, 10.6632 ], [ 76.4487, 10.6611 ], [ 76.451, 10.6658 ], [ 76.4401, 10.6965 ], [ 76.4515, 10.702 ], [ 76.4569, 10.6997 ], [ 76.464, 10.7211 ], [ 76.4794, 10.7325 ], [ 76.4678, 10.7403 ], [ 76.4732, 10.7489 ], [ 76.469, 10.7524 ], [ 76.397, 10.7463 ], [ 76.383, 10.7677 ], [ 76.3649, 10.763 ], [ 76.354, 10.7431 ], [ 76.3399, 10.7491 ], [ 76.326, 10.7453 ], [ 76.2894, 10.7554 ], [ 76.2521, 10.7468 ], [ 76.2452, 10.75 ], [ 76.2428, 10.7732 ], [ 76.2305, 10.7725 ], [ 76.2192, 10.7822 ], [ 76.21, 10.7777 ], [ 76.1879, 10.7827 ], [ 76.2054, 10.7686 ], [ 76.2026, 10.752 ], [ 76.1918, 10.7501 ], [ 76.1718, 10.7135 ], [ 76.1627, 10.706 ], [ 76.157, 10.718 ], [ 76.1538, 10.7116 ], [ 76.1329, 10.7224 ], [ 76.1226, 10.7104 ], [ 76.0964, 10.7283 ], [ 76.0696, 10.7296 ], [ 76.0638, 10.7435 ], [ 76.0466, 10.7423 ], [ 76.0392, 10.7673 ], [ 76.0427, 10.796 ], [ 76.05, 10.8009 ], [ 76.0382, 10.805 ], [ 76.0367, 10.8158 ], [ 76.0272, 10.8224 ], [ 76.0438, 10.8486 ], [ 76.0692, 10.8381 ], [ 76.1002, 10.8435 ], [ 76.103, 10.8713 ], [ 76.1121, 10.8667 ], [ 76.1158, 10.8821 ], [ 76.1312, 10.8788 ], [ 76.1308, 10.8965 ], [ 76.1508, 10.8903 ], [ 76.1596, 10.9104 ], [ 76.1693, 10.915 ], [ 76.1743, 10.9058 ], [ 76.1891, 10.9099 ], [ 76.1867, 10.9011 ], [ 76.1924, 10.8973 ], [ 76.2055, 10.8981 ], [ 76.2158, 10.9148 ], [ 76.2327, 10.8862 ], [ 76.2518, 10.8858 ], [ 76.2688, 10.9155 ], [ 76.2858, 10.9135 ], [ 76.2964, 10.9199 ], [ 76.3055, 10.9112 ], [ 76.336, 10.9059 ], [ 76.3338, 10.9233 ], [ 76.3199, 10.942 ], [ 76.3279, 10.979 ], [ 76.3326, 10.9817 ], [ 76.3371, 10.9762 ], [ 76.3612, 10.9732 ], [ 76.3711, 10.9972 ], [ 76.3347, 10.9985 ], [ 76.3242, 11.0049 ], [ 76.3281, 11.0242 ], [ 76.3117, 11.0296 ], [ 76.2884, 11.0214 ], [ 76.2843, 11.0243 ], [ 76.2891, 11.0335 ], [ 76.2841, 11.0352 ], [ 76.2926, 11.0405 ], [ 76.2946, 11.0506 ], [ 76.3091, 11.0467 ], [ 76.3313, 11.0547 ], [ 76.3347, 11.0627 ], [ 76.3294, 11.0739 ], [ 76.3395, 11.0777 ], [ 76.3441, 11.088 ], [ 76.3605, 11.0979 ], [ 76.3875, 11.0987 ], [ 76.3859, 11.1115 ], [ 76.4085, 11.1185 ], [ 76.4135, 11.1427 ], [ 76.4061, 11.1537 ], [ 76.4137, 11.1709 ], [ 76.4023, 11.1876 ], [ 76.4047, 11.2096 ], [ 76.4246, 11.2093 ], [ 76.4307, 11.2029 ], [ 76.4382, 11.2041 ], [ 76.4386, 11.199 ], [ 76.4519, 11.1992 ], [ 76.4584, 11.1877 ], [ 76.4735, 11.1949 ], [ 76.4724, 11.2088 ], [ 76.5033, 11.2116 ], [ 76.5339, 11.1968 ], [ 76.6009, 11.2066 ], [ 76.6297, 11.1942 ], [ 76.6775, 11.2206 ], [ 76.6842, 11.2337 ], [ 76.6983, 11.2396 ], [ 76.7254, 11.2258 ], [ 76.7318, 11.2137 ], [ 76.7222, 11.2036 ], [ 76.729, 11.191 ], [ 76.7103, 11.1878 ], [ 76.7066, 11.1794 ], [ 76.7002, 11.1818 ], [ 76.6896, 11.1596 ], [ 76.7052, 11.1422 ], [ 76.7124, 11.1422 ], [ 76.71, 11.148 ], [ 76.7185, 11.1476 ], [ 76.7288, 11.1305 ], [ 76.735, 11.1364 ], [ 76.7393, 11.132 ], [ 76.7483, 11.1358 ], [ 76.7474, 11.1112 ], [ 76.739, 11.1039 ], [ 76.7466, 11.0925 ], [ 76.7517, 11.0932 ], [ 76.7547, 11.079 ], [ 76.7412, 11.0728 ], [ 76.7442, 11.0569 ], [ 76.7782, 11.0421 ], [ 76.7878, 11.0447 ], [ 76.7962, 11.0559 ], [ 76.8009, 11.054 ], [ 76.7918, 11.0374 ], [ 76.7666, 11.0291 ], [ 76.7376, 11.0397 ], [ 76.7109, 11.0387 ], [ 76.6942, 11.0216 ], [ 76.686, 10.9892 ], [ 76.6668, 10.9683 ], [ 76.6647, 10.9435 ], [ 76.6558, 10.939 ], [ 76.6768, 10.9181 ], [ 76.7149, 10.9086 ], [ 76.7408, 10.891 ], [ 76.7524, 10.8951 ], [ 76.7679, 10.887 ], [ 76.7814, 10.8904 ], [ 76.7918, 10.8811 ], [ 76.8283, 10.8719 ], [ 76.8319, 10.8601 ], [ 76.8484, 10.8494 ], [ 76.8538, 10.839 ], [ 76.8451, 10.8261 ], [ 76.8508, 10.818 ], [ 76.8642, 10.8171 ] ] ] } },
{ "type": "Feature", "properties": { "district": "Pattanamthitta", "did": "kerala:Pattanamthitta", "state_key": "kerala" }, "geometry": { "type": "Polygon", "coordinates": [ [ [ 76.8421, 9.0921 ], [ 76.826, 9.0924 ], [ 76.8093, 9.1084 ], [ 76.7833, 9.1141 ], [ 76.7656, 9.0945 ], [ 76.7709, 9.0745 ], [ 76.7585, 9.0725 ], [ 76.7542, 9.0884 ], [ 76.745, 9.0801 ], [ 76.7372, 9.0863 ], [ 76.7334, 9.0811 ], [ 76.7227, 9.0817 ], [ 76.6902, 9.0916 ], [ 76.6839, 9.0809 ], [ 76.672, 9.0808 ], [ 76.6774, 9.092 ], [ 76.6697, 9.1167 ], [ 76.6565, 9.1134 ], [ 76.6445, 9.1223 ], [ 76.6329, 9.119 ], [ 76.6381, 9.1483 ], [ 76.6724, 9.1532 ], [ 76.6748, 9.17 ], [ 76.6878, 9.169 ], [ 76.6907, 9.177 ], [ 76.6767, 9.1829 ], [ 76.6771, 9.1939 ], [ 76.6474, 9.2074 ], [ 76.6393, 9.2338 ], [ 76.654, 9.2378 ], [ 76.6559, 9.2638 ], [ 76.6644, 9.266 ], [ 76.6776, 9.2856 ], [ 76.6757, 9.2894 ], [ 76.6514, 9.2897 ], [ 76.6517, 9.3084 ], [ 76.6451, 9.3099 ], [ 76.6354, 9.3271 ], [ 76.6417, 9.341 ], [ 76.6286, 9.3426 ], [ 76.6279, 9.3372 ], [ 76.5981, 9.3463 ], [ 76.5948, 9.3528 ], [ 76.5816, 9.3473 ], [ 76.5724, 9.3558 ], [ 76.5519, 9.3521 ], [ 76.5598, 9.3434 ], [ 76.5516, 9.3254 ], [ 76.5403, 9.3223 ], [ 76.5318, 9.3296 ], [ 76.4978, 9.3234 ], [ 76.4745, 9.3281 ], [ 76.4825, 9.3458 ], [ 76.5133, 9.354 ], [ 76.5158, 9.3652 ], [ 76.5236, 9.3657 ], [ 76.5093, 9.3772 ], [ 76.516, 9.4079 ], [ 76.5535, 9.425 ], [ 76.5594, 9.4114 ], [ 76.5791, 9.4223 ], [ 76.5934, 9.4129 ], [ 76.5915, 9.4488 ], [ 76.6046, 9.4506 ], [ 76.6029, 9.4578 ], [ 76.6099, 9.4548 ], [ 76.6093, 9.4603 ], [ 76.626, 9.4618 ], [ 76.6272, 9.4718 ], [ 76.6351, 9.4626 ], [ 76.6425, 9.4792 ], [ 76.6597, 9.4827 ], [ 76.7002, 9.477 ], [ 76.7082, 9.4543 ], [ 76.7313, 9.4664 ], [ 76.7334, 9.4753 ], [ 76.7457, 9.4748 ], [ 76.7522, 9.463 ], [ 76.7487, 9.4523 ], [ 76.7544, 9.4539 ], [ 76.7652, 9.4367 ], [ 76.7829, 9.4487 ], [ 76.7927, 9.4467 ], [ 76.8003, 9.4588 ], [ 76.8187, 9.4553 ], [ 76.8234, 9.4458 ], [ 76.8329, 9.4524 ], [ 76.8488, 9.4455 ], [ 76.8546, 9.4572 ], [ 76.9046, 9.4316 ], [ 76.9112, 9.4234 ], [ 76.9231, 9.4241 ], [ 76.9251, 9.4156 ], [ 76.9362, 9.4213 ], [ 76.9844, 9.4239 ], [ 76.9671, 9.4333 ], [ 76.9629, 9.4257 ], [ 76.9541, 9.4349 ], [ 76.9443, 9.4285 ], [ 76.9411, 9.4317 ], [ 76.9401, 9.4453 ], [ 76.9681, 9.465 ], [ 76.9939, 9.4471 ], [ 77.0172, 9.4416 ], [ 77.0186, 9.4307 ], [ 77.0084, 9.4289 ], [ 77.0093, 9.409 ], [ 77.0215, 9.4061 ], [ 77.0533, 9.4181 ], [ 77.0664, 9.4169 ], [ 77.0585, 9.4276 ], [ 77.0592, 9.4457 ], [ 77.0685, 9.4543 ], [ 77.0988, 9.4627 ], [ 77.1008, 9.4681 ], [ 77.1351, 9.4586 ], [ 77.1553, 9.4711 ], [ 77.1664, 9.4697 ], [ 77.1686, 9.4616 ], [ 77.182, 9.4727 ], [ 77.1834, 9.4544 ], [ 77.1881, 9.4562 ], [ 77.1912, 9.4496 ], [ 77.2069, 9.4504 ], [ 77.208, 9.4415 ], [ 77.2116, 9.4439 ], [ 77.2237, 9.4345 ], [ 77.2207, 9.4213 ], [ 77.2288, 9.4197 ], [ 77.2316, 9.4037 ], [ 77.2459, 9.3875 ], [ 77.2482, 9.3775 ], [ 77.2348, 9.3502 ], [ 77.2379, 9.3396 ], [ 77.2303, 9.3303 ], [ 77.2351, 9.3242 ], [ 77.2246, 9.3117 ], [ 77.2246, 9.2959 ], [ 77.2353, 9.2934 ], [ 77.2372, 9.2827 ], [ 77.2488, 9.2898 ], [ 77.2733, 9.2788 ], [ 77.2835, 9.2673 ], [ 77.2741, 9.2358 ], [ 77.2817, 9.2166 ], [ 77.2703, 9.2006 ], [ 77.2561, 9.1992 ], [ 77.2514, 9.1886 ], [ 77.2652, 9.1813 ], [ 77.2668, 9.1525 ], [ 77.2527, 9.1392 ], [ 77.2473, 9.1246 ], [ 77.2284, 9.1169 ], [ 77.2265, 9.1082 ], [ 77.2124, 9.1005 ], [ 77.2057, 9.085 ], [ 77.2081, 9.0729 ], [ 77.167, 9.0783 ], [ 77.1542, 9.0819 ], [ 77.1545, 9.0874 ], [ 77.1452, 9.0835 ], [ 77.1208, 9.0947 ], [ 77.1111, 9.0932 ], [ 77.0791, 9.1132 ], [ 77.0673, 9.1144 ], [ 77.0648, 9.1194 ], [ 77.0576, 9.1172 ], [ 77.0543, 9.1273 ], [ 77.0454, 9.1232 ], [ 77.0187, 9.1306 ], [ 77.0095, 9.1403 ], [ 76.9942, 9.1399 ], [ 76.9596, 9.1536 ], [ 76.9303, 9.1738 ], [ 76.9264, 9.1386 ], [ 76.9406, 9.1386 ], [ 76.9489, 9.131 ], [ 76.9602, 9.13 ], [ 76.9557, 9.124 ], [ 76.9483, 9.1172 ], [ 76.938, 9.1172 ], [ 76.9022, 9.1254 ], [ 76.8982, 9.1304 ], [ 76.8926, 9.1228 ], [ 76.884, 9.122 ], [ 76.8756, 9.1309 ], [ 76.866, 9.1158 ], [ 76.8519, 9.1127 ], [ 76.8512, 9.101 ], [ 76.8421, 9.0921 ] ] ] } },
{ "type": "Feature", "properties": { "district": "Thiruvananthapuram", "did": "kerala:Thiruvananthapuram", "state_key": "kerala" }, "geometry": { "type": "Polygon", "coordinates": [ [ [ 77.2066, 8.4447 ], [ 77.1817, 8.3958 ], [ 77.1682, 8.3839 ], [ 77.161, 8.3902 ], [ 77.1513, 8.3849 ], [ 77.16, 8.3812 ], [ 77.1613, 8.374 ], [ 77.153, 8.3551 ], [ 77.1675, 8.3634 ], [ 77.1743, 8.3586 ], [ 77.1755, 8.3499 ], [ 77.1669, 8.3427 ], [ 77.1806, 8.3235 ], [ 77.1733, 8.3198 ], [ 77.1693, 8.3329 ], [ 77.1536, 8.328 ], [ 77.1484, 8.332 ], [ 77.1398, 8.3299 ], [ 77.1192, 8.3211 ], [ 77.1228, 8.309 ], [ 77.1166, 8.3103 ], [ 77.1131, 8.3042 ], [ 77.1018, 8.3065 ], [ 77.096, 8.293 ], [ 77.0287, 8.3476 ], [ 77.0112, 8.3547 ], [ 76.9976, 8.3741 ], [ 76.9864, 8.3755 ], [ 76.9755, 8.3858 ], [ 76.9549, 8.4266 ], [ 76.6987, 8.738 ], [ 76.6729, 8.7817 ], [ 76.6772, 8.7887 ], [ 76.6837, 8.7763 ], [ 76.6899, 8.7787 ], [ 76.6927, 8.7916 ], [ 76.7097, 8.7911 ], [ 76.7219, 8.8038 ], [ 76.7605, 8.7914 ], [ 76.7613, 8.8003 ], [ 76.771, 8.7999 ], [ 76.7712, 8.8112 ], [ 76.7926, 8.8135 ], [ 76.783, 8.8194 ], [ 76.7944, 8.8281 ], [ 76.7754, 8.8439 ], [ 76.7827, 8.8626 ], [ 76.8015, 8.8487 ], [ 76.8068, 8.8574 ], [ 76.8113, 8.8549 ], [ 76.8167, 8.8595 ], [ 76.8257, 8.8429 ], [ 76.8481, 8.8345 ], [ 76.8459, 8.8278 ], [ 76.8554, 8.816 ], [ 76.8828, 8.8055 ], [ 76.9001, 8.8115 ], [ 76.9213, 8.7865 ], [ 76.9152, 8.7768 ], [ 76.9336, 8.7614 ], [ 76.9465, 8.7712 ], [ 76.9728, 8.7754 ], [ 76.9813, 8.79 ], [ 76.9961, 8.7847 ], [ 77.0028, 8.7713 ], [ 77.0249, 8.7754 ], [ 77.0116, 8.7955 ], [ 77.0087, 8.8124 ], [ 77.0209, 8.8166 ], [ 77.0201, 8.8284 ], [ 77.0326, 8.8428 ], [ 77.0509, 8.8464 ], [ 77.1072, 8.8303 ], [ 77.1275, 8.8105 ], [ 77.1997, 8.7718 ], [ 77.1925, 8.7444 ], [ 77.1827, 8.7428 ], [ 77.1716, 8.7506 ], [ 77.17, 8.7418 ], [ 77.2067, 8.6842 ], [ 77.2007, 8.6691 ], [ 77.2441, 8.6218 ], [ 77.2452, 8.6034 ], [ 77.2664, 8.5851 ], [ 77.2838, 8.5467 ], [ 77.2617, 8.5062 ], [ 77.2513, 8.5054 ], [ 77.2401, 8.4971 ], [ 77.2297, 8.509 ], [ 77.2143, 8.5128 ], [ 77.2024, 8.5012 ], [ 77.2119, 8.4921 ], [ 77.2141, 8.4697 ], [ 77.2274, 8.4585 ], [ 77.2281, 8.4473 ], [ 77.2066, 8.4447 ] ] ] } },
{ "type": "Feature", "properties": { "district": "Trissur", "did": "kerala:Trissur", "state_key": "kerala" }, "geometry": { "type": "Polygon", "coordinates": [ [ [ 76.2603, 10.2022 ], [ 76.2197, 10.207 ], [ 76.2116, 10.2009 ], [ 76.2137, 10.1942 ], [ 76.1852, 10.1909 ], [ 76.1648, 10.1798 ], [ 76.1621, 10.1825 ], [ 76.1003, 10.3815 ], [ 76.0319, 10.5153 ], [ 75.9562, 10.6854 ], [ 75.967, 10.6941 ], [ 75.9757, 10.6914 ], [ 75.9783, 10.6955 ], [ 75.9829, 10.6869 ], [ 76.0012, 10.6943 ], [ 76.0073, 10.6896 ], [ 76.0343, 10.7006 ], [ 76.037, 10.7074 ], [ 76.0516, 10.7044 ], [ 76.0611, 10.7197 ], [ 76.0593, 10.7276 ], [ 76.067, 10.7235 ], [ 76.0688, 10.7303 ], [ 76.0964, 10.7283 ], [ 76.1226, 10.7104 ], [ 76.1329, 10.7224 ], [ 76.1538, 10.7116 ], [ 76.1569, 10.718 ], [ 76.1642, 10.7063 ], [ 76.1918, 10.7501 ], [ 76.2026, 10.752 ], [ 76.2054, 10.7686 ], [ 76.1879, 10.7827 ], [ 76.21, 10.7777 ], [ 76.2192, 10.7822 ], [ 76.2305, 10.7725 ], [ 76.2428, 10.7732 ], [ 76.2452, 10.75 ], [ 76.2521, 10.7468 ], [ 76.2894, 10.7554 ], [ 76.326, 10.7453 ], [ 76.3399, 10.7491 ], [ 76.354, 10.7431 ], [ 76.3649, 10.763 ], [ 76.383, 10.7677 ], [ 76.397, 10.7463 ], [ 76.4697, 10.7519 ], [ 76.4678, 10.7403 ], [ 76.4794, 10.7325 ], [ 76.464, 10.7211 ], [ 76.4569, 10.6997 ], [ 76.4515, 10.702 ], [ 76.4401, 10.6965 ], [ 76.451, 10.6658 ], [ 76.4487, 10.6611 ], [ 76.4415, 10.6632 ], [ 76.4342, 10.65 ], [ 76.4218, 10.6472 ], [ 76.4177, 10.6276 ], [ 76.4211, 10.6225 ], [ 76.4205, 10.6291 ], [ 76.4255, 10.6275 ], [ 76.4281, 10.6135 ], [ 76.4217, 10.606 ], [ 76.4133, 10.6056 ], [ 76.4132, 10.5945 ], [ 76.4048, 10.6018 ], [ 76.4012, 10.596 ], [ 76.4085, 10.5801 ], [ 76.4203, 10.5787 ], [ 76.4297, 10.5585 ], [ 76.439, 10.5569 ], [ 76.4316, 10.5373 ], [ 76.4413, 10.5227 ], [ 76.4506, 10.5217 ], [ 76.474, 10.4871 ], [ 76.4872, 10.4863 ], [ 76.4894, 10.4793 ], [ 76.5231, 10.4688 ], [ 76.5363, 10.4483 ], [ 76.5574, 10.4435 ], [ 76.5586, 10.4341 ], [ 76.5881, 10.4354 ], [ 76.6227, 10.3793 ], [ 76.6286, 10.3831 ], [ 76.6326, 10.3765 ], [ 76.6456, 10.3829 ], [ 76.6545, 10.3768 ], [ 76.6614, 10.3856 ], [ 76.6868, 10.3633 ], [ 76.7031, 10.3631 ], [ 76.7062, 10.3701 ], [ 76.7178, 10.373 ], [ 76.763, 10.3622 ], [ 76.7627, 10.3531 ], [ 76.7526, 10.3476 ], [ 76.7545, 10.3362 ], [ 76.7718, 10.3342 ], [ 76.7771, 10.342 ], [ 76.7875, 10.3362 ], [ 76.8045, 10.3369 ], [ 76.8057, 10.344 ], [ 76.816, 10.3489 ], [ 76.828, 10.3373 ], [ 76.8377, 10.3378 ], [ 76.8303, 10.3036 ], [ 76.8407, 10.2997 ], [ 76.8487, 10.2853 ], [ 76.8551, 10.2928 ], [ 76.8731, 10.2985 ], [ 76.8734, 10.2763 ], [ 76.8971, 10.2628 ], [ 76.9012, 10.2518 ], [ 76.8956, 10.2586 ], [ 76.8893, 10.2558 ], [ 76.8779, 10.2604 ], [ 76.8761, 10.2706 ], [ 76.867, 10.2694 ], [ 76.8376, 10.2836 ], [ 76.8288, 10.2754 ], [ 76.8262, 10.281 ], [ 76.8098, 10.2861 ], [ 76.7973, 10.2774 ], [ 76.7751, 10.2765 ], [ 76.7684, 10.2689 ], [ 76.7589, 10.2696 ], [ 76.751, 10.2782 ], [ 76.6957, 10.2639 ], [ 76.6692, 10.2717 ], [ 76.6619, 10.28 ], [ 76.6213, 10.2735 ], [ 76.6188, 10.2803 ], [ 76.6033, 10.2802 ], [ 76.5898, 10.2989 ], [ 76.5774, 10.3025 ], [ 76.5661, 10.2932 ], [ 76.5734, 10.2845 ], [ 76.5542, 10.2829 ], [ 76.5444, 10.2896 ], [ 76.5246, 10.2843 ], [ 76.4985, 10.2877 ], [ 76.4898, 10.2944 ], [ 76.4724, 10.2917 ], [ 76.4477, 10.2969 ], [ 76.4297, 10.2895 ], [ 76.4154, 10.2943 ], [ 76.4134, 10.2811 ], [ 76.3901, 10.264 ], [ 76.3914, 10.2554 ], [ 76.3778, 10.2548 ], [ 76.3794, 10.2451 ], [ 76.3393, 10.2311 ], [ 76.3312, 10.2095 ], [ 76.3107, 10.2055 ], [ 76.312, 10.1824 ], [ 76.3019, 10.1854 ], [ 76.2964, 10.1761 ], [ 76.274, 10.1752 ], [ 76.2712, 10.1848 ], [ 76.2615, 10.1902 ], [ 76.2603, 10.2022 ] ] ] } },
{ "type": "Feature", "properties": { "district": "Wayanad", "did": "kerala:Wayanad", "state_key": "kerala" }, "geometry": { "type": "Polygon", "coordinates": [ [ [ 76.2515, 11.5378 ], [ 76.2505, 11.5276 ], [ 76.2338, 11.5287 ], [ 76.2242, 11.5097 ], [ 76.1992, 11.5067 ], [ 76.1817, 11.484 ], [ 76.1858, 11.4735 ], [ 76.1523, 11.4527 ], [ 76.1428, 11.4516 ], [ 76.1229, 11.4738 ], [ 76.1058, 11.4825 ], [ 76.0917, 11.4827 ], [ 76.087, 11.4874 ], [ 76.093, 11.4936 ], [ 76.0902, 11.5114 ], [ 76.0757, 11.5233 ], [ 76.0518, 11.5039 ], [ 76.0452, 11.507 ], [ 76.0379, 11.5027 ], [ 76.0335, 11.5105 ], [ 76.0184, 11.5144 ], [ 75.9578, 11.5607 ], [ 75.9521, 11.5809 ], [ 75.9085, 11.6018 ], [ 75.898, 11.6229 ], [ 75.897, 11.6428 ], [ 75.9053, 11.6615 ], [ 75.9001, 11.676 ], [ 75.9154, 11.6905 ], [ 75.8753, 11.7043 ], [ 75.8507, 11.703 ], [ 75.8456, 11.7142 ], [ 75.8321, 11.7201 ], [ 75.8101, 11.7429 ], [ 75.7908, 11.7435 ], [ 75.7991, 11.7534 ], [ 75.7833, 11.7607 ], [ 75.7934, 11.7907 ], [ 75.772, 11.8027 ], [ 75.7988, 11.8194 ], [ 75.7899, 11.8359 ], [ 75.7935, 11.8459 ], [ 75.8007, 11.8453 ], [ 75.8069, 11.8555 ], [ 75.8196, 11.8589 ], [ 75.8287, 11.8512 ], [ 75.8439, 11.8561 ], [ 75.854, 11.8478 ], [ 75.8719, 11.8489 ], [ 75.8917, 11.8426 ], [ 75.926, 11.8471 ], [ 75.9273, 11.8428 ], [ 75.9314, 11.8581 ], [ 75.9114, 11.8749 ], [ 75.9298, 11.882 ], [ 75.9363, 11.8907 ], [ 75.9393, 11.9033 ], [ 75.925, 11.92 ], [ 75.9282, 11.9345 ], [ 75.936, 11.9345 ], [ 75.9396, 11.941 ], [ 75.9564, 11.9419 ], [ 75.9764, 11.9337 ], [ 76.0032, 11.9314 ], [ 76.0131, 11.9417 ], [ 76.0337, 11.9403 ], [ 76.0701, 11.9671 ], [ 76.0898, 11.9674 ], [ 76.1123, 11.9787 ], [ 76.1129, 11.8587 ], [ 76.1199, 11.8505 ], [ 76.156, 11.8701 ], [ 76.1904, 11.8712 ], [ 76.2075, 11.8615 ], [ 76.2131, 11.8426 ], [ 76.2099, 11.8282 ], [ 76.2256, 11.807 ], [ 76.2469, 11.803 ], [ 76.2802, 11.8116 ], [ 76.2902, 11.7928 ], [ 76.3077, 11.7842 ], [ 76.3169, 11.7526 ], [ 76.3397, 11.739 ], [ 76.3525, 11.7383 ], [ 76.3628, 11.7484 ], [ 76.377, 11.7445 ], [ 76.3913, 11.7548 ], [ 76.3986, 11.7508 ], [ 76.4142, 11.7588 ], [ 76.4105, 11.7421 ], [ 76.4182, 11.7426 ], [ 76.4274, 11.7263 ], [ 76.414, 11.7113 ], [ 76.4085, 11.7151 ], [ 76.4034, 11.7081 ], [ 76.4089, 11.7064 ], [ 76.4159, 11.6728 ], [ 76.428, 11.6701 ], [ 76.4435, 11.649 ], [ 76.4325, 11.6313 ], [ 76.4069, 11.6343 ], [ 76.3881, 11.6297 ], [ 76.378, 11.6019 ], [ 76.3413, 11.5872 ], [ 76.3359, 11.5957 ], [ 76.3159, 11.5766 ], [ 76.3024, 11.5712 ], [ 76.2959, 11.5904 ], [ 76.2861, 11.5902 ], [ 76.2789, 11.6009 ], [ 76.2342, 11.5682 ], [ 76.2515, 11.5378 ] ] ] } }
]
}
