{
"type": "FeatureCollection",
"crs": { "type": "name", "properties": { "name": "urn:ogc:def:crs:OGC:1.3:CRS84" } },
"xy_coordinate_resolution": 0.0001,
"features": [
{ "type": "Feature", "properties": { "district": "Dadra & Nagar Haveli", "did": "dadra_nagar_haveli_daman_diu:Dadra & Nagar Haveli", "state_key": "dadra_nagar_haveli_daman_diu" }, "geometry": { "type": "MultiPolygon", "coordinates": [ [ [ [ 73.1113, 20.3378 ], [ 73.1028, 20.3018 ], [ 73.127, 20.3055 ], [ 73.1294, 20.3183 ], [ 73.1508, 20.3183 ], [ 73.1594, 20.3089 ], [ 73.1657, 20.3104 ], [ 73.1659, 20.2864 ], [ 73.1582, 20.2813 ], [ 73.1517, 20.292 ], [ 73.1458, 20.2886 ], [ 73.14, 20.2738 ], [ 73.1312, 20.275 ], [ 73.126, 20.2608 ], [ 73.107, 20.2508 ], [ 73.0973, 20.2387 ], [ 73.0977, 20.2293 ], [ 73.0893, 20.2268 ], [ 73.0705, 20.2321 ], [ 73.0488, 20.2002 ], [ 73.0595, 20.1939 ], [ 73.0602, 20.1619 ], [ 73.0725, 20.155 ], [ 73.0793, 20.1732 ], [ 73.087, 20.1703 ], [ 73.0903, 20.1603 ], [ 73.1157, 20.1522 ], [ 73.1192, 20.1682 ], [ 73.1284, 20.1734 ], [ 73.136, 20.17 ], [ 73.1419, 20.1774 ], [ 73.1326, 20.192 ], [ 73.1375, 20.2076 ], [ 73.1572, 20.1983 ], [ 73.1683, 20.2082 ], [ 73.1779, 20.1926 ], [ 73.1917, 20.1974 ], [ 73.2177, 20.1859 ], [ 73.2142, 20.1717 ], [ 73.2055, 20.1642 ], [ 73.1897, 20.1643 ], [ 73.1854, 20.1558 ], [ 73.187, 20.1294 ], [ 73.2139, 20.1169 ], [ 73.2097, 20.0853 ], [ 73.1969, 20.0759 ], [ 73.1885, 20.0781 ], [ 73.1909, 20.0496 ], [ 73.1782, 20.047 ], [ 73.1564, 20.0635 ], [ 73.1546, 20.0758 ], [ 73.1492, 20.079 ], [ 73.1467, 20.0739 ], [ 73.1425, 20.0803 ], [ 73.1371, 20.0791 ], [ 73.1364, 20.0864 ], [ 73.112, 20.0712 ], [ 73.1061, 20.0742 ], [ 73.1023, 20.0912 ], [ 73.0835, 20.0912 ], [ 73.0637, 20.0996 ], [ 73.0552, 20.0999 ], [ 73.0506, 20.0637 ], [ 73.0402, 20.0664 ], [ 73.0007, 20.1123 ], [ 72.9996, 20.123 ], [ 73.0132, 20.1296 ], [ 72.9992, 20.1426 ], [ 72.9918, 20.1177 ], [ 72.9774, 20.1128 ], [ 72.9705, 20.1156 ], [ 72.9608, 20.1333 ], [ 72.9769, 20.1786 ], [ 72.9609, 20.1861 ], [ 72.966, 20.2249 ], [ 72.954, 20.2383 ], [ 72.9306, 20.2444 ], [ 72.9116, 20.2705 ], [ 72.9357, 20.2946 ], [ 72.9712, 20.2691 ], [ 72.9819, 20.2755 ], [ 72.9812, 20.2893 ], [ 73.01, 20.2912 ], [ 73.0062, 20.3128 ], [ 73.0167, 20.3104 ], [ 73.0153, 20.294 ], [ 73.0343, 20.2916 ], [ 73.0417, 20.326 ], [ 73.0666, 20.33 ], [ 73.0772, 20.3235 ], [ 73.0903, 20.3439 ], [ 73.0891, 20.3587 ], [ 73.0978, 20.3589 ], [ 73.1113, 20.3378 ] ], [ [ 73.0011, 20.2144 ], [ 73.0083, 20.229 ], [ 72.9895, 20.2388 ], [ 72.9792, 20.234 ], [ 72.9748, 20.2193 ], [ 73.0011, 20.2144 ] ] ], [ [ [ 72.9791, 20.3322 ], [ 72.9826, 20.3204 ], [ 72.9708, 20.2969 ], [ 72.9528, 20.314 ], [ 72.9647, 20.3324 ], [ 72.9791, 20.3322 ] ] ] ] } },
{ "type": "Feature", "properties": { "district": "Daman", "did": "dadra_nagar_haveli_daman_diu:Daman", "state_key": "dadra_nagar_haveli_daman_diu" }, "geometry": { "type": "Polygon", "coordinates": [ [ [ 72.8953, 20.4443 ], [ 72.8877, 20.4382 ], [ 72.8748, 20.4456 ], [ 72.8573, 20.4189 ], [ 72.8718, 20.4139 ], [ 72.8932, 20.4217 ], [ 72.904, 20.415 ], [ 72.9026, 20.4058 ], [ 72.8828, 20.3978 ], [ 72.8962, 20.3791 ], [ 72.8767, 20.3698 ], [ 72.8642, 20.3752 ], [ 72.8442, 20.3749 ], [ 72.8262, 20.3664 ], [ 72.8046, 20.3723 ], [ 72.8212, 20.4368 ], [ 72.8442, 20.4668 ], [ 72.8463, 20.478 ], [ 72.859, 20.465 ], [ 72.8865, 20.4623 ], [ 72.8953, 20.4443 ] ] ] } },
{ "type": "Feature", "properties": { "district": "Diu", "did": "dadra_nagar_haveli_daman_diu:Diu", "state_key": "dadra_nagar_haveli_daman_diu" }, "geometry": { "type": "MultiPolygon", "coordinates": [ [ [ [ 70.9395, 20.7324 ], [ 70.9604, 20.7367 ], [ 70.9644, 20.7296 ], [ 70.9813, 20.7227 ], [ 70.9845, 20.7323 ], [ 70.9995, 20.7422 ], [ 71.0074, 20.7375 ], [ 70.9931, 20.7266 ], [ 70.9974, 20.7139 ], [ 70.977, 20.7028 ], [ 70.9689, 20.708 ], [ 70.9523, 20.704 ], [ 70.9301, 20.7123 ], [ 70.9182, 20.7097 ], [ 70.9133, 20.6995 ], [ 70.8977, 20.7001 ], [ 70.8877, 20.7093 ], [ 70.8711, 20.7073 ], [ 70.8805, 20.7301 ], [ 70.9195, 20.7431 ], [ 70.9395, 20.7324 ] ] ], [ [ [ 71.1499, 20.7594 ], [ 71.1513, 20.7639 ], [ 71.1553, 20.7611 ], [ 71.1499, 20.7594 ] ] ], [ [ [ 71.1497, 20.7619 ], [ 71.1481, 20.7583 ], [ 71.1459, 20.7612 ], [ 71.1485, 20.7714 ], [ 71.1497, 20.7619 ] ] ] ] } }
]
}
