{
"type": "FeatureCollection",
"crs": { "type": "name", "properties": { "name": "urn:ogc:def:crs:OGC:1.3:CRS84" } },
"xy_coordinate_resolution": 0.0001,
"features": [
{ "type": "Feature", "properties": { "district": "Almora", "did": "uttarakhand:Almora", "state_key": "uttarakhand" }, "geometry": { "type": "Polygon", "coordinates": [ [ [ 79.9886, 29.6138 ], [ 79.9994, 29.5596 ], [ 80.0111, 29.5512 ], [ 80.0312, 29.551 ], [ 80.0669, 29.5374 ], [ 80.0652, 29.5278 ], [ 80.0779, 29.5209 ], [ 80.0308, 29.5082 ], [ 80.0298, 29.4998 ], [ 80.0007, 29.4852 ], [ 79.9888, 29.4892 ], [ 79.9569, 29.4741 ], [ 79.9516, 29.4783 ], [ 79.961, 29.4943 ], [ 79.9531, 29.4992 ], [ 79.9472, 29.4999 ], [ 79.9459, 29.4769 ], [ 79.9351, 29.4793 ], [ 79.927, 29.4724 ], [ 79.9188, 29.4746 ], [ 79.9097, 29.4898 ], [ 79.8868, 29.4836 ], [ 79.8617, 29.4488 ], [ 79.8568, 29.456 ], [ 79.8509, 29.4527 ], [ 79.8486, 29.4321 ], [ 79.8304, 29.4255 ], [ 79.7781, 29.4513 ], [ 79.7679, 29.4476 ], [ 79.7639, 29.4334 ], [ 79.7358, 29.4315 ], [ 79.7267, 29.4467 ], [ 79.7338, 29.4614 ], [ 79.71, 29.4596 ], [ 79.6895, 29.4737 ], [ 79.6794, 29.5 ], [ 79.6836, 29.5063 ], [ 79.6798, 29.5273 ], [ 79.6651, 29.5342 ], [ 79.6654, 29.5412 ], [ 79.6481, 29.5477 ], [ 79.6321, 29.5424 ], [ 79.6212, 29.5558 ], [ 79.5897, 29.5502 ], [ 79.5718, 29.5396 ], [ 79.5505, 29.5405 ], [ 79.5498, 29.551 ], [ 79.5349, 29.5455 ], [ 79.5274, 29.5491 ], [ 79.5166, 29.512 ], [ 79.5014, 29.4968 ], [ 79.4942, 29.5029 ], [ 79.4819, 29.4967 ], [ 79.4754, 29.5094 ], [ 79.4507, 29.5167 ], [ 79.4389, 29.5385 ], [ 79.4094, 29.5623 ], [ 79.3991, 29.5638 ], [ 79.3804, 29.588 ], [ 79.3586, 29.598 ], [ 79.3502, 29.5941 ], [ 79.3537, 29.5999 ], [ 79.3486, 29.6067 ], [ 79.3345, 29.612 ], [ 79.3078, 29.6012 ], [ 79.2997, 29.5905 ], [ 79.2871, 29.5901 ], [ 79.2866, 29.5783 ], [ 79.2469, 29.5491 ], [ 79.2406, 29.5364 ], [ 79.2331, 29.5375 ], [ 79.2231, 29.5221 ], [ 79.1975, 29.5237 ], [ 79.1787, 29.5346 ], [ 79.147, 29.5398 ], [ 79.1408, 29.5527 ], [ 79.1086, 29.5441 ], [ 79.11, 29.5585 ], [ 79.0769, 29.5822 ], [ 79.0565, 29.5795 ], [ 79.0371, 29.5845 ], [ 79.0427, 29.5915 ], [ 79.0607, 29.588 ], [ 79.0593, 29.6037 ], [ 79.0671, 29.6205 ], [ 79.0809, 29.6158 ], [ 79.0944, 29.6276 ], [ 79.0806, 29.6333 ], [ 79.0792, 29.6444 ], [ 79.0962, 29.6736 ], [ 79.1033, 29.6677 ], [ 79.1014, 29.6617 ], [ 79.1089, 29.665 ], [ 79.1092, 29.6765 ], [ 79.1162, 29.6828 ], [ 79.1047, 29.6989 ], [ 79.1198, 29.7097 ], [ 79.1211, 29.7178 ], [ 79.1079, 29.7394 ], [ 79.1092, 29.7752 ], [ 79.1148, 29.7698 ], [ 79.1271, 29.7815 ], [ 79.12, 29.8093 ], [ 79.0967, 29.8487 ], [ 79.0677, 29.8647 ], [ 79.0877, 29.8925 ], [ 79.1188, 29.8949 ], [ 79.1282, 29.9065 ], [ 79.1588, 29.9155 ], [ 79.1768, 29.9076 ], [ 79.1894, 29.9234 ], [ 79.1926, 29.9447 ], [ 79.2048, 29.9393 ], [ 79.2286, 29.947 ], [ 79.2268, 29.9787 ], [ 79.2451, 29.9707 ], [ 79.2508, 29.9607 ], [ 79.2726, 29.9603 ], [ 79.2846, 29.9517 ], [ 79.2823, 29.9256 ], [ 79.3091, 29.9318 ], [ 79.3251, 29.9292 ], [ 79.3259, 29.9387 ], [ 79.3351, 29.943 ], [ 79.3249, 29.9729 ], [ 79.3389, 29.9726 ], [ 79.374, 29.9269 ], [ 79.4047, 29.9424 ], [ 79.4171, 29.9432 ], [ 79.4245, 29.9346 ], [ 79.4364, 29.9525 ], [ 79.4488, 29.9579 ], [ 79.4491, 29.9647 ], [ 79.4728, 29.9797 ], [ 79.4882, 29.9713 ], [ 79.4825, 29.9581 ], [ 79.4921, 29.9492 ], [ 79.4942, 29.8962 ], [ 79.5078, 29.8735 ], [ 79.5416, 29.8684 ], [ 79.5599, 29.8594 ], [ 79.5751, 29.8639 ], [ 79.5852, 29.8516 ], [ 79.6105, 29.8412 ], [ 79.6353, 29.8496 ], [ 79.6407, 29.8408 ], [ 79.6702, 29.8433 ], [ 79.6763, 29.8345 ], [ 79.7085, 29.8253 ], [ 79.689, 29.8105 ], [ 79.7038, 29.7972 ], [ 79.6962, 29.7655 ], [ 79.7217, 29.7306 ], [ 79.7575, 29.7013 ], [ 79.7803, 29.7115 ], [ 79.7939, 29.707 ], [ 79.8046, 29.716 ], [ 79.8285, 29.7098 ], [ 79.8403, 29.7172 ], [ 79.8648, 29.7109 ], [ 79.874, 29.7152 ], [ 79.894, 29.7122 ], [ 79.8894, 29.704 ], [ 79.9027, 29.6977 ], [ 79.9248, 29.6988 ], [ 79.9419, 29.6822 ], [ 79.9466, 29.6854 ], [ 79.9564, 29.679 ], [ 79.9635, 29.6638 ], [ 79.959, 29.6567 ], [ 79.9886, 29.6138 ] ] ] } },
{ "type": "Feature", "properties": { "district": "Bageshwar", "did": "uttarakhand:Bageshwar", "state_key": "uttarakhand" }, "geometry": { "type": "Polygon", "coordinates": [ [ [ 79.8209, 29.7732 ], [ 79.8326, 29.7499 ], [ 79.8684, 29.7388 ], [ 79.894, 29.7122 ], [ 79.874, 29.7152 ], [ 79.8648, 29.7109 ], [ 79.8403, 29.7172 ], [ 79.8285, 29.7098 ], [ 79.8046, 29.716 ], [ 79.7939, 29.707 ], [ 79.7803, 29.7115 ], [ 79.7575, 29.7013 ], [ 79.7217, 29.7306 ], [ 79.6962, 29.7655 ], [ 79.7038, 29.7972 ], [ 79.689, 29.8105 ], [ 79.7079, 29.8259 ], [ 79.6763, 29.8345 ], [ 79.6702, 29.8433 ], [ 79.6407, 29.8408 ], [ 79.6353, 29.8496 ], [ 79.6105, 29.8412 ], [ 79.5852, 29.8516 ], [ 79.5751, 29.8639 ], [ 79.5599, 29.8594 ], [ 79.5416, 29.8684 ], [ 79.5078, 29.8735 ], [ 79.4942, 29.8962 ], [ 79.4921, 29.9492 ], [ 79.4825, 29.9581 ], [ 79.4882, 29.9713 ], [ 79.4716, 29.9795 ], [ 79.4721, 29.9976 ], [ 79.4842, 30.0233 ], [ 79.4985, 30.0154 ], [ 79.5232, 30.0135 ], [ 79.5329, 29.9999 ], [ 79.5477, 29.9958 ], [ 79.5625, 30.0034 ], [ 79.5874, 30.0045 ], [ 79.6101, 30.0201 ], [ 79.6378, 30.0198 ], [ 79.6631, 30.0048 ], [ 79.68, 30.0095 ], [ 79.7207, 30.0013 ], [ 79.766, 30.0101 ], [ 79.778, 30.0058 ], [ 79.7891, 30.0162 ], [ 79.8129, 30.0227 ], [ 79.8162, 30.0477 ], [ 79.829, 30.0591 ], [ 79.8111, 30.0762 ], [ 79.7887, 30.0804 ], [ 79.7772, 30.0977 ], [ 79.7817, 30.113 ], [ 79.773, 30.1284 ], [ 79.763, 30.133 ], [ 79.7666, 30.1435 ], [ 79.7821, 30.1523 ], [ 79.7828, 30.1807 ], [ 79.8017, 30.2127 ], [ 79.815, 30.217 ], [ 79.8221, 30.2265 ], [ 79.815, 30.2377 ], [ 79.8178, 30.2454 ], [ 79.8041, 30.2608 ], [ 79.7995, 30.2843 ], [ 79.8443, 30.2881 ], [ 79.8733, 30.2711 ], [ 79.8983, 30.2764 ], [ 79.9318, 30.2983 ], [ 79.9616, 30.2918 ], [ 79.9769, 30.2989 ], [ 79.9869, 30.3165 ], [ 80.0224, 30.3149 ], [ 80.0415, 30.2914 ], [ 80.0679, 30.2812 ], [ 80.0607, 30.2708 ], [ 80.0731, 30.2628 ], [ 80.0776, 30.2377 ], [ 80.093, 30.2266 ], [ 80.1161, 30.2266 ], [ 80.1042, 30.1484 ], [ 80.0824, 30.1115 ], [ 80.0847, 30.0624 ], [ 80.0675, 30.0189 ], [ 80.0712, 30.0007 ], [ 80.091, 29.969 ], [ 80.1385, 29.9415 ], [ 80.1586, 29.9044 ], [ 80.1486, 29.8978 ], [ 80.1075, 29.9065 ], [ 80.0854, 29.8869 ], [ 80.0713, 29.9008 ], [ 80.0535, 29.9026 ], [ 80.045, 29.8956 ], [ 80.0267, 29.8963 ], [ 80.0128, 29.8876 ], [ 80.0055, 29.8738 ], [ 80.0067, 29.851 ], [ 79.978, 29.8523 ], [ 79.9769, 29.8416 ], [ 79.9935, 29.8451 ], [ 79.9981, 29.8352 ], [ 80.0197, 29.8286 ], [ 80.0188, 29.8107 ], [ 80.0324, 29.8065 ], [ 80.0402, 29.788 ], [ 80.0336, 29.7823 ], [ 80.0182, 29.7827 ], [ 80.0127, 29.774 ], [ 80.0034, 29.7779 ], [ 79.9984, 29.7643 ], [ 79.9752, 29.7596 ], [ 79.9316, 29.7665 ], [ 79.9314, 29.79 ], [ 79.9095, 29.7892 ], [ 79.9044, 29.7985 ], [ 79.8986, 29.7918 ], [ 79.8921, 29.7936 ], [ 79.8869, 29.7761 ], [ 79.8699, 29.7675 ], [ 79.8532, 29.7694 ], [ 79.8444, 29.7773 ], [ 79.8237, 29.7784 ], [ 79.8209, 29.7732 ] ] ] } },
{ "type": "Feature", "properties": { "district": "Chamoli", "did": "uttarakhand:Chamoli", "state_key": "uttarakhand" }, "geometry": { "type": "Polygon", "coordinates": [ [ [ 79.4721, 29.9976 ], [ 79.4716, 29.9795 ], [ 79.4491, 29.9647 ], [ 79.4488, 29.9579 ], [ 79.4364, 29.9525 ], [ 79.4245, 29.9346 ], [ 79.4171, 29.9432 ], [ 79.4047, 29.9424 ], [ 79.374, 29.9269 ], [ 79.3389, 29.9726 ], [ 79.3249, 29.9729 ], [ 79.3351, 29.943 ], [ 79.3259, 29.9387 ], [ 79.3251, 29.9292 ], [ 79.3091, 29.9318 ], [ 79.2823, 29.9256 ], [ 79.2846, 29.9517 ], [ 79.2726, 29.9603 ], [ 79.2508, 29.9607 ], [ 79.2411, 29.9736 ], [ 79.2248, 29.978 ], [ 79.2187, 29.9859 ], [ 79.224, 29.9917 ], [ 79.2178, 30.0226 ], [ 79.2024, 30.0353 ], [ 79.1889, 30.0373 ], [ 79.1937, 30.0592 ], [ 79.2031, 30.0632 ], [ 79.1931, 30.0845 ], [ 79.1724, 30.0966 ], [ 79.1603, 30.0931 ], [ 79.1513, 30.1119 ], [ 79.1344, 30.1182 ], [ 79.1335, 30.146 ], [ 79.144, 30.1551 ], [ 79.1397, 30.1657 ], [ 79.1267, 30.1689 ], [ 79.1266, 30.1796 ], [ 79.0976, 30.1967 ], [ 79.0946, 30.2059 ], [ 79.1012, 30.2111 ], [ 79.076, 30.2205 ], [ 79.1035, 30.2559 ], [ 79.1068, 30.2888 ], [ 79.1203, 30.2934 ], [ 79.1373, 30.2852 ], [ 79.1536, 30.2965 ], [ 79.1705, 30.2953 ], [ 79.1444, 30.3008 ], [ 79.1488, 30.3225 ], [ 79.1593, 30.3281 ], [ 79.1414, 30.3379 ], [ 79.1293, 30.3646 ], [ 79.1078, 30.3746 ], [ 79.1104, 30.3812 ], [ 79.1191, 30.3846 ], [ 79.1492, 30.3782 ], [ 79.164, 30.3857 ], [ 79.1646, 30.4105 ], [ 79.1725, 30.4151 ], [ 79.1744, 30.4284 ], [ 79.1666, 30.4462 ], [ 79.1862, 30.4625 ], [ 79.1916, 30.4769 ], [ 79.2218, 30.4904 ], [ 79.2289, 30.527 ], [ 79.2454, 30.5378 ], [ 79.2456, 30.5589 ], [ 79.2653, 30.5667 ], [ 79.2953, 30.5609 ], [ 79.307, 30.5893 ], [ 79.3331, 30.5936 ], [ 79.3475, 30.6084 ], [ 79.3479, 30.6236 ], [ 79.356, 30.6315 ], [ 79.3533, 30.6468 ], [ 79.3037, 30.6783 ], [ 79.298, 30.7181 ], [ 79.2747, 30.7243 ], [ 79.2896, 30.7498 ], [ 79.2718, 30.7584 ], [ 79.2593, 30.7796 ], [ 79.2454, 30.7849 ], [ 79.2401, 30.8033 ], [ 79.2249, 30.8117 ], [ 79.2263, 30.8194 ], [ 79.2409, 30.8247 ], [ 79.2366, 30.8388 ], [ 79.2513, 30.8433 ], [ 79.259, 30.8693 ], [ 79.2809, 30.8766 ], [ 79.27, 30.9069 ], [ 79.2836, 30.9138 ], [ 79.2845, 30.9353 ], [ 79.2669, 30.9461 ], [ 79.2635, 30.9549 ], [ 79.292, 30.9681 ], [ 79.3218, 30.9609 ], [ 79.3304, 30.9699 ], [ 79.3232, 30.9836 ], [ 79.3316, 30.9957 ], [ 79.3081, 31.0048 ], [ 79.3067, 31.0137 ], [ 79.3203, 31.0243 ], [ 79.3624, 31.0368 ], [ 79.3828, 31.0554 ], [ 79.3872, 31.067 ], [ 79.4105, 31.0754 ], [ 79.4246, 31.0711 ], [ 79.4248, 31.0305 ], [ 79.4916, 31.0335 ], [ 79.519, 31.0267 ], [ 79.5381, 30.9902 ], [ 79.5484, 30.9895 ], [ 79.5403, 30.9755 ], [ 79.5525, 30.9601 ], [ 79.5718, 30.9486 ], [ 79.5967, 30.9448 ], [ 79.6035, 30.9327 ], [ 79.6199, 30.9513 ], [ 79.6636, 30.9665 ], [ 79.665, 30.9829 ], [ 79.698, 30.9725 ], [ 79.708, 30.9783 ], [ 79.7171, 30.976 ], [ 79.738, 30.9837 ], [ 79.753, 31.0079 ], [ 79.7746, 30.9889 ], [ 79.7919, 30.9884 ], [ 79.7986, 30.9797 ], [ 79.8072, 30.9818 ], [ 79.8164, 30.9739 ], [ 79.8627, 30.9754 ], [ 79.8824, 30.9554 ], [ 79.8903, 30.9186 ], [ 79.9104, 30.9151 ], [ 79.9291, 30.8824 ], [ 79.9622, 30.89 ], [ 79.9697, 30.8824 ], [ 79.9896, 30.8786 ], [ 80.042, 30.8358 ], [ 80.0583, 30.8397 ], [ 80.0575, 30.8294 ], [ 80.1001, 30.7874 ], [ 80.0833, 30.7701 ], [ 80.0967, 30.747 ], [ 80.1006, 30.7251 ], [ 80.0257, 30.7343 ], [ 79.9795, 30.7093 ], [ 79.9831, 30.6891 ], [ 80.0135, 30.6657 ], [ 80.0152, 30.6483 ], [ 80.0333, 30.6359 ], [ 80.0302, 30.6287 ], [ 80.0363, 30.6208 ], [ 80.0299, 30.6152 ], [ 80.0428, 30.5983 ], [ 80.0126, 30.5755 ], [ 80.0117, 30.5608 ], [ 79.9948, 30.5354 ], [ 80.0062, 30.5222 ], [ 80.0126, 30.5021 ], [ 80.0092, 30.4944 ], [ 80.0202, 30.4811 ], [ 80.0086, 30.4693 ], [ 80.0196, 30.4601 ], [ 80.02, 30.4489 ], [ 80.0376, 30.4439 ], [ 80.0299, 30.4133 ], [ 80.0378, 30.407 ], [ 80.033, 30.3928 ], [ 79.9974, 30.3656 ], [ 79.9966, 30.3371 ], [ 79.9806, 30.3043 ], [ 79.955, 30.2901 ], [ 79.9424, 30.2985 ], [ 79.9318, 30.2983 ], [ 79.8983, 30.2764 ], [ 79.8733, 30.2711 ], [ 79.8443, 30.2881 ], [ 79.8235, 30.2897 ], [ 79.7974, 30.2805 ], [ 79.8221, 30.2265 ], [ 79.815, 30.217 ], [ 79.8017, 30.2127 ], [ 79.7828, 30.1807 ], [ 79.7821, 30.1523 ], [ 79.7666, 30.1435 ], [ 79.763, 30.133 ], [ 79.773, 30.1284 ], [ 79.7817, 30.113 ], [ 79.7772, 30.0977 ], [ 79.7887, 30.0804 ], [ 79.8111, 30.0762 ], [ 79.829, 30.0591 ], [ 79.8162, 30.0477 ], [ 79.8135, 30.0233 ], [ 79.7891, 30.0162 ], [ 79.778, 30.0058 ], [ 79.766, 30.0101 ], [ 79.7207, 30.0013 ], [ 79.68, 30.0095 ], [ 79.6631, 30.0048 ], [ 79.6378, 30.0198 ], [ 79.6101, 30.0201 ], [ 79.5874, 30.0045 ], [ 79.5625, 30.0034 ], [ 79.5477, 29.9958 ], [ 79.5329, 29.9999 ], [ 79.5232, 30.0135 ], [ 79.4832, 30.0212 ], [ 79.4721, 29.9976 ] ] ] } },
{ "type": "Feature", "properties": { "district": "Champawat", "did": "uttarakhand:Champawat", "state_key": "uttarakhand" }, "geometry": { "type": "Polygon", "coordinates": [ [ [ 80.2587, 29.187 ], [ 80.2582, 29.1648 ], [ 80.2725, 29.1419 ], [ 80.2553, 29.1373 ], [ 80.2337, 29.1186 ], [ 80.2097, 29.122 ], [ 80.1848, 29.1373 ], [ 80.1663, 29.1247 ], [ 80.1429, 29.0995 ], [ 80.1294, 29.0627 ], [ 80.1372, 29.0605 ], [ 80.1245, 29.0131 ], [ 80.1354, 29.0074 ], [ 80.1267, 29.0061 ], [ 80.1179, 28.9815 ], [ 80.1005, 28.9869 ], [ 80.0765, 28.9449 ], [ 80.074, 28.9534 ], [ 80.0594, 28.961 ], [ 80.0504, 28.9921 ], [ 80.0583, 29.0044 ], [ 80.0151, 29.0929 ], [ 80.0072, 29.0739 ], [ 79.9823, 29.0654 ], [ 79.9684, 29.0541 ], [ 79.9541, 29.0692 ], [ 79.954, 29.0819 ], [ 79.9612, 29.1088 ], [ 79.9757, 29.1196 ], [ 79.9411, 29.1326 ], [ 79.9213, 29.1338 ], [ 79.9105, 29.1286 ], [ 79.8969, 29.1354 ], [ 79.8926, 29.1519 ], [ 79.8779, 29.1581 ], [ 79.8804, 29.1734 ], [ 79.9007, 29.182 ], [ 79.9039, 29.1948 ], [ 79.9267, 29.2142 ], [ 79.9109, 29.2326 ], [ 79.9068, 29.25 ], [ 79.8973, 29.257 ], [ 79.8891, 29.2534 ], [ 79.8684, 29.2602 ], [ 79.8559, 29.2768 ], [ 79.8251, 29.269 ], [ 79.8138, 29.2781 ], [ 79.8182, 29.308 ], [ 79.8058, 29.3147 ], [ 79.8054, 29.3281 ], [ 79.7935, 29.3364 ], [ 79.8321, 29.3379 ], [ 79.8319, 29.3232 ], [ 79.8439, 29.322 ], [ 79.858, 29.3109 ], [ 79.8653, 29.3155 ], [ 79.8633, 29.3274 ], [ 79.8713, 29.3451 ], [ 79.8906, 29.3507 ], [ 79.8985, 29.3474 ], [ 79.9024, 29.3532 ], [ 79.8921, 29.3697 ], [ 79.8821, 29.3661 ], [ 79.8757, 29.3709 ], [ 79.8578, 29.3699 ], [ 79.8595, 29.3798 ], [ 79.8478, 29.3857 ], [ 79.8421, 29.3973 ], [ 79.8329, 29.3973 ], [ 79.8334, 29.4059 ], [ 79.8563, 29.4327 ], [ 79.8486, 29.4321 ], [ 79.8509, 29.4527 ], [ 79.8568, 29.456 ], [ 79.8606, 29.4479 ], [ 79.8765, 29.473 ], [ 79.8943, 29.486 ], [ 79.915, 29.4879 ], [ 79.9188, 29.4746 ], [ 79.927, 29.4724 ], [ 79.9351, 29.4793 ], [ 79.9459, 29.4769 ], [ 79.9472, 29.4999 ], [ 79.9531, 29.4992 ], [ 79.961, 29.4943 ], [ 79.9516, 29.4783 ], [ 79.9569, 29.4741 ], [ 79.9888, 29.4892 ], [ 80.0007, 29.4852 ], [ 80.0196, 29.4932 ], [ 80.0301, 29.5 ], [ 80.0308, 29.5082 ], [ 80.1043, 29.5236 ], [ 80.1276, 29.5074 ], [ 80.1254, 29.4955 ], [ 80.1475, 29.4802 ], [ 80.1499, 29.4712 ], [ 80.161, 29.4748 ], [ 80.1669, 29.4649 ], [ 80.182, 29.4645 ], [ 80.1835, 29.4575 ], [ 80.1958, 29.4591 ], [ 80.205, 29.4518 ], [ 80.2424, 29.4438 ], [ 80.2476, 29.4356 ], [ 80.2421, 29.4115 ], [ 80.2757, 29.3922 ], [ 80.2792, 29.3788 ], [ 80.2716, 29.3738 ], [ 80.2714, 29.3644 ], [ 80.28, 29.3591 ], [ 80.2799, 29.3472 ], [ 80.2958, 29.3245 ], [ 80.3169, 29.3152 ], [ 80.3185, 29.303 ], [ 80.3048, 29.2866 ], [ 80.3002, 29.2416 ], [ 80.2906, 29.2318 ], [ 80.2974, 29.2067 ], [ 80.2937, 29.1978 ], [ 80.286, 29.1958 ], [ 80.2757, 29.2067 ], [ 80.2604, 29.2069 ], [ 80.2512, 29.2215 ], [ 80.2425, 29.2002 ], [ 80.2587, 29.187 ] ] ] } },
{ "type": "Feature", "properties": { "district": "Dehradun", "did": "uttarakhand:Dehradun", "state_key": "uttarakhand" }, "geometry": { "type": "Polygon", "coordinates": [ [ [ 78.2091, 30.2932 ], [ 78.2143, 30.3094 ], [ 78.237, 30.2992 ], [ 78.2367, 30.2875 ], [ 78.2582, 30.2855 ], [ 78.2681, 30.3021 ], [ 78.2839, 30.2923 ], [ 78.2769, 30.2718 ], [ 78.2989, 30.2455 ], [ 78.2966, 30.2334 ], [ 78.263, 30.2155 ], [ 78.2337, 30.1843 ], [ 78.2417, 30.1657 ], [ 78.2615, 30.1611 ], [ 78.2547, 30.1382 ], [ 78.2828, 30.1293 ], [ 78.2802, 30.1218 ], [ 78.3104, 30.1107 ], [ 78.3067, 30.1032 ], [ 78.2904, 30.0989 ], [ 78.2901, 30.0779 ], [ 78.2713, 30.0467 ], [ 78.2475, 30.034 ], [ 78.2449, 30.0176 ], [ 78.2275, 30.0156 ], [ 78.2324, 29.9975 ], [ 78.2276, 29.9857 ], [ 78.2172, 29.9869 ], [ 78.2021, 29.9661 ], [ 78.1872, 29.9622 ], [ 78.1868, 29.9721 ], [ 78.1977, 29.9879 ], [ 78.1891, 29.9972 ], [ 78.1687, 29.969 ], [ 78.1719, 29.9638 ], [ 78.1488, 29.9678 ], [ 78.1296, 30.0011 ], [ 78.1228, 29.9983 ], [ 78.1137, 30.0111 ], [ 78.1044, 30.0075 ], [ 78.0961, 30.0113 ], [ 78.0993, 30.0279 ], [ 78.0691, 30.042 ], [ 78.0745, 30.0597 ], [ 78.0696, 30.0754 ], [ 78.0355, 30.1036 ], [ 78.0046, 30.176 ], [ 77.9733, 30.2206 ], [ 77.9558, 30.2306 ], [ 77.9608, 30.2437 ], [ 77.9415, 30.2398 ], [ 77.937, 30.2492 ], [ 77.894, 30.2654 ], [ 77.8796, 30.2619 ], [ 77.8465, 30.2716 ], [ 77.8472, 30.2766 ], [ 77.839, 30.2745 ], [ 77.7612, 30.3183 ], [ 77.7218, 30.3302 ], [ 77.6896, 30.3768 ], [ 77.6781, 30.3757 ], [ 77.6765, 30.3878 ], [ 77.6597, 30.3906 ], [ 77.6572, 30.4007 ], [ 77.6479, 30.4046 ], [ 77.631, 30.3977 ], [ 77.6244, 30.4051 ], [ 77.6017, 30.3997 ], [ 77.5904, 30.4063 ], [ 77.576, 30.3974 ], [ 77.5731, 30.4124 ], [ 77.5946, 30.4266 ], [ 77.6227, 30.4347 ], [ 77.6433, 30.4318 ], [ 77.6524, 30.4481 ], [ 77.6708, 30.4442 ], [ 77.6902, 30.448 ], [ 77.721, 30.473 ], [ 77.7394, 30.476 ], [ 77.7831, 30.5006 ], [ 77.8174, 30.5063 ], [ 77.8198, 30.5241 ], [ 77.8273, 30.5291 ], [ 77.8179, 30.561 ], [ 77.7941, 30.5532 ], [ 77.7836, 30.5598 ], [ 77.774, 30.5578 ], [ 77.7566, 30.5856 ], [ 77.7432, 30.5931 ], [ 77.7461, 30.6039 ], [ 77.7717, 30.5969 ], [ 77.7711, 30.6164 ], [ 77.7963, 30.6136 ], [ 77.7861, 30.6244 ], [ 77.7906, 30.634 ], [ 77.7812, 30.6467 ], [ 77.7925, 30.6587 ], [ 77.7474, 30.6799 ], [ 77.7469, 30.6944 ], [ 77.7558, 30.7069 ], [ 77.7366, 30.7242 ], [ 77.7332, 30.7353 ], [ 77.7207, 30.7418 ], [ 77.708, 30.7399 ], [ 77.7024, 30.746 ], [ 77.709, 30.7525 ], [ 77.7038, 30.7652 ], [ 77.7214, 30.7758 ], [ 77.7484, 30.8216 ], [ 77.7613, 30.8261 ], [ 77.744, 30.8466 ], [ 77.7572, 30.86 ], [ 77.7582, 30.8768 ], [ 77.7734, 30.8775 ], [ 77.7792, 30.8604 ], [ 77.8057, 30.8532 ], [ 77.7989, 30.868 ], [ 77.8014, 30.8933 ], [ 77.8153, 30.9044 ], [ 77.8133, 30.9219 ], [ 77.7628, 30.9182 ], [ 77.7639, 30.9304 ], [ 77.7527, 30.9338 ], [ 77.7488, 30.9522 ], [ 77.7541, 30.9645 ], [ 77.771, 30.9743 ], [ 77.7901, 30.9704 ], [ 77.8244, 30.9505 ], [ 77.8376, 30.9532 ], [ 77.8322, 30.9596 ], [ 77.8144, 30.9618 ], [ 77.8242, 30.9884 ], [ 77.8318, 30.994 ], [ 77.822, 31.0043 ], [ 77.825, 31.0098 ], [ 77.8099, 31.011 ], [ 77.8115, 31.0316 ], [ 77.832, 31.0287 ], [ 77.8316, 31.0122 ], [ 77.8434, 30.9951 ], [ 77.8393, 30.9809 ], [ 77.8548, 30.9643 ], [ 77.8536, 30.9538 ], [ 77.8633, 30.9565 ], [ 77.8707, 30.9442 ], [ 77.8849, 30.9457 ], [ 77.8972, 30.9556 ], [ 77.9044, 30.9537 ], [ 77.9272, 30.972 ], [ 77.9687, 30.9776 ], [ 77.99, 30.9633 ], [ 77.9865, 30.9595 ], [ 78.0003, 30.9517 ], [ 78.0181, 30.9258 ], [ 78.0164, 30.9089 ], [ 77.9785, 30.9 ], [ 77.974, 30.8895 ], [ 77.9844, 30.8792 ], [ 77.9988, 30.8268 ], [ 78.0273, 30.8041 ], [ 78.0233, 30.7894 ], [ 78.0622, 30.7614 ], [ 78.0688, 30.7431 ], [ 78.0792, 30.7406 ], [ 78.0837, 30.7186 ], [ 78.0722, 30.7066 ], [ 78.0626, 30.6665 ], [ 78.0477, 30.6614 ], [ 78.0331, 30.6452 ], [ 78.0204, 30.6531 ], [ 78.0108, 30.651 ], [ 78.0141, 30.6299 ], [ 78.0081, 30.6212 ], [ 78.0142, 30.5912 ], [ 78.0092, 30.5902 ], [ 78.0012, 30.5607 ], [ 77.9805, 30.555 ], [ 77.9829, 30.5392 ], [ 77.9748, 30.5376 ], [ 77.9757, 30.5289 ], [ 77.9862, 30.5259 ], [ 77.9754, 30.5223 ], [ 77.9878, 30.5149 ], [ 77.9816, 30.5087 ], [ 77.9747, 30.5136 ], [ 77.9684, 30.5093 ], [ 77.9502, 30.518 ], [ 77.9474, 30.5113 ], [ 77.9361, 30.5104 ], [ 77.9577, 30.4898 ], [ 77.9733, 30.4861 ], [ 77.9875, 30.4668 ], [ 78.0001, 30.4684 ], [ 77.9978, 30.4801 ], [ 78.0086, 30.4836 ], [ 78.0198, 30.4813 ], [ 78.0367, 30.4654 ], [ 78.0396, 30.4823 ], [ 78.0688, 30.4773 ], [ 78.07, 30.47 ], [ 78.0819, 30.4674 ], [ 78.0816, 30.4738 ], [ 78.1057, 30.4782 ], [ 78.1068, 30.4712 ], [ 78.1235, 30.4682 ], [ 78.1395, 30.4565 ], [ 78.1533, 30.4562 ], [ 78.1641, 30.4459 ], [ 78.1979, 30.4468 ], [ 78.2389, 30.4238 ], [ 78.2231, 30.4056 ], [ 78.1985, 30.3986 ], [ 78.1749, 30.3822 ], [ 78.162, 30.3825 ], [ 78.1407, 30.3633 ], [ 78.1335, 30.3438 ], [ 78.1403, 30.3283 ], [ 78.2091, 30.2932 ] ] ] } },
{ "type": "Feature", "properties": { "district": "Haridwar", "did": "uttarakhand:Haridwar", "state_key": "uttarakhand" }, "geometry": { "type": "Polygon", "coordinates": [ [ [ 78.196, 29.6927 ], [ 78.1805, 29.6968 ], [ 78.1716, 29.6916 ], [ 78.1305, 29.6525 ], [ 78.0815, 29.6351 ], [ 78.0867, 29.625 ], [ 78.0575, 29.6307 ], [ 78.0488, 29.6146 ], [ 78.0331, 29.6116 ], [ 78.0183, 29.5982 ], [ 78.0152, 29.5872 ], [ 78.0216, 29.5809 ], [ 78.0008, 29.5862 ], [ 77.9952, 29.5958 ], [ 77.9865, 29.5844 ], [ 77.9671, 29.5801 ], [ 77.9333, 29.6005 ], [ 77.9484, 29.6169 ], [ 77.9602, 29.6116 ], [ 77.9777, 29.6134 ], [ 77.9838, 29.6436 ], [ 77.9665, 29.6501 ], [ 77.97, 29.6664 ], [ 77.9494, 29.6798 ], [ 77.9509, 29.6874 ], [ 77.9399, 29.6961 ], [ 77.951, 29.7016 ], [ 77.947, 29.7125 ], [ 77.9264, 29.7142 ], [ 77.9169, 29.7056 ], [ 77.9201, 29.6993 ], [ 77.9125, 29.6959 ], [ 77.8826, 29.7024 ], [ 77.8747, 29.6873 ], [ 77.8628, 29.6894 ], [ 77.8557, 29.6801 ], [ 77.83, 29.6683 ], [ 77.7991, 29.6862 ], [ 77.8105, 29.7024 ], [ 77.7711, 29.7144 ], [ 77.7827, 29.7362 ], [ 77.7695, 29.7453 ], [ 77.7804, 29.765 ], [ 77.7731, 29.7687 ], [ 77.7779, 29.775 ], [ 77.7724, 29.78 ], [ 77.7747, 29.791 ], [ 77.7516, 29.8107 ], [ 77.759, 29.8185 ], [ 77.7402, 29.8347 ], [ 77.7419, 29.8518 ], [ 77.7234, 29.8551 ], [ 77.7141, 29.8702 ], [ 77.7208, 29.8762 ], [ 77.716, 29.8859 ], [ 77.7228, 29.8844 ], [ 77.7319, 29.8928 ], [ 77.7293, 29.9005 ], [ 77.7478, 29.9112 ], [ 77.7429, 29.9249 ], [ 77.7305, 29.9317 ], [ 77.7484, 29.9516 ], [ 77.7333, 29.9559 ], [ 77.7437, 29.9834 ], [ 77.7604, 29.9951 ], [ 77.7554, 29.999 ], [ 77.7642, 30.0044 ], [ 77.762, 30.0093 ], [ 77.782, 30.0186 ], [ 77.7855, 30.0279 ], [ 77.7701, 30.0425 ], [ 77.7711, 30.048 ], [ 77.7984, 30.0836 ], [ 77.8012, 30.0955 ], [ 77.8281, 30.0859 ], [ 77.8368, 30.1035 ], [ 77.8604, 30.1132 ], [ 77.8812, 30.1507 ], [ 77.912, 30.1825 ], [ 77.9189, 30.2113 ], [ 77.9321, 30.2144 ], [ 77.958, 30.2422 ], [ 77.9558, 30.2306 ], [ 77.9733, 30.2206 ], [ 78.0083, 30.1696 ], [ 78.0355, 30.1036 ], [ 78.0696, 30.0754 ], [ 78.0745, 30.0597 ], [ 78.0691, 30.042 ], [ 78.1, 30.0267 ], [ 78.0961, 30.0113 ], [ 78.1044, 30.0075 ], [ 78.1137, 30.0111 ], [ 78.1228, 29.9983 ], [ 78.1296, 30.0011 ], [ 78.1386, 29.9782 ], [ 78.1488, 29.9678 ], [ 78.1624, 29.9648 ], [ 78.1719, 29.9638 ], [ 78.1687, 29.969 ], [ 78.1891, 29.9972 ], [ 78.1977, 29.9879 ], [ 78.1868, 29.9721 ], [ 78.1872, 29.9622 ], [ 78.2021, 29.9661 ], [ 78.2499, 29.9297 ], [ 78.2722, 29.9249 ], [ 78.2673, 29.903 ], [ 78.3164, 29.8602 ], [ 78.3335, 29.793 ], [ 78.3095, 29.78 ], [ 78.2927, 29.7591 ], [ 78.284, 29.7614 ], [ 78.2598, 29.7383 ], [ 78.2501, 29.7343 ], [ 78.2402, 29.7414 ], [ 78.2036, 29.7368 ], [ 78.196, 29.6927 ] ] ] } },
{ "type": "Feature", "properties": { "district": "Nainital", "did": "uttarakhand:Nainital", "state_key": "uttarakhand" }, "geometry": { "type": "Polygon", "coordinates": [ [ [ 79.7159, 29.4583 ], [ 79.7338, 29.4614 ], [ 79.7267, 29.4467 ], [ 79.7417, 29.4298 ], [ 79.7639, 29.4334 ], [ 79.7679, 29.4476 ], [ 79.7781, 29.4513 ], [ 79.7984, 29.4372 ], [ 79.8086, 29.4396 ], [ 79.8232, 29.4329 ], [ 79.8286, 29.4255 ], [ 79.8563, 29.4327 ], [ 79.8334, 29.4059 ], [ 79.8329, 29.3973 ], [ 79.8421, 29.3973 ], [ 79.8478, 29.3857 ], [ 79.8595, 29.3798 ], [ 79.8578, 29.3699 ], [ 79.8757, 29.3709 ], [ 79.8821, 29.3661 ], [ 79.8921, 29.3697 ], [ 79.902, 29.3557 ], [ 79.8994, 29.3477 ], [ 79.8906, 29.3507 ], [ 79.8713, 29.3451 ], [ 79.8633, 29.3274 ], [ 79.8653, 29.3155 ], [ 79.8586, 29.311 ], [ 79.8439, 29.322 ], [ 79.8319, 29.3232 ], [ 79.8321, 29.3379 ], [ 79.7935, 29.3364 ], [ 79.8054, 29.3281 ], [ 79.8058, 29.3147 ], [ 79.8182, 29.308 ], [ 79.812, 29.2926 ], [ 79.819, 29.2714 ], [ 79.844, 29.2709 ], [ 79.8472, 29.2774 ], [ 79.8504, 29.2722 ], [ 79.8559, 29.2768 ], [ 79.8684, 29.2602 ], [ 79.8891, 29.2534 ], [ 79.8973, 29.257 ], [ 79.9266, 29.2157 ], [ 79.9039, 29.1948 ], [ 79.9007, 29.182 ], [ 79.8796, 29.1724 ], [ 79.8786, 29.1568 ], [ 79.8926, 29.1519 ], [ 79.8969, 29.1354 ], [ 79.9105, 29.1286 ], [ 79.9213, 29.1338 ], [ 79.9411, 29.1326 ], [ 79.9767, 29.1179 ], [ 79.9618, 29.1099 ], [ 79.954, 29.0815 ], [ 79.9541, 29.0692 ], [ 79.9724, 29.0548 ], [ 79.9618, 29.0466 ], [ 79.9379, 29.0442 ], [ 79.9208, 29.0309 ], [ 79.9123, 29.0333 ], [ 79.897, 29.009 ], [ 79.9029, 29.0069 ], [ 79.8936, 29.001 ], [ 79.896, 28.9934 ], [ 79.8795, 28.9936 ], [ 79.8774, 28.9787 ], [ 79.8702, 28.9816 ], [ 79.8755, 28.9929 ], [ 79.8576, 29.0129 ], [ 79.842, 28.9961 ], [ 79.8379, 28.9946 ], [ 79.8373, 29.0005 ], [ 79.8248, 28.9949 ], [ 79.8274, 28.9891 ], [ 79.8117, 28.9848 ], [ 79.8126, 28.9926 ], [ 79.8066, 28.9903 ], [ 79.8, 28.9995 ], [ 79.7932, 28.9982 ], [ 79.7965, 29.0135 ], [ 79.8064, 29.0163 ], [ 79.8003, 29.0249 ], [ 79.7734, 29.0252 ], [ 79.7772, 29.0303 ], [ 79.7642, 29.0369 ], [ 79.7474, 29.0321 ], [ 79.7463, 29.0255 ], [ 79.7106, 29.031 ], [ 79.6828, 29.063 ], [ 79.6519, 29.0774 ], [ 79.6275, 29.05 ], [ 79.416, 29.0514 ], [ 79.4356, 29.0835 ], [ 79.4013, 29.1146 ], [ 79.3836, 29.1442 ], [ 79.3632, 29.1562 ], [ 79.2771, 29.2396 ], [ 79.2202, 29.248 ], [ 79.1344, 29.2753 ], [ 79.12, 29.2692 ], [ 79.108, 29.2552 ], [ 79.0934, 29.2594 ], [ 79.0904, 29.275 ], [ 79.0759, 29.2779 ], [ 79.0418, 29.2542 ], [ 79.0405, 29.264 ], [ 79.03, 29.2652 ], [ 79.0125, 29.2897 ], [ 79.0295, 29.3054 ], [ 79.023, 29.3086 ], [ 79.0285, 29.3135 ], [ 79.0187, 29.3254 ], [ 78.9995, 29.3184 ], [ 78.9926, 29.3235 ], [ 78.9859, 29.3165 ], [ 78.9564, 29.3179 ], [ 78.9551, 29.3245 ], [ 78.9279, 29.341 ], [ 78.8997, 29.3456 ], [ 78.8862, 29.3418 ], [ 78.8791, 29.3516 ], [ 78.8697, 29.345 ], [ 78.851, 29.3559 ], [ 78.8524, 29.3605 ], [ 78.8603, 29.3582 ], [ 78.8787, 29.366 ], [ 78.8777, 29.375 ], [ 78.8873, 29.3731 ], [ 78.9022, 29.385 ], [ 78.9184, 29.4035 ], [ 78.9257, 29.426 ], [ 78.9431, 29.4347 ], [ 78.9417, 29.4387 ], [ 78.921, 29.4343 ], [ 78.9231, 29.4422 ], [ 78.9523, 29.4586 ], [ 78.963, 29.4933 ], [ 78.9625, 29.519 ], [ 78.9709, 29.5224 ], [ 78.9693, 29.5366 ], [ 78.993, 29.5527 ], [ 79.0048, 29.553 ], [ 78.9985, 29.5623 ], [ 79.0081, 29.5715 ], [ 79.0087, 29.5858 ], [ 79.0218, 29.5836 ], [ 79.0265, 29.5892 ], [ 79.0565, 29.5795 ], [ 79.0769, 29.5822 ], [ 79.11, 29.5585 ], [ 79.1086, 29.5441 ], [ 79.1408, 29.5527 ], [ 79.1461, 29.5401 ], [ 79.2177, 29.5216 ], [ 79.2265, 29.5243 ], [ 79.2331, 29.5375 ], [ 79.2406, 29.5364 ], [ 79.2469, 29.5491 ], [ 79.2749, 29.5738 ], [ 79.2866, 29.5783 ], [ 79.2871, 29.5901 ], [ 79.2997, 29.5905 ], [ 79.3078, 29.6012 ], [ 79.3359, 29.6117 ], [ 79.3486, 29.6067 ], [ 79.3537, 29.5999 ], [ 79.3502, 29.5941 ], [ 79.3586, 29.598 ], [ 79.3804, 29.588 ], [ 79.3991, 29.5638 ], [ 79.4094, 29.5623 ], [ 79.4389, 29.5385 ], [ 79.4507, 29.5167 ], [ 79.4754, 29.5094 ], [ 79.4819, 29.4967 ], [ 79.4942, 29.5029 ], [ 79.5014, 29.4968 ], [ 79.5166, 29.512 ], [ 79.5274, 29.5491 ], [ 79.5349, 29.5455 ], [ 79.5498, 29.551 ], [ 79.5505, 29.5405 ], [ 79.5718, 29.5396 ], [ 79.6149, 29.5569 ], [ 79.6277, 29.5531 ], [ 79.6335, 29.5419 ], [ 79.6465, 29.5478 ], [ 79.6643, 29.5419 ], [ 79.6651, 29.5342 ], [ 79.6837, 29.5216 ], [ 79.681, 29.492 ], [ 79.6921, 29.4696 ], [ 79.7159, 29.4583 ] ] ] } },
{ "type": "Feature", "properties": { "district": "Pauri Garhwal", "did": "uttarakhand:Pauri Garhwal", "state_key": "uttarakhand" }, "geometry": { "type": "Polygon", "coordinates": [ [ [ 79.1081, 29.7328 ], [ 79.1211, 29.7181 ], [ 79.1198, 29.7097 ], [ 79.1047, 29.6989 ], [ 79.1162, 29.6828 ], [ 79.1053, 29.6606 ], [ 79.0962, 29.6736 ], [ 79.078, 29.6393 ], [ 79.0944, 29.6276 ], [ 79.0809, 29.6158 ], [ 79.0671, 29.6205 ], [ 79.0593, 29.5871 ], [ 79.0438, 29.5915 ], [ 79.0371, 29.5845 ], [ 79.0265, 29.5892 ], [ 79.0218, 29.5836 ], [ 79.0087, 29.5858 ], [ 79.0081, 29.5715 ], [ 78.9985, 29.5623 ], [ 79.0061, 29.5544 ], [ 78.993, 29.5527 ], [ 78.9689, 29.5359 ], [ 78.9709, 29.5224 ], [ 78.9625, 29.519 ], [ 78.963, 29.4933 ], [ 78.9523, 29.4586 ], [ 78.9231, 29.4422 ], [ 78.9187, 29.4343 ], [ 78.8106, 29.4658 ], [ 78.7997, 29.4646 ], [ 78.745, 29.5008 ], [ 78.7109, 29.5005 ], [ 78.6505, 29.546 ], [ 78.6167, 29.5588 ], [ 78.5804, 29.5864 ], [ 78.5327, 29.6387 ], [ 78.5215, 29.6578 ], [ 78.5214, 29.6935 ], [ 78.513, 29.7241 ], [ 78.4885, 29.7381 ], [ 78.454, 29.7459 ], [ 78.4285, 29.7645 ], [ 78.3928, 29.7674 ], [ 78.3318, 29.7989 ], [ 78.3153, 29.8623 ], [ 78.2667, 29.9041 ], [ 78.275, 29.9227 ], [ 78.2499, 29.9297 ], [ 78.2021, 29.9661 ], [ 78.2172, 29.9869 ], [ 78.2259, 29.9846 ], [ 78.2315, 29.9926 ], [ 78.2275, 30.0156 ], [ 78.2449, 30.0176 ], [ 78.2475, 30.034 ], [ 78.2621, 30.0389 ], [ 78.2811, 30.0607 ], [ 78.2922, 30.084 ], [ 78.291, 30.0999 ], [ 78.3067, 30.1032 ], [ 78.3099, 30.1199 ], [ 78.3287, 30.1243 ], [ 78.3364, 30.1356 ], [ 78.3739, 30.1169 ], [ 78.3914, 30.1225 ], [ 78.3917, 30.1354 ], [ 78.4101, 30.1354 ], [ 78.4254, 30.113 ], [ 78.4388, 30.1112 ], [ 78.4348, 30.0804 ], [ 78.4505, 30.069 ], [ 78.477, 30.0667 ], [ 78.4802, 30.0554 ], [ 78.4972, 30.0754 ], [ 78.4992, 30.063 ], [ 78.5113, 30.0549 ], [ 78.5141, 30.0662 ], [ 78.5227, 30.0658 ], [ 78.5248, 30.0738 ], [ 78.5323, 30.0758 ], [ 78.5631, 30.069 ], [ 78.5658, 30.0617 ], [ 78.577, 30.0629 ], [ 78.5892, 30.0528 ], [ 78.591, 30.0661 ], [ 78.6021, 30.0682 ], [ 78.5824, 30.0723 ], [ 78.5921, 30.0869 ], [ 78.579, 30.1037 ], [ 78.5882, 30.1078 ], [ 78.5871, 30.122 ], [ 78.6013, 30.1268 ], [ 78.596, 30.1311 ], [ 78.5975, 30.1448 ], [ 78.6058, 30.1431 ], [ 78.6173, 30.1508 ], [ 78.6207, 30.1784 ], [ 78.645, 30.1944 ], [ 78.6471, 30.2075 ], [ 78.6579, 30.2045 ], [ 78.6701, 30.2126 ], [ 78.6803, 30.2101 ], [ 78.6829, 30.2386 ], [ 78.7047, 30.2313 ], [ 78.7161, 30.2369 ], [ 78.7485, 30.2131 ], [ 78.7626, 30.2169 ], [ 78.7662, 30.226 ], [ 78.7873, 30.2285 ], [ 78.8067, 30.2197 ], [ 78.809, 30.2275 ], [ 78.821, 30.2295 ], [ 78.8195, 30.2375 ], [ 78.8267, 30.2433 ], [ 78.8443, 30.2364 ], [ 78.8475, 30.2466 ], [ 78.8593, 30.2433 ], [ 78.8824, 30.2601 ], [ 78.8993, 30.2463 ], [ 78.8908, 30.2354 ], [ 78.915, 30.2301 ], [ 78.9104, 30.2224 ], [ 78.9148, 30.2041 ], [ 78.9023, 30.2095 ], [ 78.8983, 30.1802 ], [ 78.9293, 30.1814 ], [ 78.9554, 30.1747 ], [ 79.0196, 30.1848 ], [ 79.0292, 30.1916 ], [ 79.0293, 30.2066 ], [ 79.0387, 30.2163 ], [ 79.0617, 30.2149 ], [ 79.076, 30.2205 ], [ 79.1012, 30.2111 ], [ 79.0946, 30.2059 ], [ 79.0976, 30.1967 ], [ 79.1266, 30.1796 ], [ 79.1262, 30.1694 ], [ 79.1391, 30.1663 ], [ 79.1439, 30.1588 ], [ 79.1335, 30.146 ], [ 79.1344, 30.1182 ], [ 79.1513, 30.1119 ], [ 79.1603, 30.0931 ], [ 79.1724, 30.0966 ], [ 79.1934, 30.0841 ], [ 79.2031, 30.0632 ], [ 79.1937, 30.0592 ], [ 79.1885, 30.0382 ], [ 79.2024, 30.0353 ], [ 79.2178, 30.0226 ], [ 79.224, 29.9917 ], [ 79.2187, 29.9859 ], [ 79.2315, 29.9693 ], [ 79.2276, 29.9458 ], [ 79.2048, 29.9393 ], [ 79.1982, 29.9463 ], [ 79.1922, 29.9443 ], [ 79.1894, 29.9234 ], [ 79.1768, 29.9076 ], [ 79.1588, 29.9155 ], [ 79.1282, 29.9065 ], [ 79.1188, 29.8949 ], [ 79.0908, 29.8933 ], [ 79.0786, 29.8859 ], [ 79.0673, 29.8624 ], [ 79.0875, 29.8559 ], [ 79.1104, 29.8324 ], [ 79.1269, 29.7853 ], [ 79.1209, 29.7728 ], [ 79.1148, 29.7698 ], [ 79.1092, 29.7744 ], [ 79.1081, 29.7328 ] ] ] } },
{ "type": "Feature", "properties": { "district": "Pithoragarh", "did": "uttarakhand:Pithoragarh", "state_key": "uttarakhand" }, "geometry": { "type": "Polygon", "coordinates": [ [ [ 80.4076, 29.5954 ], [ 80.3881, 29.5715 ], [ 80.3791, 29.5716 ], [ 80.3787, 29.5612 ], [ 80.3631, 29.5639 ], [ 80.3636, 29.5564 ], [ 80.3425, 29.5528 ], [ 80.3415, 29.5405 ], [ 80.3579, 29.5328 ], [ 80.3447, 29.513 ], [ 80.3321, 29.5129 ], [ 80.3292, 29.5058 ], [ 80.3142, 29.4994 ], [ 80.3131, 29.4848 ], [ 80.2987, 29.4906 ], [ 80.2872, 29.4774 ], [ 80.3018, 29.4528 ], [ 80.2808, 29.4516 ], [ 80.2757, 29.4585 ], [ 80.2691, 29.4555 ], [ 80.2744, 29.4501 ], [ 80.2573, 29.4517 ], [ 80.2424, 29.4438 ], [ 80.205, 29.4518 ], [ 80.1958, 29.4591 ], [ 80.1835, 29.4575 ], [ 80.1803, 29.4653 ], [ 80.1669, 29.4649 ], [ 80.162, 29.4745 ], [ 80.1499, 29.4712 ], [ 80.1475, 29.4802 ], [ 80.1254, 29.4955 ], [ 80.1291, 29.5056 ], [ 80.107, 29.5222 ], [ 80.0748, 29.5218 ], [ 80.0652, 29.5278 ], [ 80.0669, 29.5374 ], [ 80.0312, 29.551 ], [ 80.0111, 29.5512 ], [ 79.9994, 29.5596 ], [ 79.9886, 29.6138 ], [ 79.9687, 29.6497 ], [ 79.959, 29.6567 ], [ 79.9635, 29.6638 ], [ 79.9578, 29.6775 ], [ 79.9466, 29.6854 ], [ 79.9419, 29.6822 ], [ 79.9248, 29.6988 ], [ 79.9027, 29.6977 ], [ 79.8894, 29.704 ], [ 79.8912, 29.7181 ], [ 79.8684, 29.7388 ], [ 79.8326, 29.7499 ], [ 79.8209, 29.7732 ], [ 79.8245, 29.7817 ], [ 79.8699, 29.7675 ], [ 79.8869, 29.7761 ], [ 79.8921, 29.7936 ], [ 79.8986, 29.7918 ], [ 79.9044, 29.7985 ], [ 79.9095, 29.7892 ], [ 79.9314, 29.79 ], [ 79.9316, 29.7665 ], [ 79.9752, 29.7596 ], [ 79.9984, 29.7643 ], [ 80.0034, 29.7779 ], [ 80.0127, 29.774 ], [ 80.0182, 29.7827 ], [ 80.0336, 29.7823 ], [ 80.0402, 29.788 ], [ 80.0324, 29.8065 ], [ 80.0188, 29.8107 ], [ 80.0197, 29.8286 ], [ 79.9981, 29.8352 ], [ 79.9935, 29.8451 ], [ 79.9769, 29.8416 ], [ 79.978, 29.8523 ], [ 80.0067, 29.851 ], [ 80.0055, 29.8738 ], [ 80.0128, 29.8876 ], [ 80.0267, 29.8963 ], [ 80.045, 29.8956 ], [ 80.0535, 29.9026 ], [ 80.0713, 29.9008 ], [ 80.0854, 29.8869 ], [ 80.1075, 29.9065 ], [ 80.1486, 29.8978 ], [ 80.1586, 29.9044 ], [ 80.1385, 29.9415 ], [ 80.091, 29.969 ], [ 80.0712, 30.0007 ], [ 80.0675, 30.0189 ], [ 80.0847, 30.0624 ], [ 80.0824, 30.1115 ], [ 80.1042, 30.1484 ], [ 80.1161, 30.2266 ], [ 80.093, 30.2266 ], [ 80.0776, 30.2377 ], [ 80.0731, 30.2628 ], [ 80.0607, 30.2708 ], [ 80.0679, 30.2812 ], [ 80.0415, 30.2914 ], [ 80.025, 30.3139 ], [ 79.9869, 30.3165 ], [ 79.9966, 30.3371 ], [ 79.9974, 30.3656 ], [ 80.033, 30.3928 ], [ 80.0378, 30.407 ], [ 80.0299, 30.4133 ], [ 80.0376, 30.4439 ], [ 80.02, 30.4489 ], [ 80.0196, 30.4601 ], [ 80.0086, 30.4693 ], [ 80.0202, 30.4811 ], [ 80.0092, 30.4944 ], [ 80.0126, 30.5021 ], [ 80.0063, 30.5219 ], [ 79.995, 30.5374 ], [ 80.0117, 30.5608 ], [ 80.0126, 30.5755 ], [ 80.0428, 30.5983 ], [ 80.0299, 30.6152 ], [ 80.0363, 30.6208 ], [ 80.0302, 30.6287 ], [ 80.0333, 30.6359 ], [ 80.0152, 30.6483 ], [ 80.0135, 30.6657 ], [ 79.9831, 30.6891 ], [ 79.9795, 30.7072 ], [ 80.0257, 30.7343 ], [ 80.1006, 30.7251 ], [ 80.0839, 30.7748 ], [ 80.1001, 30.7874 ], [ 80.1224, 30.7774 ], [ 80.1435, 30.7898 ], [ 80.1574, 30.7887 ], [ 80.1581, 30.8059 ], [ 80.181, 30.802 ], [ 80.2032, 30.7765 ], [ 80.2001, 30.7647 ], [ 80.2149, 30.7491 ], [ 80.2397, 30.7621 ], [ 80.2429, 30.7466 ], [ 80.2504, 30.7423 ], [ 80.2364, 30.6904 ], [ 80.1976, 30.68 ], [ 80.1972, 30.6621 ], [ 80.2212, 30.6418 ], [ 80.2218, 30.6333 ], [ 80.2117, 30.6224 ], [ 80.2171, 30.6084 ], [ 80.2288, 30.6035 ], [ 80.2268, 30.5789 ], [ 80.2578, 30.5588 ], [ 80.2831, 30.5722 ], [ 80.3124, 30.5621 ], [ 80.3856, 30.515 ], [ 80.4156, 30.5253 ], [ 80.4195, 30.5152 ], [ 80.4477, 30.4977 ], [ 80.4983, 30.4842 ], [ 80.5171, 30.4732 ], [ 80.5391, 30.4492 ], [ 80.5476, 30.4486 ], [ 80.5514, 30.4609 ], [ 80.5698, 30.4666 ], [ 80.5802, 30.4809 ], [ 80.598, 30.4788 ], [ 80.652, 30.4443 ], [ 80.6781, 30.4374 ], [ 80.7135, 30.4082 ], [ 80.752, 30.3935 ], [ 80.7836, 30.3578 ], [ 80.7873, 30.3426 ], [ 80.8216, 30.3156 ], [ 80.8627, 30.2995 ], [ 81.0055, 30.2631 ], [ 81.0332, 30.2464 ], [ 81.0271, 30.2285 ], [ 81.0466, 30.2109 ], [ 81.0311, 30.1964 ], [ 80.95, 30.1783 ], [ 80.9183, 30.1898 ], [ 80.9197, 30.2142 ], [ 80.9027, 30.2154 ], [ 80.882, 30.1837 ], [ 80.8678, 30.1739 ], [ 80.8748, 30.1265 ], [ 80.8447, 30.1162 ], [ 80.846, 30.1044 ], [ 80.8398, 30.0987 ], [ 80.8207, 30.0997 ], [ 80.8056, 30.09 ], [ 80.7795, 30.0568 ], [ 80.761, 30.0495 ], [ 80.7577, 30.0242 ], [ 80.7446, 30.0039 ], [ 80.719, 30.0006 ], [ 80.6745, 29.9572 ], [ 80.6488, 29.9557 ], [ 80.6296, 29.9654 ], [ 80.5953, 29.9533 ], [ 80.5741, 29.924 ], [ 80.5724, 29.8949 ], [ 80.5568, 29.8704 ], [ 80.5613, 29.8664 ], [ 80.5531, 29.8513 ], [ 80.5387, 29.8475 ], [ 80.5219, 29.8274 ], [ 80.5067, 29.823 ], [ 80.4939, 29.7958 ], [ 80.4643, 29.8024 ], [ 80.4435, 29.7993 ], [ 80.4361, 29.8061 ], [ 80.4135, 29.7919 ], [ 80.4071, 29.7949 ], [ 80.3976, 29.7592 ], [ 80.3858, 29.7591 ], [ 80.3853, 29.7505 ], [ 80.3687, 29.751 ], [ 80.3643, 29.7401 ], [ 80.3696, 29.7344 ], [ 80.3667, 29.7235 ], [ 80.3759, 29.72 ], [ 80.3721, 29.7155 ], [ 80.3901, 29.6649 ], [ 80.4162, 29.6522 ], [ 80.4209, 29.6299 ], [ 80.4082, 29.6191 ], [ 80.4076, 29.5954 ] ] ] } },
{ "type": "Feature", "properties": { "district": "Rudraprayag", "did": "uttarakhand:Rudraprayag", "state_key": "uttarakhand" }, "geometry": { "type": "Polygon", "coordinates": [ [ [ 79.1078, 30.3746 ], [ 79.1298, 30.364 ], [ 79.1414, 30.3379 ], [ 79.1593, 30.3281 ], [ 79.1488, 30.3225 ], [ 79.1444, 30.3008 ], [ 79.1705, 30.2953 ], [ 79.1536, 30.2965 ], [ 79.1373, 30.2852 ], [ 79.1203, 30.2934 ], [ 79.1068, 30.2888 ], [ 79.1035, 30.2559 ], [ 79.076, 30.2205 ], [ 79.0617, 30.2149 ], [ 79.0387, 30.2163 ], [ 79.0293, 30.2066 ], [ 79.0292, 30.1916 ], [ 79.0196, 30.1848 ], [ 78.9554, 30.1747 ], [ 78.9293, 30.1814 ], [ 78.8983, 30.1802 ], [ 78.9023, 30.2095 ], [ 78.9148, 30.2041 ], [ 78.9104, 30.2224 ], [ 78.915, 30.2301 ], [ 78.8908, 30.2358 ], [ 78.9204, 30.2646 ], [ 78.8735, 30.2756 ], [ 78.8728, 30.2848 ], [ 78.8584, 30.302 ], [ 78.8578, 30.3136 ], [ 78.8689, 30.3219 ], [ 78.8549, 30.3328 ], [ 78.8582, 30.3469 ], [ 78.8352, 30.3574 ], [ 78.8351, 30.3916 ], [ 78.8169, 30.4008 ], [ 78.8441, 30.43 ], [ 78.8489, 30.4446 ], [ 78.8434, 30.4501 ], [ 78.8506, 30.4562 ], [ 78.8352, 30.4744 ], [ 78.8238, 30.4784 ], [ 78.8376, 30.4909 ], [ 78.85, 30.4909 ], [ 78.8664, 30.5091 ], [ 78.8583, 30.5504 ], [ 78.8659, 30.5612 ], [ 78.8629, 30.5668 ], [ 78.8892, 30.5859 ], [ 78.8863, 30.6035 ], [ 78.9093, 30.6295 ], [ 78.9053, 30.6542 ], [ 78.9107, 30.6905 ], [ 78.9237, 30.7141 ], [ 78.9448, 30.7216 ], [ 78.9602, 30.7348 ], [ 78.9713, 30.73 ], [ 78.992, 30.7317 ], [ 79.003, 30.7438 ], [ 79.0002, 30.7489 ], [ 79.0183, 30.7497 ], [ 79.0209, 30.763 ], [ 79.0284, 30.7675 ], [ 79.0259, 30.7977 ], [ 79.0379, 30.8074 ], [ 79.0678, 30.7982 ], [ 79.0919, 30.7758 ], [ 79.1268, 30.7696 ], [ 79.1429, 30.7475 ], [ 79.1691, 30.7558 ], [ 79.1973, 30.74 ], [ 79.1995, 30.7329 ], [ 79.2077, 30.7376 ], [ 79.2447, 30.7344 ], [ 79.2558, 30.7228 ], [ 79.2961, 30.7202 ], [ 79.3037, 30.6783 ], [ 79.3237, 30.6699 ], [ 79.3315, 30.6578 ], [ 79.3467, 30.6534 ], [ 79.3552, 30.6404 ], [ 79.3469, 30.6073 ], [ 79.3331, 30.5936 ], [ 79.307, 30.5893 ], [ 79.2953, 30.5609 ], [ 79.2653, 30.5667 ], [ 79.2456, 30.5589 ], [ 79.2454, 30.5378 ], [ 79.2289, 30.527 ], [ 79.2218, 30.4904 ], [ 79.1916, 30.4769 ], [ 79.1862, 30.4625 ], [ 79.1666, 30.4462 ], [ 79.1744, 30.4284 ], [ 79.1725, 30.4151 ], [ 79.1646, 30.4105 ], [ 79.1628, 30.3843 ], [ 79.1492, 30.3782 ], [ 79.1191, 30.3846 ], [ 79.1078, 30.3746 ] ] ] } },
{ "type": "Feature", "properties": { "district": "Tehri Garhwal", "did": "uttarakhand:Tehri Garhwal", "state_key": "uttarakhand" }, "geometry": { "type": "Polygon", "coordinates": [ [ [ 78.4992, 30.063 ], [ 78.4995, 30.0758 ], [ 78.4802, 30.0554 ], [ 78.477, 30.0667 ], [ 78.4515, 30.0687 ], [ 78.4357, 30.0796 ], [ 78.4388, 30.1112 ], [ 78.4254, 30.113 ], [ 78.4175, 30.1305 ], [ 78.4046, 30.1373 ], [ 78.3911, 30.135 ], [ 78.3914, 30.1225 ], [ 78.3745, 30.1169 ], [ 78.3348, 30.1352 ], [ 78.3289, 30.1245 ], [ 78.3169, 30.1248 ], [ 78.3098, 30.1127 ], [ 78.3013, 30.1115 ], [ 78.2802, 30.1218 ], [ 78.2828, 30.1293 ], [ 78.2547, 30.1382 ], [ 78.2615, 30.1611 ], [ 78.2417, 30.1657 ], [ 78.2339, 30.1857 ], [ 78.2697, 30.2207 ], [ 78.2829, 30.2225 ], [ 78.2966, 30.2334 ], [ 78.2989, 30.2455 ], [ 78.2769, 30.2718 ], [ 78.2839, 30.2923 ], [ 78.2681, 30.3021 ], [ 78.2582, 30.2855 ], [ 78.2367, 30.2875 ], [ 78.237, 30.2992 ], [ 78.2143, 30.3094 ], [ 78.2091, 30.2932 ], [ 78.2001, 30.2938 ], [ 78.1945, 30.3019 ], [ 78.1702, 30.3067 ], [ 78.1425, 30.3255 ], [ 78.1335, 30.3438 ], [ 78.1418, 30.3651 ], [ 78.162, 30.3825 ], [ 78.1749, 30.3822 ], [ 78.1985, 30.3986 ], [ 78.2231, 30.4056 ], [ 78.2389, 30.4238 ], [ 78.1979, 30.4468 ], [ 78.1641, 30.4459 ], [ 78.1533, 30.4562 ], [ 78.1395, 30.4565 ], [ 78.1235, 30.4682 ], [ 78.1068, 30.4712 ], [ 78.1057, 30.4782 ], [ 78.0816, 30.4738 ], [ 78.0819, 30.4674 ], [ 78.07, 30.47 ], [ 78.0688, 30.4773 ], [ 78.0396, 30.4823 ], [ 78.0367, 30.4654 ], [ 78.0198, 30.4813 ], [ 78.0086, 30.4836 ], [ 77.9978, 30.4801 ], [ 78.0001, 30.4684 ], [ 77.9875, 30.4668 ], [ 77.9733, 30.4861 ], [ 77.9568, 30.4903 ], [ 77.9361, 30.5114 ], [ 77.9474, 30.5113 ], [ 77.9512, 30.5179 ], [ 77.9808, 30.5085 ], [ 77.9878, 30.5149 ], [ 77.9754, 30.5223 ], [ 77.9862, 30.5259 ], [ 77.9757, 30.5289 ], [ 77.9748, 30.5376 ], [ 77.9829, 30.5392 ], [ 77.9805, 30.555 ], [ 78.0041, 30.5657 ], [ 78.0092, 30.5902 ], [ 78.0144, 30.5918 ], [ 78.0126, 30.6165 ], [ 78.0424, 30.6021 ], [ 78.0628, 30.6042 ], [ 78.0756, 30.6076 ], [ 78.065, 30.6237 ], [ 78.0869, 30.6341 ], [ 78.115, 30.6343 ], [ 78.1252, 30.6406 ], [ 78.1396, 30.6323 ], [ 78.1538, 30.6356 ], [ 78.163, 30.6266 ], [ 78.1706, 30.6047 ], [ 78.1645, 30.6007 ], [ 78.1647, 30.5884 ], [ 78.2052, 30.5783 ], [ 78.2353, 30.5863 ], [ 78.2491, 30.6108 ], [ 78.259, 30.6073 ], [ 78.2687, 30.6137 ], [ 78.2786, 30.6115 ], [ 78.3021, 30.5869 ], [ 78.2886, 30.572 ], [ 78.3018, 30.5642 ], [ 78.2861, 30.5636 ], [ 78.2865, 30.5526 ], [ 78.3138, 30.5611 ], [ 78.3078, 30.5725 ], [ 78.318, 30.5742 ], [ 78.3277, 30.5582 ], [ 78.3388, 30.5625 ], [ 78.3489, 30.5337 ], [ 78.3565, 30.5334 ], [ 78.3615, 30.5215 ], [ 78.3937, 30.5061 ], [ 78.3925, 30.4983 ], [ 78.4048, 30.4908 ], [ 78.4045, 30.4715 ], [ 78.4136, 30.4685 ], [ 78.4256, 30.5165 ], [ 78.4431, 30.5238 ], [ 78.4442, 30.5351 ], [ 78.4497, 30.5345 ], [ 78.4537, 30.5425 ], [ 78.4507, 30.5636 ], [ 78.4363, 30.5736 ], [ 78.4364, 30.5904 ], [ 78.4468, 30.6141 ], [ 78.4683, 30.6139 ], [ 78.4791, 30.6253 ], [ 78.502, 30.6084 ], [ 78.5136, 30.5954 ], [ 78.4995, 30.5808 ], [ 78.4967, 30.5306 ], [ 78.5155, 30.5327 ], [ 78.5183, 30.5275 ], [ 78.5291, 30.5316 ], [ 78.5389, 30.527 ], [ 78.5471, 30.5332 ], [ 78.5439, 30.5514 ], [ 78.5496, 30.5735 ], [ 78.5775, 30.6021 ], [ 78.5732, 30.6061 ], [ 78.5845, 30.6223 ], [ 78.5971, 30.6307 ], [ 78.6, 30.6722 ], [ 78.5852, 30.6806 ], [ 78.589, 30.6882 ], [ 78.6016, 30.6916 ], [ 78.6103, 30.6861 ], [ 78.6209, 30.6912 ], [ 78.6368, 30.6845 ], [ 78.6554, 30.6894 ], [ 78.6611, 30.7073 ], [ 78.7002, 30.7155 ], [ 78.7194, 30.7337 ], [ 78.7519, 30.7104 ], [ 78.7703, 30.721 ], [ 78.8049, 30.7243 ], [ 78.8081, 30.719 ], [ 78.8345, 30.737 ], [ 78.8479, 30.7377 ], [ 78.8545, 30.7519 ], [ 78.8496, 30.7786 ], [ 78.854, 30.8067 ], [ 78.8625, 30.816 ], [ 78.8494, 30.8474 ], [ 78.8682, 30.8626 ], [ 78.8726, 30.8753 ], [ 78.8825, 30.8776 ], [ 78.8957, 30.871 ], [ 78.9251, 30.8782 ], [ 78.9392, 30.8685 ], [ 78.9455, 30.8536 ], [ 79.003, 30.8585 ], [ 79.0172, 30.8444 ], [ 79.0188, 30.8217 ], [ 79.0353, 30.8061 ], [ 79.0259, 30.7977 ], [ 79.0284, 30.7675 ], [ 79.0209, 30.763 ], [ 79.0183, 30.7497 ], [ 79.0001, 30.7488 ], [ 79.003, 30.7438 ], [ 78.992, 30.7317 ], [ 78.9713, 30.73 ], [ 78.9602, 30.7348 ], [ 78.9432, 30.7207 ], [ 78.9251, 30.716 ], [ 78.9107, 30.6905 ], [ 78.9053, 30.6542 ], [ 78.9093, 30.6295 ], [ 78.8863, 30.6035 ], [ 78.8892, 30.5859 ], [ 78.8629, 30.5668 ], [ 78.8659, 30.5612 ], [ 78.8583, 30.5504 ], [ 78.8664, 30.5091 ], [ 78.85, 30.4909 ], [ 78.8376, 30.4909 ], [ 78.8238, 30.4784 ], [ 78.8352, 30.4744 ], [ 78.8506, 30.4562 ], [ 78.8434, 30.4501 ], [ 78.8489, 30.4446 ], [ 78.8441, 30.43 ], [ 78.8169, 30.4008 ], [ 78.8351, 30.3916 ], [ 78.8352, 30.3574 ], [ 78.8582, 30.3469 ], [ 78.8549, 30.3328 ], [ 78.8689, 30.3219 ], [ 78.8578, 30.3136 ], [ 78.8584, 30.302 ], [ 78.8728, 30.2848 ], [ 78.8735, 30.2756 ], [ 78.9131, 30.2689 ], [ 78.9197, 30.2606 ], [ 78.9015, 30.2426 ], [ 78.8975, 30.2509 ], [ 78.8782, 30.2602 ], [ 78.8751, 30.2517 ], [ 78.86, 30.2436 ], [ 78.8473, 30.2465 ], [ 78.8443, 30.2364 ], [ 78.8267, 30.2433 ], [ 78.8195, 30.2375 ], [ 78.821, 30.2295 ], [ 78.809, 30.2275 ], [ 78.8067, 30.2197 ], [ 78.7873, 30.2285 ], [ 78.7662, 30.226 ], [ 78.7626, 30.2169 ], [ 78.7484, 30.2131 ], [ 78.7161, 30.2369 ], [ 78.7047, 30.2313 ], [ 78.6829, 30.2386 ], [ 78.6803, 30.2101 ], [ 78.6701, 30.2126 ], [ 78.6579, 30.2045 ], [ 78.6471, 30.2075 ], [ 78.645, 30.1944 ], [ 78.6207, 30.1784 ], [ 78.6173, 30.1508 ], [ 78.6058, 30.1431 ], [ 78.5975, 30.1448 ], [ 78.596, 30.1311 ], [ 78.6013, 30.1268 ], [ 78.5871, 30.122 ], [ 78.5882, 30.1078 ], [ 78.579, 30.1037 ], [ 78.5921, 30.0869 ], [ 78.5824, 30.0723 ], [ 78.6021, 30.0682 ], [ 78.591, 30.0661 ], [ 78.5895, 30.053 ], [ 78.577, 30.0629 ], [ 78.5658, 30.0617 ], [ 78.5631, 30.069 ], [ 78.5323, 30.0758 ], [ 78.5248, 30.0738 ], [ 78.5227, 30.0658 ], [ 78.5141, 30.0662 ], [ 78.5108, 30.055 ], [ 78.4992, 30.063 ] ] ] } },
{ "type": "Feature", "properties": { "district": "Udham Singh Nagar", "did": "uttarakhand:Udham Singh Nagar", "state_key": "uttarakhand" }, "geometry": { "type": "Polygon", "coordinates": [ [ [ 79.8805, 28.9833 ], [ 79.8795, 28.9936 ], [ 79.896, 28.9934 ], [ 79.8936, 29.001 ], [ 79.9029, 29.0069 ], [ 79.897, 29.009 ], [ 79.9123, 29.0333 ], [ 79.9195, 29.0305 ], [ 79.9379, 29.0442 ], [ 79.966, 29.0486 ], [ 79.9814, 29.0648 ], [ 80.0072, 29.0739 ], [ 80.0151, 29.0929 ], [ 80.0583, 29.0044 ], [ 80.0504, 28.9921 ], [ 80.0594, 28.961 ], [ 80.0772, 28.9468 ], [ 80.0585, 28.9166 ], [ 80.0654, 28.8369 ], [ 80.0518, 28.8204 ], [ 80.068, 28.8011 ], [ 80.0587, 28.7884 ], [ 80.0617, 28.7832 ], [ 80.0301, 28.7486 ], [ 79.9542, 28.7228 ], [ 79.9386, 28.7504 ], [ 79.9432, 28.7599 ], [ 79.9241, 28.7732 ], [ 79.9398, 28.7877 ], [ 79.9265, 28.79 ], [ 79.9178, 28.7824 ], [ 79.9014, 28.782 ], [ 79.8731, 28.7973 ], [ 79.8696, 28.8083 ], [ 79.8785, 28.8148 ], [ 79.9055, 28.803 ], [ 79.9155, 28.8043 ], [ 79.9108, 28.8099 ], [ 79.9145, 28.8185 ], [ 79.8941, 28.8204 ], [ 79.8881, 28.8366 ], [ 79.8785, 28.8303 ], [ 79.8726, 28.8316 ], [ 79.8717, 28.8401 ], [ 79.8632, 28.8402 ], [ 79.8614, 28.8305 ], [ 79.8463, 28.8232 ], [ 79.8529, 28.8137 ], [ 79.8466, 28.8104 ], [ 79.8529, 28.8061 ], [ 79.8493, 28.7996 ], [ 79.8454, 28.8048 ], [ 79.8269, 28.795 ], [ 79.8146, 28.8026 ], [ 79.8102, 28.7983 ], [ 79.8069, 28.8049 ], [ 79.8143, 28.8148 ], [ 79.8191, 28.8053 ], [ 79.8236, 28.8066 ], [ 79.8372, 28.8323 ], [ 79.8313, 28.8308 ], [ 79.8238, 28.839 ], [ 79.8368, 28.8399 ], [ 79.8301, 28.8543 ], [ 79.8406, 28.8477 ], [ 79.8496, 28.8593 ], [ 79.8447, 28.875 ], [ 79.8331, 28.8707 ], [ 79.8293, 28.8845 ], [ 79.818, 28.8878 ], [ 79.8147, 28.8837 ], [ 79.7951, 28.8853 ], [ 79.7834, 28.8712 ], [ 79.7491, 28.8718 ], [ 79.7456, 28.8599 ], [ 79.7365, 28.8563 ], [ 79.7264, 28.861 ], [ 79.7199, 28.8457 ], [ 79.7096, 28.8511 ], [ 79.7067, 28.841 ], [ 79.69, 28.8453 ], [ 79.6819, 28.8568 ], [ 79.6674, 28.8597 ], [ 79.656, 28.8698 ], [ 79.6449, 28.8634 ], [ 79.636, 28.8668 ], [ 79.6309, 28.8611 ], [ 79.6261, 28.8666 ], [ 79.6133, 28.8528 ], [ 79.6039, 28.8568 ], [ 79.5844, 28.8463 ], [ 79.5735, 28.8546 ], [ 79.5843, 28.8792 ], [ 79.5565, 28.8993 ], [ 79.533, 28.8697 ], [ 79.5218, 28.8647 ], [ 79.5099, 28.8645 ], [ 79.4968, 28.8729 ], [ 79.4787, 28.8711 ], [ 79.4772, 28.8646 ], [ 79.4516, 28.8716 ], [ 79.4417, 28.8617 ], [ 79.4256, 28.8664 ], [ 79.431, 28.8868 ], [ 79.4222, 28.9013 ], [ 79.4279, 28.9198 ], [ 79.4158, 28.9279 ], [ 79.419, 28.94 ], [ 79.408, 28.9519 ], [ 79.3906, 28.9474 ], [ 79.3853, 28.9518 ], [ 79.3724, 28.9875 ], [ 79.3621, 28.9814 ], [ 79.3647, 28.9681 ], [ 79.3119, 28.9771 ], [ 79.3073, 28.9665 ], [ 79.2591, 28.9924 ], [ 79.2478, 29.0033 ], [ 79.251, 29.0102 ], [ 79.2117, 29.0276 ], [ 79.2036, 29.0207 ], [ 79.1908, 29.0232 ], [ 79.1938, 29.0156 ], [ 79.1711, 29.0119 ], [ 79.1758, 29.0157 ], [ 79.1653, 29.0178 ], [ 79.1624, 29.0292 ], [ 79.1751, 29.0462 ], [ 79.1619, 29.049 ], [ 79.1425, 29.0669 ], [ 79.1535, 29.1152 ], [ 79.1265, 29.1329 ], [ 79.1195, 29.1258 ], [ 79.1129, 29.1275 ], [ 79.0749, 29.1516 ], [ 79.0537, 29.1549 ], [ 79.0386, 29.1688 ], [ 79.0291, 29.1641 ], [ 79.0394, 29.1584 ], [ 79.0374, 29.1448 ], [ 79.0238, 29.1556 ], [ 79.0178, 29.1538 ], [ 79.0169, 29.1308 ], [ 79.0406, 29.1277 ], [ 79.0267, 29.1124 ], [ 79.0142, 29.1166 ], [ 79.0082, 29.1119 ], [ 79.0042, 29.1259 ], [ 78.9913, 29.1307 ], [ 78.9898, 29.1395 ], [ 78.9823, 29.143 ], [ 78.9729, 29.1269 ], [ 78.9642, 29.1305 ], [ 78.9564, 29.1199 ], [ 78.9346, 29.1296 ], [ 78.927, 29.1181 ], [ 78.9069, 29.1247 ], [ 78.9188, 29.1355 ], [ 78.911, 29.1444 ], [ 78.9155, 29.1524 ], [ 78.9064, 29.1517 ], [ 78.9091, 29.1635 ], [ 78.9017, 29.1696 ], [ 78.9088, 29.1786 ], [ 78.8946, 29.1858 ], [ 78.8997, 29.1859 ], [ 78.8964, 29.1936 ], [ 78.8867, 29.1951 ], [ 78.8906, 29.2012 ], [ 78.8752, 29.2052 ], [ 78.8833, 29.2113 ], [ 78.8718, 29.2226 ], [ 78.8745, 29.2302 ], [ 78.8586, 29.233 ], [ 78.8583, 29.2418 ], [ 78.8495, 29.2327 ], [ 78.8382, 29.2425 ], [ 78.8201, 29.2321 ], [ 78.8074, 29.2367 ], [ 78.7908, 29.2469 ], [ 78.7898, 29.255 ], [ 78.7738, 29.262 ], [ 78.765, 29.2793 ], [ 78.7345, 29.2996 ], [ 78.7227, 29.2993 ], [ 78.7186, 29.3066 ], [ 78.7345, 29.3029 ], [ 78.7337, 29.3219 ], [ 78.7407, 29.3158 ], [ 78.7503, 29.3174 ], [ 78.7538, 29.3312 ], [ 78.7666, 29.3374 ], [ 78.7775, 29.3257 ], [ 78.7934, 29.3282 ], [ 78.7896, 29.3153 ], [ 78.7959, 29.3118 ], [ 78.7982, 29.319 ], [ 78.8047, 29.3192 ], [ 78.7999, 29.3346 ], [ 78.8105, 29.3401 ], [ 78.8242, 29.3664 ], [ 78.8295, 29.3684 ], [ 78.8272, 29.3546 ], [ 78.8402, 29.346 ], [ 78.849, 29.3444 ], [ 78.8584, 29.3506 ], [ 78.8697, 29.345 ], [ 78.8791, 29.3516 ], [ 78.8862, 29.3418 ], [ 78.8997, 29.3456 ], [ 78.927, 29.3412 ], [ 78.9551, 29.3245 ], [ 78.9564, 29.3179 ], [ 78.9859, 29.3165 ], [ 78.9926, 29.3235 ], [ 78.9995, 29.3184 ], [ 79.0187, 29.3254 ], [ 79.0285, 29.3135 ], [ 79.023, 29.3086 ], [ 79.0295, 29.3054 ], [ 79.0125, 29.2897 ], [ 79.03, 29.2652 ], [ 79.0405, 29.264 ], [ 79.0418, 29.2542 ], [ 79.0759, 29.2779 ], [ 79.0904, 29.275 ], [ 79.0934, 29.2594 ], [ 79.108, 29.2552 ], [ 79.12, 29.2692 ], [ 79.1344, 29.2753 ], [ 79.2202, 29.248 ], [ 79.2771, 29.2396 ], [ 79.3632, 29.1562 ], [ 79.3836, 29.1442 ], [ 79.4013, 29.1146 ], [ 79.4356, 29.0835 ], [ 79.416, 29.0514 ], [ 79.6275, 29.05 ], [ 79.6519, 29.0774 ], [ 79.6828, 29.063 ], [ 79.7106, 29.031 ], [ 79.7463, 29.0255 ], [ 79.7474, 29.0321 ], [ 79.7642, 29.0369 ], [ 79.7772, 29.0303 ], [ 79.7734, 29.0252 ], [ 79.8003, 29.0249 ], [ 79.8064, 29.0163 ], [ 79.7965, 29.0135 ], [ 79.7932, 28.9982 ], [ 79.8, 28.9995 ], [ 79.8066, 28.9903 ], [ 79.8126, 28.9926 ], [ 79.8117, 28.9848 ], [ 79.8274, 28.9891 ], [ 79.8248, 28.9949 ], [ 79.8373, 29.0005 ], [ 79.8379, 28.9946 ], [ 79.842, 28.9961 ], [ 79.8576, 29.0129 ], [ 79.8755, 28.9929 ], [ 79.8738, 28.9786 ], [ 79.8805, 28.9833 ] ] ] } },
{ "type": "Feature", "properties": { "district": "Uttarkashi", "did": "uttarakhand:Uttarkashi", "state_key": "uttarakhand" }, "geometry": { "type": "MultiPolygon", "coordinates": [ [ [ [ 78.4365, 30.5724 ], [ 78.4507, 30.5636 ], [ 78.4537, 30.5425 ], [ 78.4497, 30.5345 ], [ 78.4442, 30.5351 ], [ 78.4431, 30.5238 ], [ 78.4256, 30.5165 ], [ 78.4243, 30.4952 ], [ 78.4149, 30.4882 ], [ 78.4127, 30.4682 ], [ 78.4045, 30.4715 ], [ 78.4048, 30.4908 ], [ 78.3925, 30.4983 ], [ 78.3937, 30.5061 ], [ 78.3615, 30.5215 ], [ 78.3565, 30.5334 ], [ 78.3489, 30.5337 ], [ 78.3388, 30.5625 ], [ 78.3277, 30.5582 ], [ 78.318, 30.5742 ], [ 78.3078, 30.5725 ], [ 78.3138, 30.5611 ], [ 78.2865, 30.5526 ], [ 78.2861, 30.5636 ], [ 78.3018, 30.5642 ], [ 78.2886, 30.572 ], [ 78.3021, 30.5869 ], [ 78.2776, 30.6119 ], [ 78.2687, 30.6137 ], [ 78.259, 30.6073 ], [ 78.2491, 30.6108 ], [ 78.2353, 30.5863 ], [ 78.2052, 30.5783 ], [ 78.1647, 30.5884 ], [ 78.1645, 30.6007 ], [ 78.1706, 30.6047 ], [ 78.1538, 30.6356 ], [ 78.1396, 30.6323 ], [ 78.1252, 30.6406 ], [ 78.115, 30.6343 ], [ 78.0869, 30.6341 ], [ 78.065, 30.6237 ], [ 78.0756, 30.6076 ], [ 78.0628, 30.6042 ], [ 78.0424, 30.6021 ], [ 78.0126, 30.6165 ], [ 78.0081, 30.6212 ], [ 78.0141, 30.6299 ], [ 78.0108, 30.651 ], [ 78.0204, 30.6531 ], [ 78.0331, 30.6452 ], [ 78.0477, 30.6614 ], [ 78.0626, 30.6665 ], [ 78.0722, 30.7066 ], [ 78.0837, 30.7198 ], [ 78.0792, 30.7406 ], [ 78.0681, 30.7437 ], [ 78.0653, 30.7582 ], [ 78.0233, 30.7894 ], [ 78.0273, 30.8041 ], [ 77.9988, 30.8268 ], [ 77.9844, 30.8792 ], [ 77.974, 30.8895 ], [ 77.9785, 30.9 ], [ 78.0164, 30.9089 ], [ 78.0193, 30.9234 ], [ 78.0003, 30.9517 ], [ 77.9865, 30.9595 ], [ 77.99, 30.9633 ], [ 77.9687, 30.9776 ], [ 77.9272, 30.972 ], [ 77.8843, 30.9456 ], [ 77.8802, 30.9488 ], [ 77.8707, 30.9442 ], [ 77.8633, 30.9565 ], [ 77.8541, 30.9534 ], [ 77.8548, 30.9643 ], [ 77.8393, 30.9809 ], [ 77.8434, 30.9951 ], [ 77.8316, 31.0122 ], [ 77.8323, 31.0282 ], [ 77.8114, 31.0591 ], [ 77.8244, 31.0554 ], [ 77.8381, 31.0726 ], [ 77.8512, 31.0734 ], [ 77.8637, 31.094 ], [ 77.8638, 31.1085 ], [ 77.8891, 31.1195 ], [ 77.889, 31.133 ], [ 77.9004, 31.1422 ], [ 77.9013, 31.1518 ], [ 77.9248, 31.1504 ], [ 77.9673, 31.1734 ], [ 77.9847, 31.157 ], [ 78.0008, 31.162 ], [ 78.0303, 31.151 ], [ 78.0297, 31.1641 ], [ 78.0426, 31.1785 ], [ 78.066, 31.1872 ], [ 78.1036, 31.1854 ], [ 78.1334, 31.2083 ], [ 78.1477, 31.2106 ], [ 78.1602, 31.2255 ], [ 78.187, 31.2271 ], [ 78.1995, 31.2172 ], [ 78.2124, 31.2196 ], [ 78.2203, 31.2339 ], [ 78.247, 31.2304 ], [ 78.2495, 31.24 ], [ 78.2605, 31.2398 ], [ 78.2829, 31.2662 ], [ 78.2919, 31.2599 ], [ 78.3063, 31.2599 ], [ 78.3112, 31.2831 ], [ 78.3319, 31.2776 ], [ 78.3703, 31.2863 ], [ 78.3835, 31.2825 ], [ 78.3863, 31.2714 ], [ 78.3962, 31.2753 ], [ 78.4072, 31.2562 ], [ 78.4028, 31.2479 ], [ 78.407, 31.2422 ], [ 78.4259, 31.2443 ], [ 78.4343, 31.2546 ], [ 78.4557, 31.241 ], [ 78.4798, 31.2138 ], [ 78.4838, 31.1989 ], [ 78.5516, 31.1999 ], [ 78.5782, 31.2253 ], [ 78.6093, 31.2293 ], [ 78.626, 31.2179 ], [ 78.647, 31.2147 ], [ 78.658, 31.185 ], [ 78.6719, 31.1969 ], [ 78.6868, 31.1978 ], [ 78.7034, 31.189 ], [ 78.7652, 31.1858 ], [ 78.8099, 31.1983 ], [ 78.8174, 31.1896 ], [ 78.8107, 31.1719 ], [ 78.8249, 31.1635 ], [ 78.8312, 31.1406 ], [ 78.848, 31.1251 ], [ 78.8652, 31.12 ], [ 78.8854, 31.0987 ], [ 78.9086, 31.0989 ], [ 78.9206, 31.1107 ], [ 78.9322, 31.1007 ], [ 78.9507, 31.098 ], [ 78.973, 31.1081 ], [ 79.0089, 31.1099 ], [ 78.9996, 31.1347 ], [ 78.9876, 31.1433 ], [ 78.9859, 31.1738 ], [ 78.9575, 31.1866 ], [ 78.9438, 31.2065 ], [ 78.9477, 31.2168 ], [ 78.926, 31.2201 ], [ 78.9121, 31.2551 ], [ 78.9327, 31.2529 ], [ 78.9371, 31.2606 ], [ 78.9476, 31.3195 ], [ 78.967, 31.3369 ], [ 79.0108, 31.3571 ], [ 79.0237, 31.3964 ], [ 79.0515, 31.4198 ], [ 79.0525, 31.4469 ], [ 79.0617, 31.4613 ], [ 79.1436, 31.4255 ], [ 79.1824, 31.3852 ], [ 79.1922, 31.3628 ], [ 79.2116, 31.3464 ], [ 79.2465, 31.33 ], [ 79.2392, 31.3142 ], [ 79.2719, 31.2832 ], [ 79.2524, 31.266 ], [ 79.2519, 31.243 ], [ 79.2802, 31.235 ], [ 79.2926, 31.2212 ], [ 79.3032, 31.1904 ], [ 79.301, 31.1678 ], [ 79.3127, 31.142 ], [ 79.3325, 31.1273 ], [ 79.3988, 31.1078 ], [ 79.4105, 31.0754 ], [ 79.3872, 31.067 ], [ 79.3828, 31.0554 ], [ 79.3624, 31.0368 ], [ 79.3203, 31.0243 ], [ 79.3067, 31.0137 ], [ 79.3081, 31.0048 ], [ 79.3316, 30.9957 ], [ 79.3232, 30.9836 ], [ 79.3304, 30.9699 ], [ 79.3218, 30.9609 ], [ 79.292, 30.9681 ], [ 79.2635, 30.9549 ], [ 79.2669, 30.9461 ], [ 79.2845, 30.9353 ], [ 79.2836, 30.9138 ], [ 79.27, 30.9069 ], [ 79.2809, 30.8766 ], [ 79.259, 30.8693 ], [ 79.2513, 30.8433 ], [ 79.2366, 30.8388 ], [ 79.2409, 30.8247 ], [ 79.2263, 30.8194 ], [ 79.2248, 30.8111 ], [ 79.2401, 30.8033 ], [ 79.2454, 30.7849 ], [ 79.2593, 30.7796 ], [ 79.2718, 30.7584 ], [ 79.2896, 30.7498 ], [ 79.2782, 30.728 ], [ 79.2614, 30.722 ], [ 79.2447, 30.7344 ], [ 79.2077, 30.7376 ], [ 79.1995, 30.7329 ], [ 79.1973, 30.74 ], [ 79.1691, 30.7558 ], [ 79.1429, 30.7475 ], [ 79.1268, 30.7696 ], [ 79.0919, 30.7758 ], [ 79.0678, 30.7982 ], [ 79.0278, 30.8114 ], [ 79.0188, 30.8217 ], [ 79.0172, 30.8444 ], [ 79.003, 30.8585 ], [ 78.9455, 30.8536 ], [ 78.9392, 30.8685 ], [ 78.9251, 30.8782 ], [ 78.8957, 30.871 ], [ 78.8809, 30.8775 ], [ 78.8721, 30.8751 ], [ 78.8682, 30.8626 ], [ 78.8494, 30.8474 ], [ 78.8625, 30.816 ], [ 78.854, 30.8067 ], [ 78.8496, 30.7786 ], [ 78.8545, 30.7519 ], [ 78.8479, 30.7377 ], [ 78.8345, 30.737 ], [ 78.8081, 30.719 ], [ 78.8049, 30.7243 ], [ 78.7703, 30.721 ], [ 78.7519, 30.7104 ], [ 78.7194, 30.7337 ], [ 78.7002, 30.7155 ], [ 78.6611, 30.7073 ], [ 78.6563, 30.6897 ], [ 78.6368, 30.6845 ], [ 78.6209, 30.6912 ], [ 78.6113, 30.6862 ], [ 78.6009, 30.6916 ], [ 78.5879, 30.6873 ], [ 78.5852, 30.6806 ], [ 78.6, 30.6722 ], [ 78.5971, 30.6307 ], [ 78.5845, 30.6223 ], [ 78.5732, 30.6061 ], [ 78.5775, 30.6021 ], [ 78.5496, 30.5735 ], [ 78.5439, 30.5514 ], [ 78.5471, 30.5332 ], [ 78.5407, 30.5281 ], [ 78.4967, 30.5306 ], [ 78.4995, 30.5808 ], [ 78.5136, 30.5954 ], [ 78.4871, 30.6218 ], [ 78.4791, 30.6253 ], [ 78.4683, 30.6139 ], [ 78.4468, 30.6141 ], [ 78.4366, 30.5902 ], [ 78.4365, 30.5724 ] ] ] ] } }
]
}
