{
"type": "FeatureCollection",
"crs": { "type": "name", "properties": { "name": "urn:ogc:def:crs:OGC:1.3:CRS84" } },
"xy_coordinate_resolution": 0.0001,
"features": [
{ "type": "Feature", "properties": { "district": "Anantnag", "did": "jammu_and_kashmir:Anantnag", "state_key": "jammu_and_kashmir" }, "geometry": { "type": "Polygon", "coordinates": [ [ [ 75.2929, 34.2368 ], [ 75.3148, 34.2331 ], [ 75.3339, 34.2145 ], [ 75.3639, 34.2129 ], [ 75.3784, 34.2059 ], [ 75.404, 34.2176 ], [ 75.4108, 34.2379 ], [ 75.4569, 34.2106 ], [ 75.4667, 34.2085 ], [ 75.474, 34.2194 ], [ 75.5029, 34.2343 ], [ 75.5146, 34.2267 ], [ 75.5297, 34.2268 ], [ 75.5553, 34.2114 ], [ 75.5799, 34.214 ], [ 75.5934, 34.1977 ], [ 75.5881, 34.1755 ], [ 75.5764, 34.1698 ], [ 75.5723, 34.1567 ], [ 75.5522, 34.1557 ], [ 75.5394, 34.1354 ], [ 75.5329, 34.1187 ], [ 75.5373, 34.1091 ], [ 75.5272, 34.0953 ], [ 75.5318, 34.0622 ], [ 75.5216, 34.0463 ], [ 75.5047, 34.0387 ], [ 75.4879, 34.0448 ], [ 75.4795, 34.0385 ], [ 75.4649, 34.0431 ], [ 75.4567, 34.0363 ], [ 75.4466, 34.0399 ], [ 75.4331, 34.0197 ], [ 75.4383, 34.0025 ], [ 75.4296, 33.9847 ], [ 75.4147, 33.9804 ], [ 75.394, 33.9625 ], [ 75.3963, 33.9404 ], [ 75.3892, 33.9374 ], [ 75.3972, 33.9305 ], [ 75.3911, 33.9161 ], [ 75.3936, 33.9028 ], [ 75.4036, 33.8917 ], [ 75.4101, 33.8929 ], [ 75.4265, 33.8457 ], [ 75.4431, 33.8291 ], [ 75.4432, 33.8208 ], [ 75.455, 33.8147 ], [ 75.4513, 33.8083 ], [ 75.4607, 33.7945 ], [ 75.4818, 33.7849 ], [ 75.4685, 33.7727 ], [ 75.4635, 33.7571 ], [ 75.4952, 33.7391 ], [ 75.521, 33.7153 ], [ 75.5, 33.6963 ], [ 75.5091, 33.6817 ], [ 75.5082, 33.662 ], [ 75.5167, 33.6544 ], [ 75.5046, 33.6478 ], [ 75.5, 33.6289 ], [ 75.5105, 33.6313 ], [ 75.5098, 33.619 ], [ 75.5225, 33.6244 ], [ 75.522, 33.6163 ], [ 75.5346, 33.6012 ], [ 75.5064, 33.5732 ], [ 75.5027, 33.5499 ], [ 75.5139, 33.5417 ], [ 75.5103, 33.5288 ], [ 75.4865, 33.5229 ], [ 75.4669, 33.4996 ], [ 75.469, 33.4848 ], [ 75.4897, 33.453 ], [ 75.4741, 33.4191 ], [ 75.4819, 33.4073 ], [ 75.4525, 33.3986 ], [ 75.4431, 33.3791 ], [ 75.4164, 33.3813 ], [ 75.3976, 33.3661 ], [ 75.38, 33.3651 ], [ 75.3757, 33.378 ], [ 75.3494, 33.3841 ], [ 75.3306, 33.3962 ], [ 75.3291, 33.4052 ], [ 75.2228, 33.5021 ], [ 75.1755, 33.5243 ], [ 75.1413, 33.5253 ], [ 75.152, 33.5573 ], [ 75.17, 33.5796 ], [ 75.1695, 33.5906 ], [ 75.175, 33.5915 ], [ 75.1661, 33.5966 ], [ 75.1613, 33.5888 ], [ 75.1347, 33.5897 ], [ 75.1404, 33.6062 ], [ 75.1265, 33.6203 ], [ 75.1357, 33.6283 ], [ 75.1305, 33.6359 ], [ 75.1249, 33.6338 ], [ 75.12, 33.6491 ], [ 75.1375, 33.6542 ], [ 75.1206, 33.6729 ], [ 75.1017, 33.673 ], [ 75.1077, 33.6856 ], [ 75.0982, 33.6883 ], [ 75.107, 33.7053 ], [ 75.1203, 33.7013 ], [ 75.1295, 33.7152 ], [ 75.1117, 33.7282 ], [ 75.1206, 33.7364 ], [ 75.1276, 33.7352 ], [ 75.1219, 33.765 ], [ 75.1174, 33.7778 ], [ 75.113, 33.7709 ], [ 75.1033, 33.772 ], [ 75.1061, 33.8069 ], [ 75.0465, 33.853 ], [ 75.0568, 33.8585 ], [ 75.0644, 33.8517 ], [ 75.0811, 33.8529 ], [ 75.101, 33.8712 ], [ 75.1215, 33.8658 ], [ 75.1322, 33.8755 ], [ 75.1429, 33.8736 ], [ 75.1651, 33.9001 ], [ 75.1939, 33.9053 ], [ 75.226, 33.9545 ], [ 75.2201, 33.9812 ], [ 75.2227, 34.0169 ], [ 75.2337, 34.021 ], [ 75.2335, 34.0317 ], [ 75.2187, 34.0368 ], [ 75.2046, 34.0688 ], [ 75.1541, 34.0776 ], [ 75.1496, 34.0943 ], [ 75.1422, 34.0952 ], [ 75.1385, 34.1045 ], [ 75.1465, 34.1214 ], [ 75.1367, 34.1397 ], [ 75.0966, 34.1543 ], [ 75.1058, 34.1591 ], [ 75.1033, 34.1696 ], [ 75.1314, 34.1716 ], [ 75.1372, 34.1833 ], [ 75.1254, 34.1956 ], [ 75.1331, 34.2 ], [ 75.1459, 34.2002 ], [ 75.1536, 34.207 ], [ 75.1885, 34.1964 ], [ 75.1921, 34.2125 ], [ 75.2069, 34.2295 ], [ 75.2351, 34.2339 ], [ 75.2431, 34.2426 ], [ 75.2596, 34.2469 ], [ 75.2632, 34.2546 ], [ 75.2866, 34.2475 ], [ 75.2929, 34.2368 ] ] ] } },
{ "type": "Feature", "properties": { "district": "Badgam", "did": "jammu_and_kashmir:Badgam", "state_key": "jammu_and_kashmir" }, "geometry": { "type": "Polygon", "coordinates": [ [ [ 74.6751, 34.1074 ], [ 74.6845, 34.1051 ], [ 74.6881, 34.0948 ], [ 74.7115, 34.1071 ], [ 74.7102, 34.0953 ], [ 74.7436, 34.0909 ], [ 74.7715, 34.0719 ], [ 74.7587, 34.0604 ], [ 74.7725, 34.041 ], [ 74.7797, 34.0398 ], [ 74.7769, 34.0296 ], [ 74.7955, 34.0204 ], [ 74.7934, 34.0292 ], [ 74.8021, 34.0285 ], [ 74.7999, 34.0413 ], [ 74.8322, 34.0454 ], [ 74.8214, 34.0317 ], [ 74.8267, 34.0287 ], [ 74.8468, 34.0517 ], [ 74.8712, 34.0353 ], [ 74.8833, 34.0388 ], [ 74.9014, 34.0336 ], [ 74.8983, 34.0176 ], [ 74.9104, 34.0245 ], [ 74.9163, 34.0213 ], [ 74.9001, 34.012 ], [ 74.9023, 33.9959 ], [ 74.8912, 33.991 ], [ 74.8447, 33.9308 ], [ 74.8404, 33.9331 ], [ 74.8381, 33.9166 ], [ 74.8207, 33.8939 ], [ 74.8186, 33.8653 ], [ 74.7907, 33.8354 ], [ 74.7957, 33.8266 ], [ 74.7759, 33.8214 ], [ 74.7743, 33.8105 ], [ 74.7576, 33.812 ], [ 74.7561, 33.8213 ], [ 74.7419, 33.8218 ], [ 74.723, 33.8064 ], [ 74.6895, 33.8074 ], [ 74.6245, 33.7496 ], [ 74.6259, 33.7398 ], [ 74.5809, 33.719 ], [ 74.5665, 33.6917 ], [ 74.5435, 33.6802 ], [ 74.5436, 33.6929 ], [ 74.5279, 33.695 ], [ 74.5159, 33.7053 ], [ 74.5044, 33.704 ], [ 74.5079, 33.7111 ], [ 74.5017, 33.7193 ], [ 74.4747, 33.7332 ], [ 74.4663, 33.7502 ], [ 74.4535, 33.7547 ], [ 74.4499, 33.764 ], [ 74.4703, 33.7846 ], [ 74.4392, 33.8115 ], [ 74.4417, 33.8245 ], [ 74.4326, 33.8246 ], [ 74.4109, 33.844 ], [ 74.4141, 33.8587 ], [ 74.4016, 33.8743 ], [ 74.4024, 33.8832 ], [ 74.4151, 33.8878 ], [ 74.409, 33.8964 ], [ 74.4258, 33.9112 ], [ 74.4239, 33.9162 ], [ 74.446, 33.9239 ], [ 74.4736, 33.9445 ], [ 74.4773, 33.9518 ], [ 74.4697, 33.9687 ], [ 74.4749, 33.9778 ], [ 74.4664, 33.9913 ], [ 74.5, 34.032 ], [ 74.4849, 34.0336 ], [ 74.4873, 34.0471 ], [ 74.5333, 34.0382 ], [ 74.5424, 34.0566 ], [ 74.5583, 34.0594 ], [ 74.6116, 34.106 ], [ 74.6212, 34.1034 ], [ 74.6514, 34.119 ], [ 74.6594, 34.1165 ], [ 74.6768, 34.1305 ], [ 74.6917, 34.1238 ], [ 74.6857, 34.1114 ], [ 74.6751, 34.1074 ] ] ] } },
{ "type": "Feature", "properties": { "district": "Bandipura", "did": "jammu_and_kashmir:Bandipura", "state_key": "jammu_and_kashmir" }, "geometry": { "type": "Polygon", "coordinates": [ [ [ 75.2206, 34.6338 ], [ 75.2415, 34.6378 ], [ 75.2566, 34.6215 ], [ 75.2534, 34.6041 ], [ 75.2864, 34.5954 ], [ 75.3199, 34.5648 ], [ 75.3285, 34.5688 ], [ 75.3442, 34.563 ], [ 75.3656, 34.5381 ], [ 75.3661, 34.5214 ], [ 75.3529, 34.5176 ], [ 75.3429, 34.4894 ], [ 75.3532, 34.4688 ], [ 75.3305, 34.4503 ], [ 75.3332, 34.443 ], [ 75.3275, 34.4398 ], [ 75.3351, 34.4293 ], [ 75.3538, 34.4246 ], [ 75.3728, 34.4109 ], [ 75.367, 34.391 ], [ 75.3388, 34.3744 ], [ 75.3307, 34.3574 ], [ 75.3117, 34.3665 ], [ 75.2728, 34.3629 ], [ 75.2591, 34.3762 ], [ 75.2355, 34.37 ], [ 75.2117, 34.3853 ], [ 75.1998, 34.3854 ], [ 75.192, 34.3594 ], [ 75.1477, 34.3449 ], [ 75.1283, 34.351 ], [ 75.1129, 34.3687 ], [ 75.0905, 34.3746 ], [ 75.0715, 34.392 ], [ 75.0672, 34.4041 ], [ 75.0229, 34.4211 ], [ 75.0172, 34.4392 ], [ 74.961, 34.4455 ], [ 74.9504, 34.4526 ], [ 74.9502, 34.4606 ], [ 74.9401, 34.4641 ], [ 74.9, 34.4487 ], [ 74.8915, 34.4343 ], [ 74.8921, 34.4122 ], [ 74.909, 34.3999 ], [ 74.8924, 34.3753 ], [ 74.867, 34.3693 ], [ 74.8402, 34.3467 ], [ 74.7891, 34.3419 ], [ 74.7863, 34.3332 ], [ 74.7693, 34.3235 ], [ 74.767, 34.3142 ], [ 74.7504, 34.3158 ], [ 74.7121, 34.2952 ], [ 74.6632, 34.2986 ], [ 74.6484, 34.2699 ], [ 74.6489, 34.2627 ], [ 74.6553, 34.2631 ], [ 74.653, 34.25 ], [ 74.6802, 34.2488 ], [ 74.6577, 34.2445 ], [ 74.651, 34.2172 ], [ 74.6817, 34.1779 ], [ 74.6765, 34.1687 ], [ 74.6386, 34.1595 ], [ 74.6356, 34.1794 ], [ 74.6099, 34.1753 ], [ 74.5724, 34.1874 ], [ 74.5795, 34.2247 ], [ 74.5546, 34.23 ], [ 74.5386, 34.2437 ], [ 74.5268, 34.2651 ], [ 74.5311, 34.2804 ], [ 74.5252, 34.2958 ], [ 74.5105, 34.2882 ], [ 74.5207, 34.3033 ], [ 74.5189, 34.3217 ], [ 74.532, 34.3563 ], [ 74.5175, 34.3695 ], [ 74.5055, 34.4079 ], [ 74.4772, 34.4374 ], [ 74.4851, 34.4625 ], [ 74.5178, 34.4842 ], [ 74.5208, 34.502 ], [ 74.5349, 34.5121 ], [ 74.5314, 34.5381 ], [ 74.5217, 34.5527 ], [ 74.5475, 34.6045 ], [ 74.5474, 34.6242 ], [ 74.5589, 34.63 ], [ 74.5639, 34.6404 ], [ 74.5667, 34.6877 ], [ 74.5909, 34.7113 ], [ 74.6061, 34.7378 ], [ 74.5981, 34.7563 ], [ 74.5682, 34.7777 ], [ 74.4998, 34.7883 ], [ 74.4818, 34.7825 ], [ 74.4563, 34.789 ], [ 74.4377, 34.7837 ], [ 74.4167, 34.7886 ], [ 74.3966, 34.7843 ], [ 74.3776, 34.7908 ], [ 74.3523, 34.7852 ], [ 74.3302, 34.7911 ], [ 74.4135, 34.8099 ], [ 74.4299, 34.8224 ], [ 74.434, 34.8465 ], [ 74.4563, 34.8607 ], [ 74.5014, 34.8717 ], [ 74.5236, 34.8642 ], [ 74.5391, 34.8659 ], [ 74.5679, 34.8831 ], [ 74.577, 34.9139 ], [ 74.6042, 34.9248 ], [ 74.6464, 34.9036 ], [ 74.6625, 34.9068 ], [ 74.6842, 34.8788 ], [ 74.7115, 34.8809 ], [ 74.7167, 34.8665 ], [ 74.7294, 34.8632 ], [ 74.7403, 34.8484 ], [ 74.7769, 34.8408 ], [ 74.7878, 34.8525 ], [ 74.7985, 34.8521 ], [ 74.8233, 34.8374 ], [ 74.8397, 34.8407 ], [ 74.861, 34.8283 ], [ 74.8722, 34.8302 ], [ 74.8871, 34.8223 ], [ 74.9073, 34.7925 ], [ 74.9186, 34.7851 ], [ 74.9298, 34.787 ], [ 75.0163, 34.8483 ], [ 75.0571, 34.8423 ], [ 75.064, 34.8471 ], [ 75.0641, 34.9052 ], [ 75.0716, 34.9192 ], [ 75.1013, 34.9191 ], [ 75.142, 34.875 ], [ 75.1442, 34.8503 ], [ 75.2232, 34.8175 ], [ 75.2563, 34.7739 ], [ 75.2509, 34.7499 ], [ 75.2636, 34.7446 ], [ 75.2543, 34.7217 ], [ 75.2583, 34.6976 ], [ 75.2321, 34.6908 ], [ 75.2079, 34.6654 ], [ 75.2045, 34.6535 ], [ 75.2182, 34.6516 ], [ 75.2081, 34.6387 ], [ 75.2206, 34.6338 ] ] ] } },
{ "type": "Feature", "properties": { "district": "Baramula", "did": "jammu_and_kashmir:Baramula", "state_key": "jammu_and_kashmir" }, "geometry": { "type": "Polygon", "coordinates": [ [ [ 74.4206, 34.4145 ], [ 74.4546, 34.417 ], [ 74.4679, 34.4305 ], [ 74.4794, 34.4326 ], [ 74.5055, 34.4079 ], [ 74.5175, 34.3695 ], [ 74.532, 34.3563 ], [ 74.5189, 34.3217 ], [ 74.5207, 34.3033 ], [ 74.5105, 34.2882 ], [ 74.5252, 34.2958 ], [ 74.5311, 34.2804 ], [ 74.5268, 34.2651 ], [ 74.5386, 34.2437 ], [ 74.5546, 34.23 ], [ 74.5795, 34.2247 ], [ 74.5724, 34.1874 ], [ 74.6099, 34.1753 ], [ 74.6356, 34.1794 ], [ 74.6386, 34.1595 ], [ 74.6765, 34.1687 ], [ 74.6817, 34.1779 ], [ 74.6949, 34.1728 ], [ 74.7022, 34.1571 ], [ 74.6594, 34.1165 ], [ 74.6514, 34.119 ], [ 74.6212, 34.1034 ], [ 74.6077, 34.1033 ], [ 74.5583, 34.0594 ], [ 74.5424, 34.0566 ], [ 74.5333, 34.0382 ], [ 74.4873, 34.0471 ], [ 74.4849, 34.0336 ], [ 74.5, 34.032 ], [ 74.4664, 33.9913 ], [ 74.4749, 33.9778 ], [ 74.4697, 33.9687 ], [ 74.4773, 33.9518 ], [ 74.4736, 33.9445 ], [ 74.446, 33.9239 ], [ 74.4239, 33.9162 ], [ 74.4254, 33.9109 ], [ 74.4113, 33.9079 ], [ 74.3874, 33.9459 ], [ 74.3536, 33.9566 ], [ 74.3326, 33.9523 ], [ 74.3165, 33.957 ], [ 74.3122, 33.9711 ], [ 74.317, 33.9749 ], [ 74.3021, 33.9955 ], [ 74.2716, 33.9865 ], [ 74.2567, 33.9993 ], [ 74.2512, 34.0193 ], [ 74.2118, 34.0346 ], [ 74.1802, 34.026 ], [ 74.1212, 34.048 ], [ 74.1205, 34.0366 ], [ 74.1054, 34.0387 ], [ 74.0918, 34.0175 ], [ 74.068, 34.0218 ], [ 74.0528, 34.0134 ], [ 74.0415, 34.0186 ], [ 74.0288, 34.0119 ], [ 74.0246, 34.0 ], [ 73.9984, 34.0192 ], [ 73.9665, 34.011 ], [ 73.9411, 34.0193 ], [ 73.9015, 34.047 ], [ 73.8905, 34.0687 ], [ 73.9, 34.0797 ], [ 73.9053, 34.107 ], [ 73.9267, 34.1035 ], [ 73.9315, 34.1415 ], [ 73.9603, 34.1511 ], [ 74.0042, 34.1894 ], [ 73.9979, 34.2083 ], [ 74.0071, 34.2157 ], [ 74.007, 34.2271 ], [ 73.9833, 34.258 ], [ 74.0273, 34.2446 ], [ 74.036, 34.2495 ], [ 74.0357, 34.2582 ], [ 74.0761, 34.2602 ], [ 74.1052, 34.2713 ], [ 74.1267, 34.2703 ], [ 74.1442, 34.2816 ], [ 74.1648, 34.2762 ], [ 74.1993, 34.2832 ], [ 74.2351, 34.3045 ], [ 74.2593, 34.31 ], [ 74.2701, 34.3063 ], [ 74.3102, 34.3181 ], [ 74.3221, 34.3104 ], [ 74.3347, 34.3109 ], [ 74.3457, 34.3161 ], [ 74.3466, 34.3234 ], [ 74.3769, 34.3382 ], [ 74.3818, 34.3488 ], [ 74.3902, 34.3488 ], [ 74.3899, 34.3594 ], [ 74.3734, 34.3668 ], [ 74.3818, 34.3761 ], [ 74.3802, 34.3892 ], [ 74.3499, 34.399 ], [ 74.3461, 34.4236 ], [ 74.3827, 34.4373 ], [ 74.3958, 34.4366 ], [ 74.4075, 34.4156 ], [ 74.4206, 34.4145 ] ] ] } },
{ "type": "Feature", "properties": { "district": "Doda", "did": "jammu_and_kashmir:Doda", "state_key": "jammu_and_kashmir" }, "geometry": { "type": "Polygon", "coordinates": [ [ [ 75.5395, 33.3722 ], [ 75.5417, 33.3506 ], [ 75.5647, 33.3347 ], [ 75.5666, 33.323 ], [ 75.5806, 33.3143 ], [ 75.5987, 33.274 ], [ 75.6481, 33.2501 ], [ 75.6602, 33.2577 ], [ 75.6922, 33.2541 ], [ 75.7149, 33.234 ], [ 75.7184, 33.2188 ], [ 75.7374, 33.2045 ], [ 75.7614, 33.1975 ], [ 75.7875, 33.1748 ], [ 75.8062, 33.1714 ], [ 75.797, 33.1562 ], [ 75.8002, 33.1433 ], [ 75.8194, 33.1519 ], [ 75.832, 33.1488 ], [ 75.8387, 33.1383 ], [ 75.8527, 33.1329 ], [ 75.8551, 33.1208 ], [ 75.8945, 33.1177 ], [ 75.9001, 33.1344 ], [ 75.916, 33.1372 ], [ 75.9289, 33.1141 ], [ 75.9606, 33.1303 ], [ 75.9687, 33.1264 ], [ 75.9664, 33.1192 ], [ 75.9842, 33.1218 ], [ 75.9993, 33.1026 ], [ 76.0561, 33.1065 ], [ 76.0766, 33.1185 ], [ 76.1099, 33.1262 ], [ 76.1201, 33.1576 ], [ 76.1186, 33.1758 ], [ 76.1505, 33.1664 ], [ 76.1724, 33.148 ], [ 76.1794, 33.118 ], [ 76.1989, 33.1101 ], [ 76.2015, 33.0964 ], [ 76.2147, 33.0867 ], [ 76.2275, 33.0914 ], [ 76.2321, 33.083 ], [ 76.235, 33.0531 ], [ 76.2223, 33.0228 ], [ 76.2112, 33.0163 ], [ 76.1783, 33.0201 ], [ 76.1603, 33.0066 ], [ 76.1072, 33.0061 ], [ 76.1063, 32.9869 ], [ 76.0942, 32.9652 ], [ 76.0822, 32.9616 ], [ 76.083, 32.9552 ], [ 76.0683, 32.9519 ], [ 76.0613, 32.9409 ], [ 76.0388, 32.9358 ], [ 76.0272, 32.9157 ], [ 75.9812, 32.8951 ], [ 75.9501, 32.8728 ], [ 75.9283, 32.8898 ], [ 75.9189, 32.9058 ], [ 75.873, 32.9238 ], [ 75.8452, 32.9285 ], [ 75.8326, 32.924 ], [ 75.8126, 32.8931 ], [ 75.799, 32.8849 ], [ 75.7679, 32.89 ], [ 75.7401, 32.8763 ], [ 75.694, 32.8784 ], [ 75.6918, 32.8664 ], [ 75.6828, 32.8641 ], [ 75.675, 32.8704 ], [ 75.6623, 32.9231 ], [ 75.6237, 32.9397 ], [ 75.6089, 32.9393 ], [ 75.5966, 32.9496 ], [ 75.5821, 32.9471 ], [ 75.5772, 32.961 ], [ 75.5629, 32.9676 ], [ 75.5517, 32.966 ], [ 75.5342, 32.9494 ], [ 75.5222, 32.9599 ], [ 75.4893, 32.9549 ], [ 75.4524, 32.9622 ], [ 75.4488, 32.9749 ], [ 75.4173, 32.9931 ], [ 75.4365, 33.0055 ], [ 75.4194, 33.0565 ], [ 75.4103, 33.0488 ], [ 75.4083, 33.0351 ], [ 75.3991, 33.0347 ], [ 75.3701, 33.0564 ], [ 75.3696, 33.0983 ], [ 75.3556, 33.1468 ], [ 75.3345, 33.1617 ], [ 75.3484, 33.1877 ], [ 75.3768, 33.202 ], [ 75.388, 33.2179 ], [ 75.3906, 33.2375 ], [ 75.3771, 33.2559 ], [ 75.3748, 33.2737 ], [ 75.3933, 33.3463 ], [ 75.3886, 33.366 ], [ 75.3976, 33.3661 ], [ 75.4164, 33.3813 ], [ 75.4431, 33.3791 ], [ 75.4515, 33.3977 ], [ 75.4642, 33.4044 ], [ 75.4724, 33.4008 ], [ 75.4819, 33.4073 ], [ 75.5177, 33.3939 ], [ 75.5395, 33.3722 ] ] ] } },
{ "type": "Feature", "properties": { "district": "Ganderbal", "did": "jammu_and_kashmir:Ganderbal", "state_key": "jammu_and_kashmir" }, "geometry": { "type": "Polygon", "coordinates": [ [ [ 74.7238, 34.1656 ], [ 74.6932, 34.1856 ], [ 74.6759, 34.1841 ], [ 74.6634, 34.2072 ], [ 74.6517, 34.2154 ], [ 74.6577, 34.2445 ], [ 74.6803, 34.2496 ], [ 74.653, 34.25 ], [ 74.6553, 34.2631 ], [ 74.6489, 34.2627 ], [ 74.6484, 34.2699 ], [ 74.6632, 34.2986 ], [ 74.7121, 34.2952 ], [ 74.7504, 34.3158 ], [ 74.767, 34.3142 ], [ 74.7693, 34.3235 ], [ 74.7863, 34.3332 ], [ 74.7891, 34.3419 ], [ 74.8402, 34.3467 ], [ 74.867, 34.3693 ], [ 74.8924, 34.3753 ], [ 74.909, 34.3999 ], [ 74.8921, 34.4122 ], [ 74.8915, 34.4343 ], [ 74.9, 34.4487 ], [ 74.9401, 34.4641 ], [ 74.9502, 34.4606 ], [ 74.9504, 34.4526 ], [ 74.961, 34.4455 ], [ 75.0172, 34.4392 ], [ 75.0229, 34.4211 ], [ 75.0672, 34.4041 ], [ 75.0715, 34.392 ], [ 75.0905, 34.3746 ], [ 75.1129, 34.3687 ], [ 75.1283, 34.351 ], [ 75.1482, 34.3448 ], [ 75.192, 34.3594 ], [ 75.1998, 34.3854 ], [ 75.2117, 34.3853 ], [ 75.2355, 34.37 ], [ 75.2591, 34.3762 ], [ 75.2728, 34.3629 ], [ 75.3117, 34.3665 ], [ 75.3304, 34.3572 ], [ 75.3388, 34.3744 ], [ 75.3549, 34.3852 ], [ 75.367, 34.391 ], [ 75.3771, 34.3871 ], [ 75.3734, 34.3715 ], [ 75.3857, 34.3661 ], [ 75.3805, 34.3583 ], [ 75.3859, 34.3504 ], [ 75.376, 34.342 ], [ 75.3961, 34.3167 ], [ 75.3893, 34.3095 ], [ 75.3938, 34.2958 ], [ 75.4046, 34.2839 ], [ 75.4395, 34.2795 ], [ 75.4536, 34.2859 ], [ 75.4592, 34.2794 ], [ 75.4749, 34.2776 ], [ 75.4822, 34.2716 ], [ 75.4824, 34.2551 ], [ 75.497, 34.2376 ], [ 75.4927, 34.2254 ], [ 75.4749, 34.2201 ], [ 75.4667, 34.2085 ], [ 75.4108, 34.2379 ], [ 75.404, 34.2176 ], [ 75.3784, 34.2059 ], [ 75.3639, 34.2129 ], [ 75.3339, 34.2145 ], [ 75.3148, 34.2331 ], [ 75.2927, 34.2369 ], [ 75.283, 34.25 ], [ 75.2632, 34.2546 ], [ 75.2596, 34.2469 ], [ 75.2431, 34.2426 ], [ 75.2351, 34.2339 ], [ 75.2069, 34.2295 ], [ 75.1921, 34.2125 ], [ 75.1885, 34.1964 ], [ 75.1536, 34.207 ], [ 75.1254, 34.1956 ], [ 75.1372, 34.1833 ], [ 75.1285, 34.1692 ], [ 75.1033, 34.1696 ], [ 75.1058, 34.1591 ], [ 75.0966, 34.1543 ], [ 75.1367, 34.1397 ], [ 75.1462, 34.122 ], [ 75.1388, 34.1079 ], [ 75.1422, 34.0952 ], [ 75.1142, 34.0891 ], [ 75.1097, 34.0984 ], [ 75.0606, 34.1096 ], [ 75.0452, 34.0947 ], [ 75.038, 34.0957 ], [ 75.035, 34.0837 ], [ 75.0153, 34.085 ], [ 74.9928, 34.0586 ], [ 74.9924, 34.0498 ], [ 74.9838, 34.0462 ], [ 74.973, 34.0523 ], [ 74.9791, 34.0523 ], [ 74.977, 34.065 ], [ 75.0017, 34.0817 ], [ 74.9794, 34.0982 ], [ 74.9797, 34.0817 ], [ 74.9583, 34.0722 ], [ 74.9479, 34.0784 ], [ 74.9358, 34.0658 ], [ 74.9305, 34.0692 ], [ 74.9274, 34.0625 ], [ 74.9167, 34.0621 ], [ 74.9229, 34.0546 ], [ 74.9163, 34.051 ], [ 74.884, 34.0433 ], [ 74.8667, 34.051 ], [ 74.8598, 34.0701 ], [ 74.8684, 34.0808 ], [ 74.8849, 34.0798 ], [ 74.8886, 34.0949 ], [ 74.9119, 34.0932 ], [ 74.8911, 34.1193 ], [ 74.895, 34.1216 ], [ 74.8879, 34.1458 ], [ 74.905, 34.1578 ], [ 74.9266, 34.1526 ], [ 74.9337, 34.1578 ], [ 74.9259, 34.1611 ], [ 74.9237, 34.1734 ], [ 74.9104, 34.1757 ], [ 74.9278, 34.184 ], [ 74.9165, 34.1901 ], [ 74.9262, 34.1992 ], [ 74.9234, 34.2059 ], [ 74.9053, 34.1934 ], [ 74.8781, 34.1902 ], [ 74.875, 34.2006 ], [ 74.8841, 34.2038 ], [ 74.8736, 34.2122 ], [ 74.8577, 34.1996 ], [ 74.8517, 34.1789 ], [ 74.8252, 34.1753 ], [ 74.8175, 34.1832 ], [ 74.8071, 34.1829 ], [ 74.8176, 34.1629 ], [ 74.8041, 34.1636 ], [ 74.7952, 34.1755 ], [ 74.771, 34.1758 ], [ 74.7441, 34.1606 ], [ 74.7238, 34.1656 ] ] ] } },
{ "type": "Feature", "properties": { "district": "Jammu", "did": "jammu_and_kashmir:Jammu", "state_key": "jammu_and_kashmir" }, "geometry": { "type": "Polygon", "coordinates": [ [ [ 74.4384, 32.8227 ], [ 74.4192, 32.841 ], [ 74.4215, 32.8544 ], [ 74.4122, 32.8701 ], [ 74.4188, 32.887 ], [ 74.4152, 32.8986 ], [ 74.3731, 32.9142 ], [ 74.3776, 32.9152 ], [ 74.3713, 32.9203 ], [ 74.3255, 32.9207 ], [ 74.3126, 32.9291 ], [ 74.3126, 32.9364 ], [ 74.3397, 32.9544 ], [ 74.3663, 32.9545 ], [ 74.369, 32.95 ], [ 74.3913, 32.9594 ], [ 74.4203, 32.989 ], [ 74.4443, 33.0006 ], [ 74.4481, 33.015 ], [ 74.4964, 33.0181 ], [ 74.5132, 33.0134 ], [ 74.5131, 33.0298 ], [ 74.4964, 33.0373 ], [ 74.5122, 33.0455 ], [ 74.5102, 33.0552 ], [ 74.5636, 33.0506 ], [ 74.5724, 33.03 ], [ 74.632, 33.0489 ], [ 74.6752, 33.0546 ], [ 74.6767, 33.0625 ], [ 74.6868, 33.0547 ], [ 74.6994, 33.061 ], [ 74.7093, 33.059 ], [ 74.7107, 33.0519 ], [ 74.7293, 33.0534 ], [ 74.7299, 33.0604 ], [ 74.7378, 33.0613 ], [ 74.7523, 33.0516 ], [ 74.7701, 33.0511 ], [ 74.7768, 33.0375 ], [ 74.7933, 33.0343 ], [ 74.8238, 32.9879 ], [ 74.8473, 32.9772 ], [ 74.8516, 32.9428 ], [ 74.8728, 32.9506 ], [ 74.8784, 32.9595 ], [ 74.8886, 32.9551 ], [ 74.8958, 32.9242 ], [ 74.9106, 32.9236 ], [ 74.9234, 32.8982 ], [ 74.9361, 32.8872 ], [ 74.9516, 32.8927 ], [ 74.9493, 32.8992 ], [ 74.9611, 32.8961 ], [ 74.964, 32.9004 ], [ 74.9527, 32.9203 ], [ 74.954, 32.9319 ], [ 74.9632, 32.9319 ], [ 74.9609, 32.9665 ], [ 74.9879, 32.9757 ], [ 74.97, 32.9422 ], [ 74.9788, 32.9249 ], [ 75.0329, 32.8749 ], [ 75.0556, 32.8655 ], [ 75.1288, 32.8157 ], [ 75.1309, 32.7943 ], [ 75.1574, 32.7885 ], [ 75.167, 32.7678 ], [ 75.1324, 32.7496 ], [ 75.1301, 32.7395 ], [ 75.1213, 32.7444 ], [ 75.1116, 32.7413 ], [ 75.0917, 32.7209 ], [ 75.0816, 32.7346 ], [ 75.0778, 32.7318 ], [ 75.0552, 32.7426 ], [ 75.0481, 32.7414 ], [ 75.0427, 32.7282 ], [ 75.0346, 32.7341 ], [ 75.0108, 32.7323 ], [ 75.0098, 32.723 ], [ 74.9991, 32.7213 ], [ 74.9901, 32.7103 ], [ 74.966, 32.7115 ], [ 74.9548, 32.6847 ], [ 74.8958, 32.6525 ], [ 74.8967, 32.639 ], [ 74.8847, 32.6203 ], [ 74.8694, 32.621 ], [ 74.8873, 32.6082 ], [ 74.9092, 32.6277 ], [ 74.9276, 32.6124 ], [ 74.9189, 32.6056 ], [ 74.9291, 32.5951 ], [ 74.9381, 32.5908 ], [ 74.947, 32.597 ], [ 74.9506, 32.5937 ], [ 74.939, 32.5857 ], [ 74.9476, 32.583 ], [ 74.9482, 32.5721 ], [ 74.928, 32.5514 ], [ 74.9016, 32.5505 ], [ 74.9083, 32.533 ], [ 74.9008, 32.5257 ], [ 74.8925, 32.5325 ], [ 74.8855, 32.5273 ], [ 74.8914, 32.51 ], [ 74.8707, 32.486 ], [ 74.8586, 32.4928 ], [ 74.8471, 32.4892 ], [ 74.8188, 32.4979 ], [ 74.8128, 32.4796 ], [ 74.8005, 32.4823 ], [ 74.7948, 32.4764 ], [ 74.7546, 32.4821 ], [ 74.7283, 32.4808 ], [ 74.7275, 32.4758 ], [ 74.7112, 32.4782 ], [ 74.7102, 32.4926 ], [ 74.6936, 32.4865 ], [ 74.6827, 32.4922 ], [ 74.6906, 32.533 ], [ 74.6629, 32.5445 ], [ 74.6627, 32.5538 ], [ 74.6745, 32.5544 ], [ 74.6738, 32.568 ], [ 74.6525, 32.563 ], [ 74.6547, 32.5808 ], [ 74.6489, 32.588 ], [ 74.6588, 32.5968 ], [ 74.6395, 32.6035 ], [ 74.639, 32.6146 ], [ 74.6558, 32.617 ], [ 74.6551, 32.637 ], [ 74.6704, 32.6389 ], [ 74.6713, 32.6452 ], [ 74.6889, 32.6519 ], [ 74.6953, 32.6613 ], [ 74.6824, 32.6723 ], [ 74.667, 32.6753 ], [ 74.6535, 32.6967 ], [ 74.6637, 32.724 ], [ 74.6559, 32.728 ], [ 74.704, 32.817 ], [ 74.7048, 32.8419 ], [ 74.6835, 32.8368 ], [ 74.6679, 32.825 ], [ 74.6556, 32.8321 ], [ 74.6405, 32.8189 ], [ 74.6346, 32.8066 ], [ 74.6584, 32.7877 ], [ 74.654, 32.7809 ], [ 74.6397, 32.7821 ], [ 74.6323, 32.7764 ], [ 74.6304, 32.7684 ], [ 74.6384, 32.7586 ], [ 74.6343, 32.7495 ], [ 74.6192, 32.7607 ], [ 74.5768, 32.7479 ], [ 74.5762, 32.7566 ], [ 74.5629, 32.7601 ], [ 74.5543, 32.7584 ], [ 74.5482, 32.7468 ], [ 74.5433, 32.7525 ], [ 74.5319, 32.7444 ], [ 74.5116, 32.7455 ], [ 74.5116, 32.7645 ], [ 74.4861, 32.7644 ], [ 74.476, 32.7754 ], [ 74.4646, 32.7759 ], [ 74.4403, 32.8022 ], [ 74.4384, 32.8227 ] ] ] } },
{ "type": "Feature", "properties": { "district": "Kathua", "did": "jammu_and_kashmir:Kathua", "state_key": "jammu_and_kashmir" }, "geometry": { "type": "Polygon", "coordinates": [ [ [ 75.794, 32.8864 ], [ 75.806, 32.8768 ], [ 75.8186, 32.8527 ], [ 75.8527, 32.8344 ], [ 75.865, 32.8134 ], [ 75.8791, 32.8112 ], [ 75.8858, 32.7822 ], [ 75.9217, 32.7472 ], [ 75.9183, 32.7272 ], [ 75.8974, 32.6975 ], [ 75.8988, 32.6732 ], [ 75.8858, 32.6522 ], [ 75.8931, 32.6486 ], [ 75.9063, 32.6581 ], [ 75.915, 32.6531 ], [ 75.915, 32.6436 ], [ 75.9342, 32.6448 ], [ 75.9304, 32.6311 ], [ 75.9242, 32.6367 ], [ 75.9186, 32.6331 ], [ 75.9164, 32.6144 ], [ 75.9059, 32.6076 ], [ 75.8991, 32.5921 ], [ 75.8782, 32.586 ], [ 75.8777, 32.5691 ], [ 75.8661, 32.5625 ], [ 75.8735, 32.55 ], [ 75.8549, 32.5369 ], [ 75.8538, 32.5277 ], [ 75.8383, 32.5223 ], [ 75.8388, 32.5137 ], [ 75.8304, 32.5137 ], [ 75.8338, 32.5037 ], [ 75.8262, 32.5039 ], [ 75.8199, 32.4918 ], [ 75.8005, 32.4851 ], [ 75.7744, 32.4638 ], [ 75.7293, 32.4527 ], [ 75.7287, 32.4391 ], [ 75.7438, 32.4316 ], [ 75.7277, 32.4317 ], [ 75.7319, 32.4226 ], [ 75.7228, 32.4056 ], [ 75.7113, 32.4116 ], [ 75.6873, 32.3903 ], [ 75.6731, 32.3939 ], [ 75.6346, 32.3799 ], [ 75.5953, 32.377 ], [ 75.5598, 32.357 ], [ 75.5393, 32.3352 ], [ 75.5422, 32.3038 ], [ 75.5368, 32.2831 ], [ 75.5262, 32.276 ], [ 75.5039, 32.2913 ], [ 75.5133, 32.3071 ], [ 75.4819, 32.3203 ], [ 75.4815, 32.3352 ], [ 75.4949, 32.3411 ], [ 75.4891, 32.3456 ], [ 75.4691, 32.3386 ], [ 75.4678, 32.3246 ], [ 75.4481, 32.326 ], [ 75.4307, 32.3151 ], [ 75.4105, 32.3286 ], [ 75.3945, 32.3269 ], [ 75.3745, 32.3373 ], [ 75.3631, 32.3329 ], [ 75.3493, 32.3453 ], [ 75.3412, 32.3455 ], [ 75.3407, 32.3377 ], [ 75.3278, 32.3261 ], [ 75.3227, 32.3435 ], [ 75.3022, 32.3443 ], [ 75.2989, 32.3535 ], [ 75.2883, 32.3545 ], [ 75.2897, 32.3698 ], [ 75.2754, 32.3751 ], [ 75.2581, 32.3714 ], [ 75.2559, 32.3893 ], [ 75.2416, 32.3852 ], [ 75.215, 32.4013 ], [ 75.2076, 32.3947 ], [ 75.1924, 32.4019 ], [ 75.1924, 32.4101 ], [ 75.2004, 32.4138 ], [ 75.1951, 32.4437 ], [ 75.2056, 32.4469 ], [ 75.2152, 32.4603 ], [ 75.2258, 32.4608 ], [ 75.2175, 32.4812 ], [ 75.2299, 32.4989 ], [ 75.2376, 32.4997 ], [ 75.2332, 32.5048 ], [ 75.2383, 32.5175 ], [ 75.2572, 32.543 ], [ 75.2692, 32.5474 ], [ 75.2818, 32.5621 ], [ 75.2806, 32.5693 ], [ 75.2942, 32.5737 ], [ 75.2943, 32.5786 ], [ 75.3174, 32.5732 ], [ 75.344, 32.5863 ], [ 75.3433, 32.6041 ], [ 75.3204, 32.6243 ], [ 75.2895, 32.6315 ], [ 75.2844, 32.6436 ], [ 75.3324, 32.6661 ], [ 75.3459, 32.6666 ], [ 75.3461, 32.6592 ], [ 75.3577, 32.6708 ], [ 75.3584, 32.661 ], [ 75.3657, 32.662 ], [ 75.3754, 32.6688 ], [ 75.3654, 32.6782 ], [ 75.372, 32.6786 ], [ 75.3746, 32.6721 ], [ 75.3794, 32.6799 ], [ 75.3715, 32.6925 ], [ 75.3757, 32.7001 ], [ 75.3938, 32.6699 ], [ 75.415, 32.6818 ], [ 75.4288, 32.663 ], [ 75.433, 32.6724 ], [ 75.4445, 32.6745 ], [ 75.4571, 32.6652 ], [ 75.4633, 32.6674 ], [ 75.4778, 32.685 ], [ 75.4765, 32.7105 ], [ 75.4835, 32.7141 ], [ 75.4827, 32.7329 ], [ 75.4957, 32.7667 ], [ 75.5522, 32.7733 ], [ 75.5591, 32.7577 ], [ 75.574, 32.7567 ], [ 75.5829, 32.7443 ], [ 75.5863, 32.7607 ], [ 75.6163, 32.7758 ], [ 75.6561, 32.7732 ], [ 75.6906, 32.7964 ], [ 75.6904, 32.816 ], [ 75.6824, 32.8216 ], [ 75.6952, 32.8389 ], [ 75.6828, 32.8641 ], [ 75.6918, 32.8664 ], [ 75.6933, 32.8781 ], [ 75.7395, 32.8762 ], [ 75.7717, 32.8898 ], [ 75.794, 32.8864 ] ] ] } },
{ "type": "Feature", "properties": { "district": "Kishtwar", "did": "jammu_and_kashmir:Kishtwar", "state_key": "jammu_and_kashmir" }, "geometry": { "type": "Polygon", "coordinates": [ [ [ 75.6624, 34.1991 ], [ 75.6805, 34.201 ], [ 75.6907, 34.1953 ], [ 75.6845, 34.1668 ], [ 75.6679, 34.1443 ], [ 75.6857, 34.1422 ], [ 75.6832, 34.1324 ], [ 75.6912, 34.1276 ], [ 75.6874, 34.116 ], [ 75.7188, 34.1033 ], [ 75.7425, 34.0733 ], [ 75.737, 34.0589 ], [ 75.7685, 34.0549 ], [ 75.7692, 34.0413 ], [ 75.7969, 34.0304 ], [ 75.8183, 34.0075 ], [ 75.8431, 34.0048 ], [ 75.8196, 33.9722 ], [ 75.8307, 33.9587 ], [ 75.8444, 33.9542 ], [ 75.8525, 33.9623 ], [ 75.9085, 33.9689 ], [ 75.9665, 33.9545 ], [ 75.9782, 33.9722 ], [ 76.018, 33.9751 ], [ 76.0244, 33.9821 ], [ 76.0495, 33.9339 ], [ 76.0326, 33.9197 ], [ 76.123, 33.889 ], [ 76.1367, 33.8786 ], [ 76.16, 33.8369 ], [ 76.1569, 33.83 ], [ 76.166, 33.8193 ], [ 76.1614, 33.8019 ], [ 76.1847, 33.8002 ], [ 76.1987, 33.7872 ], [ 76.2004, 33.7756 ], [ 76.2108, 33.7712 ], [ 76.2126, 33.7612 ], [ 76.2471, 33.7585 ], [ 76.2652, 33.7469 ], [ 76.2712, 33.7307 ], [ 76.2632, 33.7121 ], [ 76.2662, 33.6795 ], [ 76.2847, 33.6618 ], [ 76.2705, 33.6433 ], [ 76.2294, 33.6298 ], [ 76.2403, 33.6048 ], [ 76.2242, 33.6003 ], [ 76.2314, 33.5869 ], [ 76.2252, 33.5773 ], [ 76.2054, 33.5692 ], [ 76.225, 33.5476 ], [ 76.2457, 33.5455 ], [ 76.2596, 33.565 ], [ 76.303, 33.5676 ], [ 76.3103, 33.5737 ], [ 76.2996, 33.5982 ], [ 76.3065, 33.6096 ], [ 76.3232, 33.6023 ], [ 76.3362, 33.6105 ], [ 76.3593, 33.6033 ], [ 76.3665, 33.5858 ], [ 76.3807, 33.577 ], [ 76.3748, 33.5659 ], [ 76.3803, 33.5525 ], [ 76.4264, 33.5373 ], [ 76.4507, 33.5625 ], [ 76.4647, 33.5452 ], [ 76.4592, 33.5339 ], [ 76.5021, 33.516 ], [ 76.5078, 33.4996 ], [ 76.5229, 33.4934 ], [ 76.5496, 33.4641 ], [ 76.5695, 33.4662 ], [ 76.5818, 33.4258 ], [ 76.5934, 33.4258 ], [ 76.6164, 33.4399 ], [ 76.629, 33.4349 ], [ 76.637, 33.4155 ], [ 76.6321, 33.4092 ], [ 76.6515, 33.3834 ], [ 76.6593, 33.3567 ], [ 76.6724, 33.3492 ], [ 76.6739, 33.3393 ], [ 76.696, 33.328 ], [ 76.7177, 33.329 ], [ 76.7321, 33.2993 ], [ 76.7277, 33.2835 ], [ 76.7385, 33.2687 ], [ 76.7371, 33.2611 ], [ 76.7543, 33.2487 ], [ 76.7709, 33.2493 ], [ 76.7788, 33.2395 ], [ 76.7758, 33.2205 ], [ 76.7501, 33.1915 ], [ 76.7468, 33.1784 ], [ 76.7093, 33.1807 ], [ 76.6996, 33.1732 ], [ 76.6646, 33.1713 ], [ 76.6394, 33.1617 ], [ 76.6126, 33.1734 ], [ 76.6111, 33.1873 ], [ 76.5986, 33.1903 ], [ 76.5959, 33.2059 ], [ 76.5616, 33.2095 ], [ 76.5472, 33.1986 ], [ 76.5093, 33.1958 ], [ 76.4806, 33.1789 ], [ 76.4039, 33.1858 ], [ 76.3685, 33.1535 ], [ 76.3052, 33.1196 ], [ 76.2859, 33.1024 ], [ 76.2828, 33.0768 ], [ 76.2897, 33.0568 ], [ 76.2763, 33.0511 ], [ 76.272, 33.0365 ], [ 76.2554, 33.034 ], [ 76.2428, 33.0208 ], [ 76.2308, 33.021 ], [ 76.2221, 33.023 ], [ 76.2354, 33.0562 ], [ 76.2281, 33.0911 ], [ 76.2179, 33.085 ], [ 76.2022, 33.0957 ], [ 76.1989, 33.1101 ], [ 76.1777, 33.1199 ], [ 76.1717, 33.149 ], [ 76.1505, 33.1664 ], [ 76.1186, 33.1758 ], [ 76.1201, 33.1576 ], [ 76.1099, 33.1262 ], [ 76.0766, 33.1185 ], [ 76.0561, 33.1065 ], [ 75.9993, 33.1026 ], [ 75.9842, 33.1218 ], [ 75.9664, 33.1192 ], [ 75.9687, 33.1264 ], [ 75.9606, 33.1303 ], [ 75.9289, 33.1141 ], [ 75.916, 33.1372 ], [ 75.9001, 33.1344 ], [ 75.8945, 33.1177 ], [ 75.8551, 33.1208 ], [ 75.8527, 33.1329 ], [ 75.8387, 33.1383 ], [ 75.832, 33.1488 ], [ 75.8194, 33.1519 ], [ 75.8002, 33.1433 ], [ 75.797, 33.1562 ], [ 75.8062, 33.1714 ], [ 75.7875, 33.1748 ], [ 75.7614, 33.1975 ], [ 75.7374, 33.2045 ], [ 75.7184, 33.2188 ], [ 75.7149, 33.234 ], [ 75.6922, 33.2541 ], [ 75.6602, 33.2577 ], [ 75.6481, 33.2501 ], [ 75.5978, 33.2749 ], [ 75.5967, 33.288 ], [ 75.5806, 33.3143 ], [ 75.5666, 33.323 ], [ 75.5647, 33.3347 ], [ 75.5417, 33.3506 ], [ 75.5395, 33.3722 ], [ 75.5171, 33.3943 ], [ 75.4819, 33.4073 ], [ 75.4741, 33.4191 ], [ 75.4897, 33.453 ], [ 75.469, 33.4848 ], [ 75.4669, 33.4996 ], [ 75.4865, 33.5229 ], [ 75.5103, 33.5288 ], [ 75.5139, 33.5417 ], [ 75.5027, 33.5499 ], [ 75.5064, 33.5732 ], [ 75.5346, 33.6012 ], [ 75.522, 33.6163 ], [ 75.5225, 33.6244 ], [ 75.5098, 33.619 ], [ 75.5105, 33.6313 ], [ 75.5, 33.6289 ], [ 75.5046, 33.6478 ], [ 75.5167, 33.6544 ], [ 75.5082, 33.662 ], [ 75.5091, 33.6817 ], [ 75.5, 33.6963 ], [ 75.521, 33.7153 ], [ 75.4952, 33.7391 ], [ 75.4635, 33.7571 ], [ 75.4685, 33.7727 ], [ 75.4818, 33.7849 ], [ 75.4607, 33.7945 ], [ 75.4513, 33.8083 ], [ 75.455, 33.8147 ], [ 75.4432, 33.8208 ], [ 75.4431, 33.8291 ], [ 75.4265, 33.8457 ], [ 75.414, 33.8862 ], [ 75.3936, 33.9028 ], [ 75.3911, 33.9161 ], [ 75.3972, 33.9305 ], [ 75.3892, 33.9374 ], [ 75.3963, 33.9404 ], [ 75.3951, 33.9641 ], [ 75.4147, 33.9804 ], [ 75.4296, 33.9847 ], [ 75.4383, 34.0025 ], [ 75.4331, 34.0197 ], [ 75.4466, 34.0399 ], [ 75.4567, 34.0363 ], [ 75.4649, 34.0431 ], [ 75.4795, 34.0385 ], [ 75.4879, 34.0448 ], [ 75.5047, 34.0387 ], [ 75.5216, 34.0463 ], [ 75.5318, 34.0622 ], [ 75.5272, 34.0953 ], [ 75.5373, 34.1091 ], [ 75.5329, 34.1187 ], [ 75.549, 34.1524 ], [ 75.5723, 34.1567 ], [ 75.5764, 34.1698 ], [ 75.5881, 34.1755 ], [ 75.5934, 34.1977 ], [ 75.6046, 34.1952 ], [ 75.6381, 34.2103 ], [ 75.6515, 34.2106 ], [ 75.6624, 34.1991 ] ] ] } },
{ "type": "Feature", "properties": { "district": "Kulgam", "did": "jammu_and_kashmir:Kulgam", "state_key": "jammu_and_kashmir" }, "geometry": { "type": "Polygon", "coordinates": [ [ [ 75.1061, 33.8069 ], [ 75.1033, 33.772 ], [ 75.113, 33.7709 ], [ 75.1174, 33.7778 ], [ 75.1219, 33.765 ], [ 75.1276, 33.7352 ], [ 75.1206, 33.7364 ], [ 75.1117, 33.7282 ], [ 75.1295, 33.7152 ], [ 75.1203, 33.7013 ], [ 75.107, 33.7053 ], [ 75.0982, 33.6883 ], [ 75.1077, 33.6856 ], [ 75.1017, 33.673 ], [ 75.1206, 33.6729 ], [ 75.1375, 33.6542 ], [ 75.12, 33.6491 ], [ 75.1249, 33.6338 ], [ 75.1305, 33.6359 ], [ 75.1357, 33.6283 ], [ 75.1265, 33.6203 ], [ 75.1404, 33.6062 ], [ 75.1347, 33.5897 ], [ 75.1613, 33.5888 ], [ 75.1661, 33.5966 ], [ 75.175, 33.5915 ], [ 75.1695, 33.5906 ], [ 75.17, 33.5796 ], [ 75.1418, 33.5356 ], [ 75.1413, 33.5253 ], [ 75.1571, 33.5238 ], [ 75.1311, 33.513 ], [ 75.1142, 33.498 ], [ 75.0946, 33.5021 ], [ 75.0819, 33.4945 ], [ 75.0513, 33.5033 ], [ 75.0271, 33.5021 ], [ 75.0144, 33.5122 ], [ 75.0046, 33.5055 ], [ 74.9924, 33.5135 ], [ 74.9659, 33.515 ], [ 74.9546, 33.5134 ], [ 74.9525, 33.4979 ], [ 74.9406, 33.4932 ], [ 74.9168, 33.499 ], [ 74.8924, 33.4827 ], [ 74.8734, 33.486 ], [ 74.8645, 33.4842 ], [ 74.8584, 33.4746 ], [ 74.8386, 33.4788 ], [ 74.8314, 33.4681 ], [ 74.796, 33.4679 ], [ 74.7889, 33.4737 ], [ 74.7956, 33.4802 ], [ 74.7884, 33.4879 ], [ 74.7587, 33.4907 ], [ 74.7093, 33.526 ], [ 74.6838, 33.5144 ], [ 74.6799, 33.5049 ], [ 74.6563, 33.5056 ], [ 74.6498, 33.515 ], [ 74.642, 33.5034 ], [ 74.6278, 33.4978 ], [ 74.607, 33.496 ], [ 74.59, 33.5028 ], [ 74.5882, 33.5095 ], [ 74.5707, 33.5032 ], [ 74.5758, 33.5142 ], [ 74.5655, 33.524 ], [ 74.5476, 33.5307 ], [ 74.5378, 33.5279 ], [ 74.5291, 33.5468 ], [ 74.516, 33.5536 ], [ 74.5279, 33.5671 ], [ 74.5138, 33.5997 ], [ 74.5273, 33.6168 ], [ 74.5197, 33.6413 ], [ 74.5294, 33.6433 ], [ 74.5435, 33.6802 ], [ 74.5602, 33.6903 ], [ 74.6023, 33.6821 ], [ 74.6103, 33.6954 ], [ 74.6476, 33.6908 ], [ 74.6659, 33.6934 ], [ 74.6813, 33.7039 ], [ 74.7307, 33.6877 ], [ 74.7356, 33.6822 ], [ 74.7293, 33.6826 ], [ 74.729, 33.6744 ], [ 74.7375, 33.6683 ], [ 74.7871, 33.681 ], [ 74.7865, 33.6688 ], [ 74.7791, 33.6714 ], [ 74.7764, 33.6658 ], [ 74.781, 33.6475 ], [ 74.7892, 33.6586 ], [ 74.8035, 33.6542 ], [ 74.83, 33.6575 ], [ 74.8709, 33.6279 ], [ 74.8828, 33.6297 ], [ 74.9059, 33.6475 ], [ 74.9041, 33.6534 ], [ 74.9162, 33.6576 ], [ 74.9091, 33.6684 ], [ 74.9302, 33.671 ], [ 74.9376, 33.6595 ], [ 74.9425, 33.6717 ], [ 74.9684, 33.6847 ], [ 74.96, 33.6853 ], [ 74.9607, 33.6963 ], [ 74.9678, 33.6959 ], [ 74.9524, 33.7413 ], [ 75.0002, 33.742 ], [ 74.9951, 33.748 ], [ 74.9994, 33.7527 ], [ 75.0191, 33.741 ], [ 75.0383, 33.7732 ], [ 75.0301, 33.7777 ], [ 75.0303, 33.7945 ], [ 75.0511, 33.7995 ], [ 75.053, 33.8125 ], [ 75.0654, 33.818 ], [ 75.0591, 33.8328 ], [ 75.0671, 33.8403 ], [ 75.0925, 33.8134 ], [ 75.1061, 33.8069 ] ] ] } },
{ "type": "Feature", "properties": { "district": "Kupwara", "did": "jammu_and_kashmir:Kupwara", "state_key": "jammu_and_kashmir" }, "geometry": { "type": "Polygon", "coordinates": [ [ [ 74.3776, 34.7908 ], [ 74.3966, 34.7843 ], [ 74.4167, 34.7886 ], [ 74.4377, 34.7837 ], [ 74.4563, 34.789 ], [ 74.4818, 34.7825 ], [ 74.4998, 34.7883 ], [ 74.5448, 34.7822 ], [ 74.5918, 34.7653 ], [ 74.6061, 34.7378 ], [ 74.5909, 34.7113 ], [ 74.5667, 34.6877 ], [ 74.5639, 34.6404 ], [ 74.5589, 34.63 ], [ 74.5474, 34.6242 ], [ 74.5475, 34.6045 ], [ 74.5217, 34.5527 ], [ 74.5314, 34.5381 ], [ 74.5349, 34.5121 ], [ 74.5208, 34.502 ], [ 74.5178, 34.4842 ], [ 74.4851, 34.4625 ], [ 74.4794, 34.4326 ], [ 74.4679, 34.4305 ], [ 74.4502, 34.4158 ], [ 74.4075, 34.4156 ], [ 74.3927, 34.4375 ], [ 74.3461, 34.4236 ], [ 74.3499, 34.399 ], [ 74.3789, 34.39 ], [ 74.3827, 34.3837 ], [ 74.3734, 34.3668 ], [ 74.3899, 34.3594 ], [ 74.3902, 34.3488 ], [ 74.3818, 34.3488 ], [ 74.3769, 34.3382 ], [ 74.354, 34.3282 ], [ 74.3337, 34.3105 ], [ 74.3102, 34.3181 ], [ 74.2701, 34.3063 ], [ 74.2593, 34.31 ], [ 74.2351, 34.3045 ], [ 74.1993, 34.2832 ], [ 74.1648, 34.2762 ], [ 74.1442, 34.2816 ], [ 74.1267, 34.2703 ], [ 74.1052, 34.2713 ], [ 74.0761, 34.2602 ], [ 74.0357, 34.2582 ], [ 74.036, 34.2495 ], [ 74.0229, 34.2446 ], [ 73.9833, 34.258 ], [ 73.9797, 34.2716 ], [ 73.9413, 34.2748 ], [ 73.9338, 34.2828 ], [ 73.9386, 34.3093 ], [ 73.9147, 34.3038 ], [ 73.9333, 34.335 ], [ 73.9212, 34.3371 ], [ 73.9116, 34.348 ], [ 73.9002, 34.3488 ], [ 73.8989, 34.34 ], [ 73.884, 34.3314 ], [ 73.8628, 34.3346 ], [ 73.8528, 34.3211 ], [ 73.8346, 34.3315 ], [ 73.809, 34.3342 ], [ 73.8071, 34.3449 ], [ 73.7827, 34.3335 ], [ 73.7527, 34.346 ], [ 73.754, 34.3813 ], [ 73.7678, 34.3864 ], [ 73.8032, 34.4239 ], [ 73.8389, 34.422 ], [ 73.8391, 34.4309 ], [ 73.8482, 34.428 ], [ 73.8761, 34.4502 ], [ 73.8848, 34.4495 ], [ 73.879, 34.4766 ], [ 73.8955, 34.5146 ], [ 73.9115, 34.5197 ], [ 73.9051, 34.5291 ], [ 73.9569, 34.5651 ], [ 73.9521, 34.5695 ], [ 73.9609, 34.5823 ], [ 73.9527, 34.5828 ], [ 73.9554, 34.5975 ], [ 73.9299, 34.6045 ], [ 73.9316, 34.6408 ], [ 73.9356, 34.6475 ], [ 73.9528, 34.6498 ], [ 73.9483, 34.6565 ], [ 73.957, 34.6654 ], [ 73.9538, 34.6723 ], [ 73.9704, 34.6886 ], [ 73.9952, 34.6829 ], [ 74.0172, 34.6943 ], [ 74.03, 34.6944 ], [ 74.0514, 34.6807 ], [ 74.087, 34.6843 ], [ 74.0954, 34.6918 ], [ 74.1006, 34.6891 ], [ 74.1014, 34.6661 ], [ 74.1168, 34.6524 ], [ 74.133, 34.6518 ], [ 74.1475, 34.6851 ], [ 74.202, 34.7174 ], [ 74.2704, 34.7463 ], [ 74.3131, 34.7916 ], [ 74.3253, 34.7939 ], [ 74.3415, 34.7861 ], [ 74.3776, 34.7908 ] ] ] } },
{ "type": "Feature", "properties": { "district": "Mirpur", "did": "jammu_and_kashmir:Mirpur", "state_key": "jammu_and_kashmir" }, "geometry": { "type": "Polygon", "coordinates": [ [ [ 74.3126, 32.9364 ], [ 74.3126, 32.9291 ], [ 74.3255, 32.9207 ], [ 74.3713, 32.9203 ], [ 74.3776, 32.9152 ], [ 74.3731, 32.9142 ], [ 74.4152, 32.8986 ], [ 74.4188, 32.887 ], [ 74.4122, 32.8701 ], [ 74.4215, 32.8544 ], [ 74.4192, 32.841 ], [ 74.4384, 32.8227 ], [ 74.4403, 32.8022 ], [ 74.459, 32.7876 ], [ 74.4153, 32.7846 ], [ 74.4029, 32.7674 ], [ 74.3942, 32.7721 ], [ 74.391, 32.7632 ], [ 74.355, 32.767 ], [ 74.3513, 32.7746 ], [ 74.3337, 32.7804 ], [ 74.3145, 32.7968 ], [ 74.3151, 32.8048 ], [ 74.3083, 32.8076 ], [ 74.3128, 32.8222 ], [ 74.3034, 32.8298 ], [ 74.2677, 32.8322 ], [ 74.2634, 32.8421 ], [ 74.2196, 32.8488 ], [ 74.2198, 32.8623 ], [ 74.2142, 32.8627 ], [ 74.2113, 32.8734 ], [ 74.1943, 32.8739 ], [ 74.1788, 32.8895 ], [ 74.1656, 32.8869 ], [ 74.069, 32.9096 ], [ 74.0597, 32.9201 ], [ 74.0582, 32.9345 ], [ 74.0245, 32.9297 ], [ 73.9997, 32.9354 ], [ 74.0062, 32.9549 ], [ 73.9983, 32.962 ], [ 73.9724, 32.9672 ], [ 73.9646, 32.9871 ], [ 73.9414, 32.9824 ], [ 73.9083, 33.0014 ], [ 73.8805, 32.9975 ], [ 73.8694, 33.0028 ], [ 73.8257, 33.004 ], [ 73.826, 32.9772 ], [ 73.8093, 32.9676 ], [ 73.7904, 32.9668 ], [ 73.7983, 32.9889 ], [ 73.7945, 33.0036 ], [ 73.7491, 33.0336 ], [ 73.7499, 33.058 ], [ 73.7428, 33.0662 ], [ 73.6854, 33.0875 ], [ 73.6728, 33.0822 ], [ 73.6377, 33.0846 ], [ 73.6313, 33.1176 ], [ 73.6393, 33.1281 ], [ 73.6312, 33.1395 ], [ 73.6487, 33.1375 ], [ 73.6499, 33.1566 ], [ 73.6645, 33.1613 ], [ 73.6626, 33.1917 ], [ 73.668, 33.2019 ], [ 73.6476, 33.2228 ], [ 73.6395, 33.205 ], [ 73.6335, 33.2076 ], [ 73.6317, 33.2232 ], [ 73.6376, 33.2304 ], [ 73.6218, 33.236 ], [ 73.6065, 33.2737 ], [ 73.6055, 33.2854 ], [ 73.6142, 33.2929 ], [ 73.5956, 33.3028 ], [ 73.5893, 33.3235 ], [ 73.5994, 33.3295 ], [ 73.598, 33.3375 ], [ 73.5936, 33.3401 ], [ 73.5784, 33.3286 ], [ 73.5705, 33.343 ], [ 73.5838, 33.3557 ], [ 73.5719, 33.3566 ], [ 73.5652, 33.3663 ], [ 73.5733, 33.3918 ], [ 73.5909, 33.4132 ], [ 73.6032, 33.4191 ], [ 73.5867, 33.4228 ], [ 73.5959, 33.4294 ], [ 73.5961, 33.439 ], [ 73.6094, 33.4382 ], [ 73.6159, 33.4477 ], [ 73.6319, 33.4476 ], [ 73.6305, 33.46 ], [ 73.62, 33.4625 ], [ 73.6187, 33.4762 ], [ 73.6105, 33.4709 ], [ 73.6021, 33.4967 ], [ 73.6054, 33.5003 ], [ 73.6187, 33.4954 ], [ 73.6114, 33.5131 ], [ 73.6418, 33.5285 ], [ 73.6244, 33.5409 ], [ 73.6287, 33.5711 ], [ 73.605, 33.5887 ], [ 73.6119, 33.6038 ], [ 73.5985, 33.6002 ], [ 73.5883, 33.6154 ], [ 73.5672, 33.6177 ], [ 73.5777, 33.6381 ], [ 73.5675, 33.6685 ], [ 73.5982, 33.7015 ], [ 73.6396, 33.6467 ], [ 73.6953, 33.6281 ], [ 73.7367, 33.5784 ], [ 73.7478, 33.596 ], [ 73.745, 33.6195 ], [ 73.7492, 33.62 ], [ 73.7729, 33.6108 ], [ 73.7918, 33.6201 ], [ 73.812, 33.6178 ], [ 73.8384, 33.5913 ], [ 73.8518, 33.5867 ], [ 73.8739, 33.6021 ], [ 73.8873, 33.5961 ], [ 73.9276, 33.601 ], [ 73.952, 33.6202 ], [ 74.0054, 33.5986 ], [ 74.0202, 33.604 ], [ 74.0272, 33.5982 ], [ 74.0361, 33.6029 ], [ 74.0934, 33.594 ], [ 74.0962, 33.5883 ], [ 74.0813, 33.5751 ], [ 74.0802, 33.5631 ], [ 74.0551, 33.5524 ], [ 74.0486, 33.5422 ], [ 74.0315, 33.5376 ], [ 74.0384, 33.5215 ], [ 74.0257, 33.5183 ], [ 74.0647, 33.4743 ], [ 74.0659, 33.4686 ], [ 74.0537, 33.4598 ], [ 74.0908, 33.4117 ], [ 74.0903, 33.3957 ], [ 74.1384, 33.391 ], [ 74.1454, 33.3706 ], [ 74.1666, 33.3574 ], [ 74.1655, 33.3512 ], [ 74.1407, 33.3343 ], [ 74.1506, 33.3207 ], [ 74.1371, 33.3074 ], [ 74.0917, 33.2848 ], [ 74.0545, 33.2765 ], [ 74.01, 33.2534 ], [ 74.0021, 33.2379 ], [ 74.0066, 33.2137 ], [ 74.0359, 33.1962 ], [ 74.0485, 33.2005 ], [ 74.0522, 33.1941 ], [ 74.0696, 33.1951 ], [ 74.0868, 33.1734 ], [ 74.1165, 33.1594 ], [ 74.1305, 33.1597 ], [ 74.1338, 33.1494 ], [ 74.1421, 33.1477 ], [ 74.1627, 33.1231 ], [ 74.1595, 33.1104 ], [ 74.1821, 33.0907 ], [ 74.1707, 33.0742 ], [ 74.2084, 33.0672 ], [ 74.2492, 33.0456 ], [ 74.3021, 33.0314 ], [ 74.3246, 33.0316 ], [ 74.3206, 33.0074 ], [ 74.3398, 32.9544 ], [ 74.3126, 32.9364 ] ] ] } },
{ "type": "Feature", "properties": { "district": "Muzaffarabad", "did": "jammu_and_kashmir:Muzaffarabad", "state_key": "jammu_and_kashmir" }, "geometry": { "type": "Polygon", "coordinates": [ [ [ 74.5301, 35.0601 ], [ 74.5307, 35.0462 ], [ 74.5605, 35.026 ], [ 74.5784, 35.0243 ], [ 74.5878, 35.0064 ], [ 74.5705, 34.9756 ], [ 74.577, 34.9139 ], [ 74.5679, 34.8831 ], [ 74.5391, 34.8659 ], [ 74.5236, 34.8642 ], [ 74.5014, 34.8717 ], [ 74.4563, 34.8607 ], [ 74.434, 34.8465 ], [ 74.4299, 34.8224 ], [ 74.4135, 34.8099 ], [ 74.3131, 34.7916 ], [ 74.2704, 34.7463 ], [ 74.202, 34.7174 ], [ 74.1475, 34.6851 ], [ 74.133, 34.6518 ], [ 74.1168, 34.6524 ], [ 74.1014, 34.6661 ], [ 74.1006, 34.6891 ], [ 74.0954, 34.6918 ], [ 74.087, 34.6843 ], [ 74.0514, 34.6807 ], [ 74.03, 34.6944 ], [ 74.0172, 34.6943 ], [ 73.9952, 34.6829 ], [ 73.9704, 34.6886 ], [ 73.9538, 34.6723 ], [ 73.957, 34.6654 ], [ 73.9483, 34.6565 ], [ 73.9528, 34.6498 ], [ 73.9356, 34.6475 ], [ 73.9316, 34.6408 ], [ 73.9299, 34.6045 ], [ 73.9554, 34.5975 ], [ 73.9527, 34.5828 ], [ 73.9609, 34.5823 ], [ 73.9521, 34.5695 ], [ 73.9569, 34.5651 ], [ 73.9051, 34.5291 ], [ 73.9115, 34.5197 ], [ 73.8955, 34.5146 ], [ 73.879, 34.4766 ], [ 73.8848, 34.4495 ], [ 73.8761, 34.4502 ], [ 73.8482, 34.428 ], [ 73.8391, 34.4309 ], [ 73.8389, 34.422 ], [ 73.8032, 34.4239 ], [ 73.7678, 34.3864 ], [ 73.754, 34.3813 ], [ 73.7499, 34.3689 ], [ 73.7565, 34.3622 ], [ 73.7527, 34.346 ], [ 73.7725, 34.3354 ], [ 73.786, 34.3342 ], [ 73.8071, 34.3449 ], [ 73.809, 34.3342 ], [ 73.8346, 34.3315 ], [ 73.8521, 34.3212 ], [ 73.859, 34.323 ], [ 73.8628, 34.3346 ], [ 73.884, 34.3314 ], [ 73.8989, 34.34 ], [ 73.9002, 34.3488 ], [ 73.9116, 34.348 ], [ 73.9128, 34.3421 ], [ 73.9336, 34.3344 ], [ 73.9147, 34.3038 ], [ 73.9386, 34.3093 ], [ 73.9338, 34.2828 ], [ 73.9419, 34.2744 ], [ 73.9797, 34.2716 ], [ 73.9841, 34.2565 ], [ 74.0062, 34.2297 ], [ 74.0071, 34.2157 ], [ 73.9979, 34.2083 ], [ 74.0053, 34.1923 ], [ 73.9987, 34.1822 ], [ 73.9603, 34.1511 ], [ 73.9315, 34.1415 ], [ 73.9267, 34.1035 ], [ 73.9053, 34.107 ], [ 73.8902, 34.0638 ], [ 73.9057, 34.0439 ], [ 73.9411, 34.0193 ], [ 73.9665, 34.011 ], [ 73.9984, 34.0192 ], [ 74.0246, 34.0 ], [ 74.0288, 34.0119 ], [ 74.0415, 34.0186 ], [ 74.0528, 34.0134 ], [ 74.068, 34.0218 ], [ 74.0918, 34.0175 ], [ 74.1054, 34.0387 ], [ 74.1205, 34.0366 ], [ 74.1212, 34.048 ], [ 74.175, 34.0267 ], [ 74.2118, 34.0346 ], [ 74.2446, 34.0245 ], [ 74.2556, 34.0032 ], [ 74.2053, 34.0007 ], [ 74.1855, 33.9895 ], [ 74.1301, 34.0008 ], [ 74.1027, 33.9815 ], [ 74.0284, 33.9568 ], [ 74.0094, 33.9606 ], [ 73.9941, 33.9862 ], [ 73.9581, 33.9949 ], [ 73.9247, 34.0207 ], [ 73.8828, 34.0287 ], [ 73.8408, 34.0758 ], [ 73.791, 34.0872 ], [ 73.7884, 34.0826 ], [ 73.7427, 34.0762 ], [ 73.6973, 34.0762 ], [ 73.6843, 34.0608 ], [ 73.6421, 34.0573 ], [ 73.6182, 34.0841 ], [ 73.6086, 34.0681 ], [ 73.6008, 34.0667 ], [ 73.5798, 34.0921 ], [ 73.5465, 34.1163 ], [ 73.5288, 34.144 ], [ 73.4933, 34.1465 ], [ 73.4911, 34.1853 ], [ 73.4985, 34.2112 ], [ 73.4728, 34.2523 ], [ 73.4759, 34.2677 ], [ 73.4845, 34.2746 ], [ 73.4808, 34.2894 ], [ 73.4755, 34.2913 ], [ 73.4567, 34.2765 ], [ 73.4604, 34.2891 ], [ 73.4455, 34.3031 ], [ 73.4445, 34.3214 ], [ 73.4251, 34.3372 ], [ 73.4299, 34.3463 ], [ 73.4079, 34.3503 ], [ 73.3961, 34.3716 ], [ 73.4092, 34.3776 ], [ 73.4277, 34.426 ], [ 73.4219, 34.4661 ], [ 73.4352, 34.4849 ], [ 73.4373, 34.5065 ], [ 73.4308, 34.5213 ], [ 73.4463, 34.5396 ], [ 73.4435, 34.5556 ], [ 73.4505, 34.5699 ], [ 73.4932, 34.5748 ], [ 73.5322, 34.571 ], [ 73.5561, 34.5898 ], [ 73.5723, 34.5837 ], [ 73.6111, 34.5848 ], [ 73.633, 34.5626 ], [ 73.6503, 34.562 ], [ 73.6598, 34.5797 ], [ 73.6538, 34.6005 ], [ 73.695, 34.6501 ], [ 73.6635, 34.6632 ], [ 73.6591, 34.6731 ], [ 73.6846, 34.7075 ], [ 73.7046, 34.722 ], [ 73.7299, 34.7722 ], [ 73.7723, 34.7961 ], [ 73.8218, 34.7921 ], [ 73.8377, 34.8132 ], [ 73.8567, 34.8085 ], [ 73.895, 34.819 ], [ 73.9194, 34.8116 ], [ 73.9305, 34.8324 ], [ 73.961, 34.8386 ], [ 73.9674, 34.8638 ], [ 73.9927, 34.8659 ], [ 74.0005, 34.8752 ], [ 74.0299, 34.8763 ], [ 74.042, 34.891 ], [ 74.0347, 34.9015 ], [ 74.0372, 34.9192 ], [ 74.0712, 34.9355 ], [ 74.0593, 34.9927 ], [ 74.0896, 35.0018 ], [ 74.1097, 35.0161 ], [ 74.0982, 35.0322 ], [ 74.0667, 35.0463 ], [ 74.0819, 35.0794 ], [ 74.1014, 35.0991 ], [ 74.1337, 35.1046 ], [ 74.1561, 35.0909 ], [ 74.2151, 35.0937 ], [ 74.2199, 35.0753 ], [ 74.2402, 35.0791 ], [ 74.2451, 35.0521 ], [ 74.2652, 35.0409 ], [ 74.2882, 35.0477 ], [ 74.2927, 35.0645 ], [ 74.3052, 35.0676 ], [ 74.382, 35.0678 ], [ 74.4153, 35.1117 ], [ 74.4387, 35.1301 ], [ 74.4994, 35.1156 ], [ 74.5398, 35.075 ], [ 74.5301, 35.0601 ] ] ] } },
{ "type": "Feature", "properties": { "district": "Pulwama", "did": "jammu_and_kashmir:Pulwama", "state_key": "jammu_and_kashmir" }, "geometry": { "type": "Polygon", "coordinates": [ [ [ 74.973, 34.0523 ], [ 74.9838, 34.0462 ], [ 74.9924, 34.0498 ], [ 74.9928, 34.0586 ], [ 75.0153, 34.085 ], [ 75.035, 34.0837 ], [ 75.038, 34.0957 ], [ 75.0452, 34.0947 ], [ 75.0606, 34.1096 ], [ 75.1097, 34.0984 ], [ 75.1142, 34.0891 ], [ 75.1496, 34.0943 ], [ 75.1541, 34.0776 ], [ 75.2046, 34.0688 ], [ 75.2187, 34.0368 ], [ 75.2335, 34.0317 ], [ 75.2337, 34.021 ], [ 75.2227, 34.0169 ], [ 75.2201, 33.9812 ], [ 75.226, 33.9545 ], [ 75.1939, 33.9053 ], [ 75.1651, 33.9001 ], [ 75.1429, 33.8736 ], [ 75.1322, 33.8755 ], [ 75.1215, 33.8658 ], [ 75.101, 33.8712 ], [ 75.0811, 33.8529 ], [ 75.0644, 33.8517 ], [ 75.0568, 33.8585 ], [ 75.0465, 33.853 ], [ 75.0673, 33.8386 ], [ 75.0591, 33.8328 ], [ 75.0654, 33.818 ], [ 75.0496, 33.8113 ], [ 75.0402, 33.8157 ], [ 75.0415, 33.8108 ], [ 75.0276, 33.8086 ], [ 75.0007, 33.8118 ], [ 75.0031, 33.801 ], [ 74.9962, 33.7993 ], [ 74.9803, 33.8094 ], [ 74.9661, 33.7951 ], [ 74.9406, 33.7914 ], [ 74.9358, 33.8028 ], [ 74.927, 33.8011 ], [ 74.934, 33.8095 ], [ 74.9215, 33.8139 ], [ 74.9102, 33.806 ], [ 74.9, 33.8088 ], [ 74.878, 33.791 ], [ 74.8566, 33.7998 ], [ 74.8774, 33.8171 ], [ 74.8626, 33.815 ], [ 74.8502, 33.8215 ], [ 74.825, 33.7853 ], [ 74.7983, 33.7999 ], [ 74.7777, 33.7912 ], [ 74.7585, 33.8086 ], [ 74.7118, 33.7952 ], [ 74.7167, 33.8085 ], [ 74.723, 33.8064 ], [ 74.7419, 33.8218 ], [ 74.7561, 33.8213 ], [ 74.7576, 33.812 ], [ 74.7713, 33.81 ], [ 74.7759, 33.8214 ], [ 74.7957, 33.8266 ], [ 74.7907, 33.8354 ], [ 74.8186, 33.8653 ], [ 74.8207, 33.8939 ], [ 74.8381, 33.9166 ], [ 74.8404, 33.9331 ], [ 74.8447, 33.9308 ], [ 74.8912, 33.991 ], [ 74.9023, 33.9959 ], [ 74.9001, 34.012 ], [ 74.9163, 34.0213 ], [ 74.9104, 34.0245 ], [ 74.8974, 34.0181 ], [ 74.9014, 34.0336 ], [ 74.9156, 34.0371 ], [ 74.9195, 34.0297 ], [ 74.9271, 34.0378 ], [ 74.9311, 34.0288 ], [ 74.9432, 34.0268 ], [ 74.9514, 34.0294 ], [ 74.9576, 34.0414 ], [ 74.973, 34.0523 ] ] ] } },
{ "type": "Feature", "properties": { "district": "Punch", "did": "jammu_and_kashmir:Punch", "state_key": "jammu_and_kashmir" }, "geometry": { "type": "Polygon", "coordinates": [ [ [ 73.5465, 34.1163 ], [ 73.5798, 34.0921 ], [ 73.6008, 34.0667 ], [ 73.6086, 34.0681 ], [ 73.6182, 34.0841 ], [ 73.6421, 34.0573 ], [ 73.6843, 34.0608 ], [ 73.6973, 34.0762 ], [ 73.7427, 34.0762 ], [ 73.7884, 34.0826 ], [ 73.791, 34.0872 ], [ 73.8408, 34.0758 ], [ 73.8739, 34.0346 ], [ 73.9247, 34.0207 ], [ 73.9581, 33.9949 ], [ 73.9941, 33.9862 ], [ 74.0094, 33.9606 ], [ 74.0371, 33.9561 ], [ 74.1027, 33.9815 ], [ 74.1301, 34.0008 ], [ 74.1855, 33.9895 ], [ 74.2053, 34.0007 ], [ 74.2556, 34.0032 ], [ 74.2716, 33.9865 ], [ 74.3021, 33.9955 ], [ 74.317, 33.9749 ], [ 74.3122, 33.9711 ], [ 74.3165, 33.957 ], [ 74.3326, 33.9523 ], [ 74.3536, 33.9566 ], [ 74.3874, 33.9459 ], [ 74.4099, 33.9091 ], [ 74.4192, 33.9084 ], [ 74.409, 33.8962 ], [ 74.4151, 33.8878 ], [ 74.4024, 33.8832 ], [ 74.4016, 33.8743 ], [ 74.4141, 33.8587 ], [ 74.4109, 33.844 ], [ 74.4326, 33.8246 ], [ 74.4417, 33.8245 ], [ 74.4392, 33.8115 ], [ 74.4703, 33.7846 ], [ 74.4499, 33.764 ], [ 74.4532, 33.7552 ], [ 74.4663, 33.7502 ], [ 74.4747, 33.7332 ], [ 74.5017, 33.7193 ], [ 74.5079, 33.7111 ], [ 74.5044, 33.704 ], [ 74.5159, 33.7053 ], [ 74.5279, 33.695 ], [ 74.5436, 33.6929 ], [ 74.5436, 33.6736 ], [ 74.5318, 33.6601 ], [ 74.5294, 33.6433 ], [ 74.5197, 33.6413 ], [ 74.5273, 33.6168 ], [ 74.5138, 33.5997 ], [ 74.5279, 33.5671 ], [ 74.5158, 33.554 ], [ 74.5291, 33.5468 ], [ 74.5378, 33.5279 ], [ 74.5476, 33.5307 ], [ 74.5758, 33.5142 ], [ 74.5699, 33.5028 ], [ 74.5731, 33.4928 ], [ 74.5411, 33.489 ], [ 74.5403, 33.4682 ], [ 74.5284, 33.4708 ], [ 74.5177, 33.4855 ], [ 74.5101, 33.485 ], [ 74.507, 33.5002 ], [ 74.4896, 33.5202 ], [ 74.448, 33.5452 ], [ 74.424, 33.5704 ], [ 74.3565, 33.5841 ], [ 74.3331, 33.5718 ], [ 74.3244, 33.577 ], [ 74.3074, 33.5723 ], [ 74.2989, 33.554 ], [ 74.2858, 33.5475 ], [ 74.2647, 33.5516 ], [ 74.254, 33.5426 ], [ 74.2441, 33.5558 ], [ 74.2111, 33.5465 ], [ 74.2079, 33.5346 ], [ 74.226, 33.5094 ], [ 74.2274, 33.4902 ], [ 74.2182, 33.482 ], [ 74.2045, 33.4483 ], [ 74.1827, 33.4275 ], [ 74.1858, 33.422 ], [ 74.1381, 33.3969 ], [ 74.1384, 33.391 ], [ 74.1179, 33.3965 ], [ 74.0938, 33.394 ], [ 74.0908, 33.4117 ], [ 74.0742, 33.4395 ], [ 74.0537, 33.4598 ], [ 74.0659, 33.4686 ], [ 74.0647, 33.4743 ], [ 74.0257, 33.5183 ], [ 74.0384, 33.5215 ], [ 74.0315, 33.5376 ], [ 74.0486, 33.5422 ], [ 74.0551, 33.5524 ], [ 74.0802, 33.5631 ], [ 74.0813, 33.5751 ], [ 74.0962, 33.5883 ], [ 74.0934, 33.594 ], [ 74.0361, 33.6029 ], [ 74.0272, 33.5982 ], [ 74.0202, 33.604 ], [ 74.0054, 33.5986 ], [ 73.952, 33.6202 ], [ 73.9276, 33.601 ], [ 73.8873, 33.5961 ], [ 73.8739, 33.6021 ], [ 73.8518, 33.5867 ], [ 73.8384, 33.5913 ], [ 73.812, 33.6178 ], [ 73.7918, 33.6201 ], [ 73.7729, 33.6108 ], [ 73.7492, 33.62 ], [ 73.745, 33.6195 ], [ 73.7478, 33.596 ], [ 73.7367, 33.5784 ], [ 73.6953, 33.6281 ], [ 73.6396, 33.6467 ], [ 73.6337, 33.6603 ], [ 73.6179, 33.6711 ], [ 73.5982, 33.7015 ], [ 73.6036, 33.7257 ], [ 73.5946, 33.7512 ], [ 73.5599, 33.7813 ], [ 73.5935, 33.8898 ], [ 73.5844, 33.905 ], [ 73.5476, 33.9369 ], [ 73.5278, 33.9881 ], [ 73.5165, 33.9988 ], [ 73.5179, 34.0218 ], [ 73.5078, 34.0649 ], [ 73.4997, 34.0746 ], [ 73.4972, 34.1325 ], [ 73.4909, 34.1397 ], [ 73.4933, 34.1465 ], [ 73.5288, 34.144 ], [ 73.5465, 34.1163 ] ] ] } },
{ "type": "Feature", "properties": { "district": "Rajauri", "did": "jammu_and_kashmir:Rajauri", "state_key": "jammu_and_kashmir" }, "geometry": { "type": "Polygon", "coordinates": [ [ [ 74.448, 33.5452 ], [ 74.4896, 33.5202 ], [ 74.507, 33.5002 ], [ 74.5101, 33.485 ], [ 74.5177, 33.4855 ], [ 74.5284, 33.4708 ], [ 74.5403, 33.4682 ], [ 74.5411, 33.489 ], [ 74.5724, 33.4919 ], [ 74.5745, 33.5076 ], [ 74.5888, 33.5093 ], [ 74.59, 33.5028 ], [ 74.607, 33.496 ], [ 74.6271, 33.498 ], [ 74.6356, 33.4865 ], [ 74.6299, 33.4682 ], [ 74.6036, 33.4661 ], [ 74.6019, 33.4604 ], [ 74.6191, 33.4491 ], [ 74.6195, 33.4424 ], [ 74.6564, 33.4411 ], [ 74.6684, 33.4323 ], [ 74.6725, 33.418 ], [ 74.6669, 33.3944 ], [ 74.6744, 33.3953 ], [ 74.671, 33.382 ], [ 74.6863, 33.3612 ], [ 74.671, 33.3504 ], [ 74.6492, 33.3513 ], [ 74.6483, 33.3405 ], [ 74.6539, 33.3364 ], [ 74.6482, 33.3255 ], [ 74.6703, 33.3026 ], [ 74.6525, 33.2726 ], [ 74.6729, 33.2631 ], [ 74.6929, 33.2441 ], [ 74.6829, 33.207 ], [ 74.6879, 33.1963 ], [ 74.6729, 33.1964 ], [ 74.6619, 33.1852 ], [ 74.6558, 33.1863 ], [ 74.6544, 33.1949 ], [ 74.6221, 33.2051 ], [ 74.6081, 33.1933 ], [ 74.5963, 33.2002 ], [ 74.5683, 33.2024 ], [ 74.573, 33.1929 ], [ 74.5482, 33.1901 ], [ 74.5475, 33.1798 ], [ 74.5375, 33.1932 ], [ 74.5221, 33.1871 ], [ 74.5246, 33.1756 ], [ 74.545, 33.1649 ], [ 74.5615, 33.1659 ], [ 74.5812, 33.1537 ], [ 74.6024, 33.1574 ], [ 74.6265, 33.1469 ], [ 74.6299, 33.1395 ], [ 74.616, 33.126 ], [ 74.6225, 33.1097 ], [ 74.6342, 33.1087 ], [ 74.6229, 33.103 ], [ 74.6354, 33.0937 ], [ 74.6043, 33.0907 ], [ 74.5927, 33.0691 ], [ 74.5629, 33.0684 ], [ 74.565, 33.0565 ], [ 74.5574, 33.0515 ], [ 74.5102, 33.0552 ], [ 74.5122, 33.0455 ], [ 74.4984, 33.0418 ], [ 74.4966, 33.0358 ], [ 74.5108, 33.0322 ], [ 74.5164, 33.0157 ], [ 74.4481, 33.015 ], [ 74.4455, 33.0018 ], [ 74.4203, 32.989 ], [ 74.4039, 32.9673 ], [ 74.369, 32.95 ], [ 74.3663, 32.9545 ], [ 74.3398, 32.9544 ], [ 74.3206, 33.0074 ], [ 74.3246, 33.0316 ], [ 74.3021, 33.0314 ], [ 74.2492, 33.0456 ], [ 74.2084, 33.0672 ], [ 74.1707, 33.0742 ], [ 74.1821, 33.0907 ], [ 74.1595, 33.1104 ], [ 74.1627, 33.1231 ], [ 74.1421, 33.1477 ], [ 74.1338, 33.1494 ], [ 74.1305, 33.1597 ], [ 74.1165, 33.1594 ], [ 74.0868, 33.1734 ], [ 74.0696, 33.1951 ], [ 74.0522, 33.1941 ], [ 74.0485, 33.2005 ], [ 74.0359, 33.1962 ], [ 74.0174, 33.2041 ], [ 74.0165, 33.2119 ], [ 74.0066, 33.2137 ], [ 74.002, 33.236 ], [ 74.0059, 33.2496 ], [ 74.0202, 33.261 ], [ 74.0708, 33.2829 ], [ 74.0917, 33.2848 ], [ 74.1501, 33.3196 ], [ 74.1407, 33.3343 ], [ 74.1639, 33.348 ], [ 74.1666, 33.3574 ], [ 74.1454, 33.3706 ], [ 74.1373, 33.3958 ], [ 74.1851, 33.4212 ], [ 74.1827, 33.4275 ], [ 74.2045, 33.4483 ], [ 74.2182, 33.482 ], [ 74.2274, 33.4902 ], [ 74.226, 33.5094 ], [ 74.2079, 33.5346 ], [ 74.2107, 33.5461 ], [ 74.2441, 33.5558 ], [ 74.254, 33.5426 ], [ 74.2647, 33.5516 ], [ 74.2858, 33.5475 ], [ 74.2989, 33.554 ], [ 74.3074, 33.5723 ], [ 74.3244, 33.577 ], [ 74.3331, 33.5718 ], [ 74.3565, 33.5841 ], [ 74.424, 33.5704 ], [ 74.448, 33.5452 ] ] ] } },
{ "type": "Feature", "properties": { "district": "Ramban", "did": "jammu_and_kashmir:Ramban", "state_key": "jammu_and_kashmir" }, "geometry": { "type": "Polygon", "coordinates": [ [ [ 75.1988, 33.5166 ], [ 75.2228, 33.5021 ], [ 75.3291, 33.4052 ], [ 75.3306, 33.3962 ], [ 75.3494, 33.3841 ], [ 75.3757, 33.378 ], [ 75.3773, 33.3674 ], [ 75.3912, 33.3627 ], [ 75.3933, 33.3463 ], [ 75.3748, 33.2737 ], [ 75.3771, 33.2559 ], [ 75.3906, 33.2375 ], [ 75.3868, 33.2136 ], [ 75.3726, 33.199 ], [ 75.3484, 33.1877 ], [ 75.3345, 33.1617 ], [ 75.3556, 33.1468 ], [ 75.3696, 33.0983 ], [ 75.367, 33.0666 ], [ 75.3442, 33.0722 ], [ 75.3281, 33.086 ], [ 75.3089, 33.0924 ], [ 75.2682, 33.0943 ], [ 75.2452, 33.1032 ], [ 75.2233, 33.1386 ], [ 75.2102, 33.1467 ], [ 75.1926, 33.1498 ], [ 75.1564, 33.1413 ], [ 75.1216, 33.1786 ], [ 75.0841, 33.1947 ], [ 75.0449, 33.1973 ], [ 74.9632, 33.2291 ], [ 74.9723, 33.2385 ], [ 74.9654, 33.2577 ], [ 74.9735, 33.263 ], [ 74.958, 33.2938 ], [ 74.9699, 33.3182 ], [ 74.9865, 33.3263 ], [ 75.0195, 33.358 ], [ 75.0456, 33.3707 ], [ 75.0103, 33.4176 ], [ 75.0363, 33.4423 ], [ 75.0221, 33.4608 ], [ 75.0149, 33.4851 ], [ 75.0179, 33.4975 ], [ 75.0239, 33.504 ], [ 75.0365, 33.505 ], [ 75.0819, 33.4945 ], [ 75.0946, 33.5021 ], [ 75.1099, 33.497 ], [ 75.133, 33.514 ], [ 75.1664, 33.5248 ], [ 75.1988, 33.5166 ] ] ] } },
{ "type": "Feature", "properties": { "district": "Riasi", "did": "jammu_and_kashmir:Riasi", "state_key": "jammu_and_kashmir" }, "geometry": { "type": "Polygon", "coordinates": [ [ [ 74.7587, 33.4907 ], [ 74.7884, 33.4879 ], [ 74.7956, 33.4802 ], [ 74.7889, 33.4737 ], [ 74.796, 33.4679 ], [ 74.8314, 33.4681 ], [ 74.8386, 33.4788 ], [ 74.8584, 33.4746 ], [ 74.8645, 33.4842 ], [ 74.8734, 33.486 ], [ 74.8924, 33.4827 ], [ 74.9168, 33.499 ], [ 74.9406, 33.4932 ], [ 74.9525, 33.4979 ], [ 74.9582, 33.514 ], [ 74.9924, 33.5135 ], [ 75.0046, 33.5055 ], [ 75.0144, 33.5122 ], [ 75.0239, 33.504 ], [ 75.0149, 33.4851 ], [ 75.0235, 33.4566 ], [ 75.0363, 33.4423 ], [ 75.0103, 33.4176 ], [ 75.0456, 33.3707 ], [ 75.0195, 33.358 ], [ 74.9865, 33.3263 ], [ 74.9699, 33.3182 ], [ 74.958, 33.2938 ], [ 74.9735, 33.263 ], [ 74.9654, 33.2577 ], [ 74.9723, 33.2385 ], [ 74.9632, 33.2291 ], [ 75.0449, 33.1973 ], [ 75.0799, 33.1956 ], [ 75.0958, 33.1881 ], [ 75.0763, 33.1721 ], [ 75.0781, 33.1646 ], [ 75.0602, 33.1548 ], [ 75.0613, 33.1483 ], [ 75.0719, 33.1445 ], [ 75.0693, 33.1385 ], [ 75.077, 33.1404 ], [ 75.0735, 33.1332 ], [ 75.0483, 33.13 ], [ 75.022, 33.11 ], [ 74.988, 33.0963 ], [ 74.9709, 33.0779 ], [ 74.9696, 33.0731 ], [ 74.9811, 33.0739 ], [ 74.9988, 33.0624 ], [ 74.9888, 33.0511 ], [ 74.9628, 33.0393 ], [ 74.9652, 33.03 ], [ 74.9848, 33.0268 ], [ 74.9968, 33.0179 ], [ 74.9951, 32.9937 ], [ 74.9879, 32.9757 ], [ 74.9693, 32.9726 ], [ 74.958, 32.9605 ], [ 74.9632, 32.9319 ], [ 74.954, 32.9319 ], [ 74.9527, 32.9203 ], [ 74.964, 32.9004 ], [ 74.9611, 32.8961 ], [ 74.9493, 32.8992 ], [ 74.9516, 32.8927 ], [ 74.9366, 32.8873 ], [ 74.9234, 32.8982 ], [ 74.9106, 32.9236 ], [ 74.8958, 32.9242 ], [ 74.8886, 32.9551 ], [ 74.8784, 32.9595 ], [ 74.8728, 32.9506 ], [ 74.8516, 32.9428 ], [ 74.8473, 32.9772 ], [ 74.8247, 32.9869 ], [ 74.7933, 33.0343 ], [ 74.7768, 33.0375 ], [ 74.7701, 33.0511 ], [ 74.7523, 33.0516 ], [ 74.7378, 33.0613 ], [ 74.7299, 33.0604 ], [ 74.7283, 33.0533 ], [ 74.7107, 33.0519 ], [ 74.7093, 33.059 ], [ 74.6994, 33.061 ], [ 74.6868, 33.0547 ], [ 74.6767, 33.0625 ], [ 74.6752, 33.0546 ], [ 74.632, 33.0489 ], [ 74.5724, 33.03 ], [ 74.5661, 33.0486 ], [ 74.5574, 33.0515 ], [ 74.565, 33.0565 ], [ 74.5629, 33.0684 ], [ 74.5927, 33.0691 ], [ 74.6043, 33.0907 ], [ 74.6354, 33.0937 ], [ 74.6231, 33.102 ], [ 74.6342, 33.1087 ], [ 74.6225, 33.1097 ], [ 74.6158, 33.1275 ], [ 74.6302, 33.1426 ], [ 74.6024, 33.1574 ], [ 74.5812, 33.1537 ], [ 74.5615, 33.1659 ], [ 74.545, 33.1649 ], [ 74.5246, 33.1756 ], [ 74.5221, 33.1871 ], [ 74.5375, 33.1932 ], [ 74.5475, 33.1798 ], [ 74.5482, 33.1901 ], [ 74.573, 33.1929 ], [ 74.5683, 33.2024 ], [ 74.5963, 33.2002 ], [ 74.6081, 33.1933 ], [ 74.6221, 33.2051 ], [ 74.6544, 33.1949 ], [ 74.6558, 33.1863 ], [ 74.6619, 33.1852 ], [ 74.6729, 33.1964 ], [ 74.6879, 33.1963 ], [ 74.6829, 33.207 ], [ 74.6925, 33.2481 ], [ 74.6525, 33.2726 ], [ 74.6703, 33.3026 ], [ 74.6481, 33.3267 ], [ 74.6539, 33.3364 ], [ 74.6483, 33.3405 ], [ 74.6497, 33.3521 ], [ 74.671, 33.3504 ], [ 74.6863, 33.3612 ], [ 74.671, 33.382 ], [ 74.6744, 33.3953 ], [ 74.6669, 33.3944 ], [ 74.6725, 33.4197 ], [ 74.6684, 33.4323 ], [ 74.6564, 33.4411 ], [ 74.6195, 33.4424 ], [ 74.6191, 33.4491 ], [ 74.6022, 33.4599 ], [ 74.6031, 33.4658 ], [ 74.6299, 33.4682 ], [ 74.6356, 33.4865 ], [ 74.6271, 33.498 ], [ 74.6415, 33.503 ], [ 74.6498, 33.515 ], [ 74.6563, 33.5056 ], [ 74.6799, 33.5049 ], [ 74.6838, 33.5144 ], [ 74.7097, 33.5255 ], [ 74.7587, 33.4907 ] ] ] } },
{ "type": "Feature", "properties": { "district": "Samba", "did": "jammu_and_kashmir:Samba", "state_key": "jammu_and_kashmir" }, "geometry": { "type": "Polygon", "coordinates": [ [ [ 75.0816, 32.7346 ], [ 75.0938, 32.7161 ], [ 75.1226, 32.7075 ], [ 75.1187, 32.7172 ], [ 75.1469, 32.7264 ], [ 75.1586, 32.711 ], [ 75.1661, 32.7116 ], [ 75.1881, 32.6911 ], [ 75.2075, 32.6833 ], [ 75.2018, 32.6766 ], [ 75.2104, 32.6589 ], [ 75.202, 32.6591 ], [ 75.1982, 32.6525 ], [ 75.2078, 32.6527 ], [ 75.2075, 32.6448 ], [ 75.2231, 32.6398 ], [ 75.2388, 32.6426 ], [ 75.2491, 32.6556 ], [ 75.2704, 32.651 ], [ 75.2844, 32.6436 ], [ 75.2895, 32.6315 ], [ 75.3204, 32.6243 ], [ 75.3443, 32.6028 ], [ 75.3395, 32.5806 ], [ 75.3249, 32.5806 ], [ 75.3174, 32.5732 ], [ 75.2943, 32.5786 ], [ 75.2449, 32.5277 ], [ 75.2332, 32.5048 ], [ 75.2376, 32.4997 ], [ 75.2299, 32.4989 ], [ 75.2175, 32.4812 ], [ 75.2258, 32.4608 ], [ 75.2152, 32.4603 ], [ 75.2056, 32.4469 ], [ 75.1951, 32.4437 ], [ 75.1988, 32.4216 ], [ 75.1871, 32.426 ], [ 75.1527, 32.4211 ], [ 75.1314, 32.4089 ], [ 75.1266, 32.4203 ], [ 75.1332, 32.4278 ], [ 75.1186, 32.4443 ], [ 75.1193, 32.4542 ], [ 75.1078, 32.4606 ], [ 75.1067, 32.4741 ], [ 75.099, 32.4777 ], [ 75.0855, 32.4688 ], [ 75.028, 32.4971 ], [ 75.0168, 32.4795 ], [ 75.0193, 32.4662 ], [ 74.9865, 32.4504 ], [ 74.9713, 32.4595 ], [ 74.9486, 32.4478 ], [ 74.9379, 32.4713 ], [ 74.9174, 32.4643 ], [ 74.9083, 32.4723 ], [ 74.9008, 32.4674 ], [ 74.8783, 32.4784 ], [ 74.8839, 32.4887 ], [ 74.878, 32.4927 ], [ 74.8916, 32.5107 ], [ 74.8843, 32.5257 ], [ 74.8925, 32.5325 ], [ 74.9008, 32.5257 ], [ 74.9083, 32.533 ], [ 74.9016, 32.5505 ], [ 74.928, 32.5514 ], [ 74.9355, 32.5643 ], [ 74.9468, 32.5683 ], [ 74.9476, 32.583 ], [ 74.939, 32.5857 ], [ 74.9506, 32.5937 ], [ 74.947, 32.597 ], [ 74.9381, 32.5908 ], [ 74.9291, 32.5951 ], [ 74.9189, 32.6056 ], [ 74.9276, 32.6124 ], [ 74.9092, 32.6277 ], [ 74.8873, 32.6082 ], [ 74.8694, 32.621 ], [ 74.8847, 32.6203 ], [ 74.8967, 32.639 ], [ 74.8958, 32.6525 ], [ 74.9548, 32.6847 ], [ 74.966, 32.7115 ], [ 74.9888, 32.7098 ], [ 74.9991, 32.7213 ], [ 75.0098, 32.723 ], [ 75.0108, 32.7323 ], [ 75.0346, 32.7341 ], [ 75.0427, 32.7282 ], [ 75.0481, 32.7414 ], [ 75.0778, 32.7318 ], [ 75.0816, 32.7346 ] ] ] } },
{ "type": "Feature", "properties": { "district": "Shupiyan", "did": "jammu_and_kashmir:Shupiyan", "state_key": "jammu_and_kashmir" }, "geometry": { "type": "Polygon", "coordinates": [ [ [ 74.8263, 33.7859 ], [ 74.8403, 33.8016 ], [ 74.8465, 33.8103 ], [ 74.8439, 33.8181 ], [ 74.8502, 33.8215 ], [ 74.8626, 33.815 ], [ 74.8774, 33.8171 ], [ 74.8566, 33.7998 ], [ 74.878, 33.791 ], [ 74.9, 33.8088 ], [ 74.9102, 33.806 ], [ 74.9215, 33.8139 ], [ 74.934, 33.8095 ], [ 74.927, 33.8011 ], [ 74.9358, 33.8028 ], [ 74.9406, 33.7914 ], [ 74.9661, 33.7951 ], [ 74.9803, 33.8094 ], [ 74.9962, 33.7993 ], [ 75.0031, 33.801 ], [ 75.0007, 33.8118 ], [ 75.0276, 33.8086 ], [ 75.0415, 33.8108 ], [ 75.0402, 33.8157 ], [ 75.0554, 33.8103 ], [ 75.0505, 33.799 ], [ 75.0303, 33.7945 ], [ 75.0301, 33.7777 ], [ 75.0383, 33.7732 ], [ 75.0183, 33.7403 ], [ 74.9994, 33.7527 ], [ 74.9951, 33.748 ], [ 75.0002, 33.742 ], [ 74.9524, 33.7413 ], [ 74.9678, 33.6959 ], [ 74.9607, 33.6963 ], [ 74.96, 33.6853 ], [ 74.9684, 33.6847 ], [ 74.9425, 33.6717 ], [ 74.9376, 33.6595 ], [ 74.9302, 33.671 ], [ 74.9091, 33.6684 ], [ 74.9162, 33.6576 ], [ 74.8733, 33.627 ], [ 74.83, 33.6575 ], [ 74.8035, 33.6542 ], [ 74.7892, 33.6586 ], [ 74.781, 33.6475 ], [ 74.7764, 33.6658 ], [ 74.7791, 33.6714 ], [ 74.7865, 33.6688 ], [ 74.7871, 33.681 ], [ 74.7375, 33.6683 ], [ 74.729, 33.6744 ], [ 74.7293, 33.6826 ], [ 74.7356, 33.6822 ], [ 74.7307, 33.6877 ], [ 74.6813, 33.7039 ], [ 74.6659, 33.6934 ], [ 74.6476, 33.6908 ], [ 74.6103, 33.6954 ], [ 74.6023, 33.6821 ], [ 74.5664, 33.6916 ], [ 74.5809, 33.719 ], [ 74.6259, 33.7398 ], [ 74.6245, 33.7496 ], [ 74.6921, 33.8087 ], [ 74.7162, 33.8047 ], [ 74.7132, 33.7942 ], [ 74.7553, 33.8088 ], [ 74.7777, 33.7912 ], [ 74.7983, 33.7999 ], [ 74.8263, 33.7859 ] ] ] } },
{ "type": "Feature", "properties": { "district": "Srinagar", "did": "jammu_and_kashmir:Srinagar", "state_key": "jammu_and_kashmir" }, "geometry": { "type": "MultiPolygon", "coordinates": [ [ [ [ 74.7669, 34.1754 ], [ 74.7919, 34.1763 ], [ 74.8041, 34.1636 ], [ 74.8176, 34.1629 ], [ 74.8071, 34.1829 ], [ 74.8175, 34.1832 ], [ 74.8252, 34.1753 ], [ 74.8517, 34.1789 ], [ 74.8577, 34.1996 ], [ 74.8736, 34.2122 ], [ 74.8841, 34.2038 ], [ 74.875, 34.2006 ], [ 74.8781, 34.1902 ], [ 74.9053, 34.1934 ], [ 74.9234, 34.2059 ], [ 74.9262, 34.1992 ], [ 74.9165, 34.1901 ], [ 74.9278, 34.184 ], [ 74.9104, 34.1757 ], [ 74.9237, 34.1734 ], [ 74.9259, 34.1611 ], [ 74.9337, 34.1578 ], [ 74.9266, 34.1526 ], [ 74.905, 34.1578 ], [ 74.8879, 34.1458 ], [ 74.895, 34.1216 ], [ 74.8911, 34.1193 ], [ 74.9119, 34.0932 ], [ 74.8886, 34.0949 ], [ 74.8849, 34.0798 ], [ 74.8684, 34.0808 ], [ 74.8598, 34.0701 ], [ 74.8672, 34.0501 ], [ 74.884, 34.0433 ], [ 74.9163, 34.051 ], [ 74.9229, 34.0546 ], [ 74.9167, 34.0621 ], [ 74.9274, 34.0625 ], [ 74.9305, 34.0692 ], [ 74.9358, 34.0658 ], [ 74.9479, 34.0784 ], [ 74.9583, 34.0722 ], [ 74.9797, 34.0817 ], [ 74.9763, 34.0981 ], [ 75.0014, 34.0795 ], [ 74.981, 34.0696 ], [ 74.9751, 34.0545 ], [ 74.9791, 34.0523 ], [ 74.963, 34.0488 ], [ 74.9517, 34.0297 ], [ 74.9432, 34.0268 ], [ 74.9311, 34.0288 ], [ 74.9271, 34.0378 ], [ 74.9167, 34.0294 ], [ 74.9156, 34.0371 ], [ 74.8712, 34.0353 ], [ 74.8468, 34.0517 ], [ 74.8267, 34.0287 ], [ 74.8214, 34.0317 ], [ 74.8322, 34.0454 ], [ 74.7999, 34.0413 ], [ 74.8021, 34.0285 ], [ 74.7934, 34.0292 ], [ 74.7955, 34.0204 ], [ 74.7769, 34.0296 ], [ 74.7797, 34.0398 ], [ 74.7725, 34.041 ], [ 74.7587, 34.0604 ], [ 74.7715, 34.0719 ], [ 74.7436, 34.0909 ], [ 74.7102, 34.0953 ], [ 74.7115, 34.1071 ], [ 74.6881, 34.0948 ], [ 74.6845, 34.1051 ], [ 74.6751, 34.1074 ], [ 74.6857, 34.1114 ], [ 74.6917, 34.1238 ], [ 74.6756, 34.1322 ], [ 74.6928, 34.1525 ], [ 74.7024, 34.1554 ], [ 74.6949, 34.1728 ], [ 74.6759, 34.1841 ], [ 74.6932, 34.1856 ], [ 74.7238, 34.1656 ], [ 74.7466, 34.1613 ], [ 74.7669, 34.1754 ] ] ] ] } },
{ "type": "Feature", "properties": { "district": "Udhampur", "did": "jammu_and_kashmir:Udhampur", "state_key": "jammu_and_kashmir" }, "geometry": { "type": "Polygon", "coordinates": [ [ [ 75.1326, 33.17 ], [ 75.1564, 33.1413 ], [ 75.1926, 33.1498 ], [ 75.2102, 33.1467 ], [ 75.2233, 33.1386 ], [ 75.2452, 33.1032 ], [ 75.2682, 33.0943 ], [ 75.3089, 33.0924 ], [ 75.3281, 33.086 ], [ 75.3442, 33.0722 ], [ 75.3694, 33.0686 ], [ 75.3765, 33.0478 ], [ 75.3974, 33.0352 ], [ 75.4083, 33.0351 ], [ 75.4103, 33.0488 ], [ 75.4194, 33.0565 ], [ 75.4365, 33.0055 ], [ 75.4173, 32.9931 ], [ 75.4488, 32.9749 ], [ 75.4524, 32.9622 ], [ 75.4893, 32.9549 ], [ 75.5222, 32.9599 ], [ 75.5342, 32.9494 ], [ 75.5517, 32.966 ], [ 75.5622, 32.9679 ], [ 75.5772, 32.961 ], [ 75.5821, 32.9471 ], [ 75.5959, 32.9498 ], [ 75.6089, 32.9393 ], [ 75.6237, 32.9397 ], [ 75.6371, 32.9299 ], [ 75.6562, 32.9277 ], [ 75.668, 32.9118 ], [ 75.675, 32.8704 ], [ 75.6943, 32.8436 ], [ 75.6824, 32.8216 ], [ 75.6904, 32.816 ], [ 75.6901, 32.7952 ], [ 75.6718, 32.7881 ], [ 75.6688, 32.7793 ], [ 75.6561, 32.7732 ], [ 75.6163, 32.7758 ], [ 75.5999, 32.7686 ], [ 75.5863, 32.7607 ], [ 75.5829, 32.7443 ], [ 75.574, 32.7567 ], [ 75.5591, 32.7577 ], [ 75.5522, 32.7733 ], [ 75.4957, 32.7667 ], [ 75.4827, 32.7329 ], [ 75.4835, 32.7141 ], [ 75.4765, 32.7105 ], [ 75.4778, 32.685 ], [ 75.4571, 32.6652 ], [ 75.4445, 32.6745 ], [ 75.433, 32.6724 ], [ 75.4288, 32.663 ], [ 75.415, 32.6818 ], [ 75.3938, 32.6699 ], [ 75.3757, 32.7001 ], [ 75.3715, 32.6925 ], [ 75.3772, 32.6731 ], [ 75.3658, 32.6786 ], [ 75.3754, 32.6688 ], [ 75.3613, 32.6596 ], [ 75.3577, 32.6708 ], [ 75.3461, 32.6592 ], [ 75.3459, 32.6666 ], [ 75.3324, 32.6661 ], [ 75.2871, 32.6436 ], [ 75.2491, 32.6556 ], [ 75.2455, 32.6464 ], [ 75.2231, 32.6398 ], [ 75.2075, 32.6448 ], [ 75.2064, 32.6534 ], [ 75.1982, 32.6525 ], [ 75.202, 32.6591 ], [ 75.2104, 32.6589 ], [ 75.2018, 32.6766 ], [ 75.2075, 32.6833 ], [ 75.1881, 32.6911 ], [ 75.1661, 32.7116 ], [ 75.1586, 32.711 ], [ 75.1469, 32.7264 ], [ 75.1187, 32.7172 ], [ 75.1226, 32.7075 ], [ 75.0938, 32.7161 ], [ 75.0977, 32.731 ], [ 75.1135, 32.7425 ], [ 75.1301, 32.7395 ], [ 75.1324, 32.7496 ], [ 75.1638, 32.7635 ], [ 75.1669, 32.7703 ], [ 75.1574, 32.7885 ], [ 75.1309, 32.7943 ], [ 75.1288, 32.8157 ], [ 75.0556, 32.8655 ], [ 75.0329, 32.8749 ], [ 74.9788, 32.9249 ], [ 74.97, 32.9422 ], [ 74.9847, 32.9622 ], [ 74.9987, 33.0148 ], [ 74.9848, 33.0268 ], [ 74.9652, 33.03 ], [ 74.9628, 33.0393 ], [ 74.9888, 33.0511 ], [ 74.9988, 33.0624 ], [ 74.9811, 33.0739 ], [ 74.9696, 33.0731 ], [ 74.9753, 33.0838 ], [ 75.0483, 33.13 ], [ 75.0735, 33.1332 ], [ 75.077, 33.1404 ], [ 75.0693, 33.1385 ], [ 75.0719, 33.1445 ], [ 75.0613, 33.1483 ], [ 75.0602, 33.1548 ], [ 75.0781, 33.1646 ], [ 75.0763, 33.1721 ], [ 75.098, 33.1868 ], [ 75.1326, 33.17 ] ] ] } }
]
}
