{
"type": "FeatureCollection",
"crs": { "type": "name", "properties": { "name": "urn:ogc:def:crs:OGC:1.3:CRS84" } },
"xy_coordinate_resolution": 0.0001,
"features": [
{ "type": "Feature", "properties": { "district": "Dhalai", "did": "tripura:Dhalai", "state_key": "tripura" }, "geometry": { "type": "Polygon", "coordinates": [ [ [ 91.934, 23.6846 ], [ 91.9467, 23.646 ], [ 91.9424, 23.6338 ], [ 91.9543, 23.6096 ], [ 91.9568, 23.5513 ], [ 91.9646, 23.5353 ], [ 91.9563, 23.5257 ], [ 91.971, 23.503 ], [ 91.9704, 23.4783 ], [ 91.9583, 23.4794 ], [ 91.9587, 23.4729 ], [ 91.9554, 23.4757 ], [ 91.9469, 23.4659 ], [ 91.9367, 23.4666 ], [ 91.9426, 23.435 ], [ 91.924, 23.4337 ], [ 91.919, 23.4395 ], [ 91.9094, 23.4365 ], [ 91.8997, 23.4406 ], [ 91.8738, 23.414 ], [ 91.8429, 23.4 ], [ 91.8387, 23.4201 ], [ 91.8432, 23.4248 ], [ 91.835, 23.442 ], [ 91.8288, 23.4427 ], [ 91.8271, 23.4629 ], [ 91.8134, 23.4687 ], [ 91.7979, 23.4893 ], [ 91.8055, 23.5327 ], [ 91.8009, 23.5366 ], [ 91.7947, 23.5307 ], [ 91.7951, 23.5348 ], [ 91.7879, 23.533 ], [ 91.7793, 23.5642 ], [ 91.7525, 23.5749 ], [ 91.7713, 23.6056 ], [ 91.766, 23.6287 ], [ 91.7757, 23.6322 ], [ 91.7717, 23.6435 ], [ 91.7612, 23.644 ], [ 91.7526, 23.6514 ], [ 91.7505, 23.6733 ], [ 91.7628, 23.6893 ], [ 91.7633, 23.7242 ], [ 91.774, 23.7251 ], [ 91.7848, 23.7551 ], [ 91.8031, 23.7535 ], [ 91.8086, 23.825 ], [ 91.8023, 23.8449 ], [ 91.8064, 23.8685 ], [ 91.7897, 23.8922 ], [ 91.7896, 23.9022 ], [ 91.7979, 23.9056 ], [ 91.7951, 23.9144 ], [ 91.7897, 23.9095 ], [ 91.7831, 23.9215 ], [ 91.7652, 23.9211 ], [ 91.7666, 23.9485 ], [ 91.757, 23.9614 ], [ 91.7614, 23.9738 ], [ 91.7549, 23.987 ], [ 91.7595, 24.0251 ], [ 91.7547, 24.0351 ], [ 91.7597, 24.0682 ], [ 91.7526, 24.0812 ], [ 91.7598, 24.092 ], [ 91.7541, 24.1169 ], [ 91.7606, 24.1401 ], [ 91.745, 24.247 ], [ 91.7915, 24.2198 ], [ 91.8062, 24.2207 ], [ 91.8164, 24.2099 ], [ 91.8379, 24.2187 ], [ 91.8386, 24.2264 ], [ 91.8451, 24.2255 ], [ 91.8431, 24.2202 ], [ 91.8493, 24.2212 ], [ 91.8457, 24.2175 ], [ 91.8552, 24.2124 ], [ 91.842, 24.2013 ], [ 91.8454, 24.1914 ], [ 91.874, 24.1745 ], [ 91.8752, 24.1551 ], [ 91.8845, 24.1387 ], [ 91.9034, 24.1375 ], [ 91.9184, 24.1154 ], [ 91.9192, 24.1211 ], [ 91.9348, 24.104 ], [ 91.971, 24.0863 ], [ 91.9703, 24.0698 ], [ 91.9897, 24.081 ], [ 92.0003, 24.0796 ], [ 92.0011, 24.0906 ], [ 92.0116, 24.0916 ], [ 92.0119, 24.1081 ], [ 92.0419, 24.1015 ], [ 92.0509, 24.1085 ], [ 92.0805, 24.105 ], [ 92.0719, 24.0952 ], [ 92.0729, 24.043 ], [ 92.0792, 24.037 ], [ 92.0727, 24.0279 ], [ 92.0813, 24.0182 ], [ 92.0911, 24.0194 ], [ 92.0983, 24.0099 ], [ 92.0919, 23.9787 ], [ 92.093, 23.9692 ], [ 92.1016, 23.9627 ], [ 92.0918, 23.9347 ], [ 92.1133, 23.9247 ], [ 92.1274, 23.931 ], [ 92.1326, 23.9234 ], [ 92.1568, 23.8542 ], [ 92.159, 23.7616 ], [ 92.1639, 23.7541 ], [ 92.173, 23.7532 ], [ 92.1711, 23.7397 ], [ 92.1445, 23.7334 ], [ 92.1239, 23.6955 ], [ 92.1062, 23.6887 ], [ 92.0997, 23.6767 ], [ 92.083, 23.6801 ], [ 92.0763, 23.668 ], [ 92.0792, 23.6485 ], [ 92.0728, 23.6465 ], [ 92.042, 23.6479 ], [ 92.0306, 23.6579 ], [ 92.0223, 23.6581 ], [ 92.0238, 23.6627 ], [ 92.0151, 23.66 ], [ 92.0062, 23.6711 ], [ 92.0004, 23.6707 ], [ 91.9783, 23.7331 ], [ 91.9673, 23.7294 ], [ 91.957, 23.734 ], [ 91.9482, 23.714 ], [ 91.9507, 23.6996 ], [ 91.9579, 23.6944 ], [ 91.9415, 23.6916 ], [ 91.934, 23.6846 ] ] ] } },
{ "type": "Feature", "properties": { "district": "Gomati", "did": "tripura:Gomati", "state_key": "tripura" }, "geometry": { "type": "Polygon", "coordinates": [ [ [ 91.8248, 23.4672 ], [ 91.8319, 23.4504 ], [ 91.8288, 23.4427 ], [ 91.835, 23.442 ], [ 91.8432, 23.4248 ], [ 91.8377, 23.371 ], [ 91.8256, 23.3631 ], [ 91.8251, 23.3523 ], [ 91.8094, 23.344 ], [ 91.8053, 23.3328 ], [ 91.7833, 23.3244 ], [ 91.7644, 23.3093 ], [ 91.7598, 23.2833 ], [ 91.7651, 23.2725 ], [ 91.7771, 23.2692 ], [ 91.7762, 23.2432 ], [ 91.7797, 23.2393 ], [ 91.7836, 23.2433 ], [ 91.7911, 23.2267 ], [ 91.7889, 23.2044 ], [ 91.7989, 23.1936 ], [ 91.7947, 23.1866 ], [ 91.8063, 23.1791 ], [ 91.8061, 23.1573 ], [ 91.8142, 23.1452 ], [ 91.8081, 23.1355 ], [ 91.8148, 23.1333 ], [ 91.8109, 23.1217 ], [ 91.8181, 23.112 ], [ 91.8135, 23.0992 ], [ 91.8358, 23.0933 ], [ 91.8243, 23.0837 ], [ 91.8016, 23.0961 ], [ 91.7846, 23.1288 ], [ 91.7802, 23.1172 ], [ 91.7669, 23.1371 ], [ 91.7492, 23.144 ], [ 91.732, 23.1403 ], [ 91.7231, 23.1585 ], [ 91.7247, 23.1843 ], [ 91.7176, 23.1919 ], [ 91.7365, 23.1982 ], [ 91.7581, 23.1929 ], [ 91.7601, 23.1988 ], [ 91.7521, 23.2156 ], [ 91.7562, 23.2212 ], [ 91.7429, 23.2391 ], [ 91.7465, 23.2473 ], [ 91.7395, 23.2705 ], [ 91.7284, 23.2815 ], [ 91.7336, 23.3219 ], [ 91.7289, 23.3253 ], [ 91.7281, 23.3196 ], [ 91.7212, 23.3215 ], [ 91.704, 23.3462 ], [ 91.6973, 23.3467 ], [ 91.7015, 23.3649 ], [ 91.6886, 23.3742 ], [ 91.652, 23.3591 ], [ 91.641, 23.3934 ], [ 91.6321, 23.3926 ], [ 91.6324, 23.4165 ], [ 91.6255, 23.4253 ], [ 91.6118, 23.4093 ], [ 91.6043, 23.4098 ], [ 91.5924, 23.3983 ], [ 91.5785, 23.4063 ], [ 91.5774, 23.4195 ], [ 91.5636, 23.4255 ], [ 91.5308, 23.4201 ], [ 91.5072, 23.4082 ], [ 91.4689, 23.4055 ], [ 91.4703, 23.3903 ], [ 91.4615, 23.3898 ], [ 91.4604, 23.3774 ], [ 91.4497, 23.3688 ], [ 91.4425, 23.3654 ], [ 91.4246, 23.3705 ], [ 91.4187, 23.3898 ], [ 91.4087, 23.3897 ], [ 91.3852, 23.4034 ], [ 91.389, 23.4334 ], [ 91.3769, 23.4444 ], [ 91.3811, 23.4678 ], [ 91.3924, 23.4787 ], [ 91.3826, 23.4863 ], [ 91.3863, 23.5005 ], [ 91.3753, 23.5177 ], [ 91.3881, 23.5257 ], [ 91.401, 23.5236 ], [ 91.3955, 23.5367 ], [ 91.3977, 23.5848 ], [ 91.4329, 23.6089 ], [ 91.4373, 23.6248 ], [ 91.4595, 23.6441 ], [ 91.4627, 23.6626 ], [ 91.4878, 23.6771 ], [ 91.4863, 23.6703 ], [ 91.4943, 23.6713 ], [ 91.5031, 23.6624 ], [ 91.5085, 23.6462 ], [ 91.5256, 23.6583 ], [ 91.5274, 23.6797 ], [ 91.5438, 23.6883 ], [ 91.5291, 23.7065 ], [ 91.5386, 23.7113 ], [ 91.5371, 23.7265 ], [ 91.5586, 23.7278 ], [ 91.5683, 23.736 ], [ 91.5765, 23.7523 ], [ 91.5725, 23.7627 ], [ 91.5819, 23.7637 ], [ 91.5888, 23.7572 ], [ 91.6174, 23.7681 ], [ 91.633, 23.7648 ], [ 91.6469, 23.7687 ], [ 91.649, 23.7643 ], [ 91.6733, 23.7646 ], [ 91.6928, 23.7577 ], [ 91.7172, 23.769 ], [ 91.7227, 23.7507 ], [ 91.7378, 23.7411 ], [ 91.7439, 23.7294 ], [ 91.7433, 23.7142 ], [ 91.7313, 23.7084 ], [ 91.7299, 23.7013 ], [ 91.7418, 23.6925 ], [ 91.7459, 23.6771 ], [ 91.7522, 23.6767 ], [ 91.7526, 23.6514 ], [ 91.7612, 23.644 ], [ 91.7717, 23.6435 ], [ 91.7757, 23.6322 ], [ 91.766, 23.6287 ], [ 91.7713, 23.6056 ], [ 91.7525, 23.5749 ], [ 91.7793, 23.5642 ], [ 91.7879, 23.533 ], [ 91.7951, 23.5348 ], [ 91.7947, 23.5307 ], [ 91.8009, 23.5366 ], [ 91.8055, 23.5327 ], [ 91.7979, 23.4893 ], [ 91.8248, 23.4672 ] ] ] } },
{ "type": "Feature", "properties": { "district": "Khowai", "did": "tripura:Khowai", "state_key": "tripura" }, "geometry": { "type": "Polygon", "coordinates": [ [ [ 91.7666, 23.9485 ], [ 91.7652, 23.9211 ], [ 91.7831, 23.9215 ], [ 91.7897, 23.9095 ], [ 91.7951, 23.9144 ], [ 91.7979, 23.9056 ], [ 91.7896, 23.9022 ], [ 91.7897, 23.8922 ], [ 91.8064, 23.8685 ], [ 91.8023, 23.8449 ], [ 91.8086, 23.825 ], [ 91.8031, 23.7535 ], [ 91.7848, 23.7551 ], [ 91.774, 23.7251 ], [ 91.7633, 23.7242 ], [ 91.7626, 23.6887 ], [ 91.7493, 23.6751 ], [ 91.7418, 23.6925 ], [ 91.7299, 23.7013 ], [ 91.7313, 23.7084 ], [ 91.7433, 23.7142 ], [ 91.7439, 23.7294 ], [ 91.7378, 23.7411 ], [ 91.7227, 23.7507 ], [ 91.7172, 23.769 ], [ 91.6928, 23.7577 ], [ 91.6733, 23.7646 ], [ 91.649, 23.7643 ], [ 91.6469, 23.7687 ], [ 91.633, 23.7648 ], [ 91.6174, 23.7681 ], [ 91.5888, 23.7572 ], [ 91.5819, 23.7637 ], [ 91.5725, 23.7627 ], [ 91.5653, 23.8197 ], [ 91.5595, 23.8252 ], [ 91.5645, 23.8698 ], [ 91.5544, 23.8802 ], [ 91.5582, 23.9 ], [ 91.5539, 23.9123 ], [ 91.5448, 23.9056 ], [ 91.5276, 23.9097 ], [ 91.5359, 23.9299 ], [ 91.5257, 23.935 ], [ 91.518, 23.9624 ], [ 91.5062, 23.9779 ], [ 91.5086, 23.987 ], [ 91.4943, 23.9989 ], [ 91.4891, 24.054 ], [ 91.4731, 24.0761 ], [ 91.4807, 24.0797 ], [ 91.4797, 24.0935 ], [ 91.4918, 24.0971 ], [ 91.4977, 24.0873 ], [ 91.5453, 24.0742 ], [ 91.5729, 24.0747 ], [ 91.5744, 24.08 ], [ 91.5861, 24.0726 ], [ 91.5985, 24.0845 ], [ 91.5913, 24.0926 ], [ 91.5945, 24.0965 ], [ 91.6114, 24.0917 ], [ 91.6371, 24.1021 ], [ 91.6412, 24.1131 ], [ 91.6344, 24.1381 ], [ 91.6466, 24.1566 ], [ 91.6468, 24.1786 ], [ 91.6563, 24.1762 ], [ 91.6601, 24.1895 ], [ 91.6591, 24.1954 ], [ 91.6526, 24.1959 ], [ 91.6477, 24.2185 ], [ 91.6652, 24.2335 ], [ 91.667, 24.2105 ], [ 91.6767, 24.2006 ], [ 91.6883, 24.1621 ], [ 91.7033, 24.1635 ], [ 91.7061, 24.1543 ], [ 91.7218, 24.1525 ], [ 91.7284, 24.1432 ], [ 91.7605, 24.1407 ], [ 91.7541, 24.1169 ], [ 91.7598, 24.092 ], [ 91.7526, 24.0812 ], [ 91.7597, 24.0682 ], [ 91.7544, 24.0006 ], [ 91.7601, 23.9566 ], [ 91.7666, 23.9485 ] ] ] } },
{ "type": "Feature", "properties": { "district": "North Tripura", "did": "tripura:North Tripura", "state_key": "tripura" }, "geometry": { "type": "Polygon", "coordinates": [ [ [ 92.2896, 24.2524 ], [ 92.3321, 24.1796 ], [ 92.3239, 24.1712 ], [ 92.3317, 24.1518 ], [ 92.3307, 24.1397 ], [ 92.3292, 24.139 ], [ 92.3262, 24.1397 ], [ 92.3251, 24.1397 ], [ 92.3246, 24.1394 ], [ 92.3279, 24.1119 ], [ 92.3226, 24.1044 ], [ 92.3277, 24.1015 ], [ 92.3242, 24.0793 ], [ 92.3166, 24.07 ], [ 92.3176, 24.055 ], [ 92.3122, 24.0521 ], [ 92.3164, 24.0456 ], [ 92.3121, 24.0324 ], [ 92.3198, 24.0244 ], [ 92.314, 24.0212 ], [ 92.3262, 23.9978 ], [ 92.308, 23.9606 ], [ 92.309, 23.9312 ], [ 92.3252, 23.9141 ], [ 92.3112, 23.8801 ], [ 92.3167, 23.8643 ], [ 92.3085, 23.8568 ], [ 92.2876, 23.8685 ], [ 92.2692, 23.8469 ], [ 92.2825, 23.8154 ], [ 92.2571, 23.8128 ], [ 92.2673, 23.7686 ], [ 92.2655, 23.7248 ], [ 92.2392, 23.7184 ], [ 92.242, 23.6947 ], [ 92.232, 23.6847 ], [ 92.233, 23.6674 ], [ 92.2194, 23.6519 ], [ 92.2114, 23.6528 ], [ 92.2066, 23.661 ], [ 92.2063, 23.6752 ], [ 92.2137, 23.6849 ], [ 92.207, 23.7006 ], [ 92.1861, 23.711 ], [ 92.1777, 23.7076 ], [ 92.1696, 23.7232 ], [ 92.1736, 23.7519 ], [ 92.159, 23.7616 ], [ 92.1584, 23.8457 ], [ 92.1326, 23.9234 ], [ 92.1274, 23.931 ], [ 92.1133, 23.9247 ], [ 92.0917, 23.9357 ], [ 92.1016, 23.9627 ], [ 92.093, 23.9692 ], [ 92.0919, 23.9787 ], [ 92.0982, 24.01 ], [ 92.1068, 24.0111 ], [ 92.1127, 24.0229 ], [ 92.1168, 24.0201 ], [ 92.1244, 24.027 ], [ 92.1124, 24.0348 ], [ 92.1128, 24.072 ], [ 92.1192, 24.0669 ], [ 92.1337, 24.0689 ], [ 92.1436, 24.0777 ], [ 92.1438, 24.0863 ], [ 92.1504, 24.0828 ], [ 92.1636, 24.0959 ], [ 92.1667, 24.1096 ], [ 92.1456, 24.1198 ], [ 92.1959, 24.1496 ], [ 92.2034, 24.1699 ], [ 92.2018, 24.1913 ], [ 92.1894, 24.1887 ], [ 92.182, 24.1999 ], [ 92.1717, 24.201 ], [ 92.1674, 24.2269 ], [ 92.1621, 24.2304 ], [ 92.1525, 24.226 ], [ 92.1516, 24.2376 ], [ 92.1307, 24.2454 ], [ 92.1232, 24.2558 ], [ 92.1228, 24.2714 ], [ 92.0809, 24.2759 ], [ 92.0837, 24.3038 ], [ 92.0726, 24.3141 ], [ 92.076, 24.3751 ], [ 92.0904, 24.3716 ], [ 92.1023, 24.3829 ], [ 92.1219, 24.3822 ], [ 92.1189, 24.39 ], [ 92.1352, 24.4072 ], [ 92.1368, 24.425 ], [ 92.1478, 24.421 ], [ 92.1537, 24.4256 ], [ 92.1637, 24.4184 ], [ 92.1665, 24.4217 ], [ 92.1505, 24.4952 ], [ 92.1591, 24.5072 ], [ 92.1535, 24.512 ], [ 92.1582, 24.5152 ], [ 92.155, 24.523 ], [ 92.1673, 24.5319 ], [ 92.2018, 24.5074 ], [ 92.2304, 24.5017 ], [ 92.2366, 24.4846 ], [ 92.2302, 24.4615 ], [ 92.2389, 24.4475 ], [ 92.2594, 24.4392 ], [ 92.2545, 24.4205 ], [ 92.2741, 24.3883 ], [ 92.2129, 24.2499 ], [ 92.2896, 24.2524 ] ] ] } },
{ "type": "Feature", "properties": { "district": "Sepahijala", "did": "tripura:Sepahijala", "state_key": "tripura" }, "geometry": { "type": "Polygon", "coordinates": [ [ [ 91.3955, 23.5367 ], [ 91.4022, 23.5293 ], [ 91.4008, 23.5234 ], [ 91.3881, 23.5257 ], [ 91.3753, 23.5177 ], [ 91.3863, 23.5005 ], [ 91.3826, 23.4863 ], [ 91.3924, 23.4787 ], [ 91.3811, 23.4678 ], [ 91.3769, 23.4444 ], [ 91.389, 23.4334 ], [ 91.3852, 23.4034 ], [ 91.4087, 23.3897 ], [ 91.4187, 23.3898 ], [ 91.4227, 23.3813 ], [ 91.42, 23.3735 ], [ 91.3877, 23.3556 ], [ 91.3923, 23.3416 ], [ 91.3877, 23.3255 ], [ 91.3778, 23.3235 ], [ 91.3706, 23.3026 ], [ 91.3448, 23.2809 ], [ 91.3262, 23.2766 ], [ 91.3023, 23.2864 ], [ 91.3072, 23.2998 ], [ 91.315, 23.2966 ], [ 91.3095, 23.3139 ], [ 91.2962, 23.3134 ], [ 91.2899, 23.3185 ], [ 91.2962, 23.3409 ], [ 91.3108, 23.3424 ], [ 91.3111, 23.3527 ], [ 91.318, 23.353 ], [ 91.3201, 23.3601 ], [ 91.2911, 23.3507 ], [ 91.2949, 23.3612 ], [ 91.2862, 23.3631 ], [ 91.2842, 23.3711 ], [ 91.2943, 23.3747 ], [ 91.2798, 23.3766 ], [ 91.2764, 23.4147 ], [ 91.2634, 23.4237 ], [ 91.2707, 23.4298 ], [ 91.2516, 23.4536 ], [ 91.2493, 23.4902 ], [ 91.2364, 23.489 ], [ 91.2356, 23.5018 ], [ 91.218, 23.4995 ], [ 91.2236, 23.514 ], [ 91.2078, 23.512 ], [ 91.2008, 23.52 ], [ 91.2129, 23.5504 ], [ 91.2075, 23.5454 ], [ 91.202, 23.5501 ], [ 91.1945, 23.5472 ], [ 91.1951, 23.5625 ], [ 91.1873, 23.5775 ], [ 91.1753, 23.5855 ], [ 91.1771, 23.5932 ], [ 91.1625, 23.595 ], [ 91.1563, 23.6707 ], [ 91.1704, 23.6575 ], [ 91.1829, 23.6597 ], [ 91.1929, 23.6544 ], [ 91.1907, 23.6469 ], [ 91.1994, 23.6466 ], [ 91.2046, 23.6504 ], [ 91.2033, 23.6801 ], [ 91.2085, 23.6864 ], [ 91.1955, 23.6921 ], [ 91.1542, 23.6884 ], [ 91.1492, 23.7115 ], [ 91.1571, 23.742 ], [ 91.1676, 23.7496 ], [ 91.1966, 23.7511 ], [ 91.2104, 23.7492 ], [ 91.219, 23.7364 ], [ 91.2215, 23.7431 ], [ 91.2336, 23.7322 ], [ 91.2438, 23.739 ], [ 91.25, 23.73 ], [ 91.2655, 23.7341 ], [ 91.2839, 23.7269 ], [ 91.2932, 23.7389 ], [ 91.315, 23.7259 ], [ 91.3197, 23.7579 ], [ 91.3316, 23.7584 ], [ 91.3667, 23.7405 ], [ 91.3866, 23.7452 ], [ 91.3872, 23.7644 ], [ 91.3797, 23.7692 ], [ 91.3843, 23.7716 ], [ 91.4009, 23.7639 ], [ 91.4325, 23.7645 ], [ 91.443, 23.745 ], [ 91.4764, 23.7411 ], [ 91.4814, 23.7458 ], [ 91.4933, 23.7411 ], [ 91.4972, 23.7473 ], [ 91.5169, 23.7506 ], [ 91.5204, 23.7621 ], [ 91.5414, 23.7686 ], [ 91.5521, 23.7856 ], [ 91.5577, 23.7823 ], [ 91.566, 23.7871 ], [ 91.5753, 23.7455 ], [ 91.5586, 23.7278 ], [ 91.5372, 23.7267 ], [ 91.5386, 23.7113 ], [ 91.5291, 23.7065 ], [ 91.5438, 23.6883 ], [ 91.5274, 23.6797 ], [ 91.5256, 23.6583 ], [ 91.5085, 23.6462 ], [ 91.4949, 23.6711 ], [ 91.4871, 23.6694 ], [ 91.4878, 23.6771 ], [ 91.4797, 23.6729 ], [ 91.4627, 23.6626 ], [ 91.4595, 23.6441 ], [ 91.4373, 23.6248 ], [ 91.4329, 23.6089 ], [ 91.3976, 23.5845 ], [ 91.3955, 23.5367 ] ] ] } },
{ "type": "Feature", "properties": { "district": "South Tripura", "did": "tripura:South Tripura", "state_key": "tripura" }, "geometry": { "type": "Polygon", "coordinates": [ [ [ 91.7247, 23.1843 ], [ 91.7212, 23.1653 ], [ 91.732, 23.1403 ], [ 91.7492, 23.144 ], [ 91.7669, 23.1371 ], [ 91.7802, 23.1172 ], [ 91.7846, 23.1288 ], [ 91.8016, 23.0961 ], [ 91.8244, 23.0836 ], [ 91.8147, 23.0806 ], [ 91.8184, 23.0727 ], [ 91.8132, 23.0735 ], [ 91.806, 23.063 ], [ 91.7941, 23.0623 ], [ 91.7895, 23.0717 ], [ 91.789, 23.0672 ], [ 91.7848, 23.0715 ], [ 91.7745, 23.0696 ], [ 91.7841, 23.0379 ], [ 91.7789, 23.0365 ], [ 91.7806, 23.0291 ], [ 91.7743, 23.0271 ], [ 91.7744, 23.0385 ], [ 91.7685, 23.0409 ], [ 91.7719, 23.033 ], [ 91.7611, 23.0299 ], [ 91.7439, 23.0064 ], [ 91.7261, 22.9989 ], [ 91.7206, 22.9874 ], [ 91.7121, 22.9889 ], [ 91.7088, 22.9819 ], [ 91.7033, 22.9883 ], [ 91.6937, 22.9883 ], [ 91.6818, 22.9772 ], [ 91.6577, 22.9817 ], [ 91.6515, 22.9767 ], [ 91.6455, 22.985 ], [ 91.6356, 22.9611 ], [ 91.6246, 22.9616 ], [ 91.6255, 22.944 ], [ 91.6182, 22.9385 ], [ 91.6158, 22.9515 ], [ 91.6071, 22.95 ], [ 91.6084, 22.9572 ], [ 91.6002, 22.9547 ], [ 91.6055, 22.9624 ], [ 91.6138, 22.9584 ], [ 91.6061, 22.9719 ], [ 91.5906, 22.9769 ], [ 91.5768, 22.9652 ], [ 91.5572, 22.9785 ], [ 91.557, 22.9966 ], [ 91.5475, 22.9942 ], [ 91.5425, 22.9995 ], [ 91.5482, 23.0192 ], [ 91.5384, 23.0192 ], [ 91.5504, 23.0384 ], [ 91.5305, 23.0383 ], [ 91.5363, 23.0545 ], [ 91.525, 23.0553 ], [ 91.5353, 23.0633 ], [ 91.5251, 23.0828 ], [ 91.5298, 23.0917 ], [ 91.5189, 23.0942 ], [ 91.5224, 23.104 ], [ 91.5113, 23.1042 ], [ 91.5123, 23.1132 ], [ 91.5204, 23.1144 ], [ 91.5176, 23.1254 ], [ 91.5031, 23.1305 ], [ 91.5153, 23.145 ], [ 91.5082, 23.1396 ], [ 91.4987, 23.1425 ], [ 91.4947, 23.1471 ], [ 91.5072, 23.1542 ], [ 91.4943, 23.1522 ], [ 91.4909, 23.1576 ], [ 91.4983, 23.1716 ], [ 91.4917, 23.1776 ], [ 91.5075, 23.1837 ], [ 91.5011, 23.1853 ], [ 91.5032, 23.1921 ], [ 91.4849, 23.1882 ], [ 91.4708, 23.1964 ], [ 91.4826, 23.1991 ], [ 91.4844, 23.2092 ], [ 91.4754, 23.2204 ], [ 91.4586, 23.2133 ], [ 91.4506, 23.2194 ], [ 91.4703, 23.2276 ], [ 91.4579, 23.246 ], [ 91.4452, 23.2471 ], [ 91.4542, 23.2604 ], [ 91.4314, 23.2624 ], [ 91.4249, 23.258 ], [ 91.4212, 23.2618 ], [ 91.4183, 23.2554 ], [ 91.4196, 23.2733 ], [ 91.4089, 23.2852 ], [ 91.4113, 23.2557 ], [ 91.4004, 23.2657 ], [ 91.3973, 23.2562 ], [ 91.4087, 23.2476 ], [ 91.3926, 23.2459 ], [ 91.4009, 23.2291 ], [ 91.3865, 23.2276 ], [ 91.3921, 23.22 ], [ 91.3808, 23.2084 ], [ 91.3878, 23.2079 ], [ 91.3799, 23.1845 ], [ 91.397, 23.1177 ], [ 91.4034, 23.1137 ], [ 91.4003, 23.0964 ], [ 91.4061, 23.0969 ], [ 91.4081, 23.0835 ], [ 91.4176, 23.0824 ], [ 91.4109, 23.0662 ], [ 91.4172, 23.065 ], [ 91.416, 23.0626 ], [ 91.3959, 23.056 ], [ 91.3698, 23.0704 ], [ 91.347, 23.1023 ], [ 91.3476, 23.1188 ], [ 91.3419, 23.1178 ], [ 91.3331, 23.1528 ], [ 91.3233, 23.158 ], [ 91.3237, 23.2374 ], [ 91.3187, 23.2455 ], [ 91.3266, 23.2523 ], [ 91.318, 23.2529 ], [ 91.3098, 23.2764 ], [ 91.3409, 23.2791 ], [ 91.3551, 23.2885 ], [ 91.3708, 23.3028 ], [ 91.3784, 23.3243 ], [ 91.3877, 23.3255 ], [ 91.3923, 23.3416 ], [ 91.3877, 23.3556 ], [ 91.4204, 23.3743 ], [ 91.4366, 23.3662 ], [ 91.4497, 23.3688 ], [ 91.4604, 23.3774 ], [ 91.4615, 23.3898 ], [ 91.4703, 23.3903 ], [ 91.4682, 23.4052 ], [ 91.5072, 23.4082 ], [ 91.5308, 23.4201 ], [ 91.5636, 23.4255 ], [ 91.5774, 23.4195 ], [ 91.5785, 23.4063 ], [ 91.5924, 23.3983 ], [ 91.6043, 23.4098 ], [ 91.6118, 23.4093 ], [ 91.6255, 23.4253 ], [ 91.6324, 23.4165 ], [ 91.6321, 23.3926 ], [ 91.641, 23.3934 ], [ 91.652, 23.3591 ], [ 91.6886, 23.3742 ], [ 91.704, 23.3598 ], [ 91.6973, 23.3467 ], [ 91.704, 23.3462 ], [ 91.7212, 23.3215 ], [ 91.7281, 23.3196 ], [ 91.7289, 23.3253 ], [ 91.7336, 23.3219 ], [ 91.7284, 23.2815 ], [ 91.7395, 23.2705 ], [ 91.7465, 23.2473 ], [ 91.7429, 23.2391 ], [ 91.7562, 23.2212 ], [ 91.7521, 23.2156 ], [ 91.7601, 23.1988 ], [ 91.7572, 23.1928 ], [ 91.7287, 23.1979 ], [ 91.7193, 23.1885 ], [ 91.7247, 23.1843 ] ] ] } },
{ "type": "Feature", "properties": { "district": "Unokoti", "did": "tripura:Unokoti", "state_key": "tripura" }, "geometry": { "type": "Polygon", "coordinates": [ [ [ 92.1228, 24.2714 ], [ 92.1232, 24.2558 ], [ 92.1307, 24.2454 ], [ 92.1516, 24.2376 ], [ 92.1525, 24.226 ], [ 92.1621, 24.2304 ], [ 92.1674, 24.2269 ], [ 92.1717, 24.201 ], [ 92.182, 24.1999 ], [ 92.1894, 24.1887 ], [ 92.2018, 24.1913 ], [ 92.2032, 24.1866 ], [ 92.1965, 24.1502 ], [ 92.1456, 24.1198 ], [ 92.1667, 24.1096 ], [ 92.1636, 24.0959 ], [ 92.1504, 24.0828 ], [ 92.1438, 24.0863 ], [ 92.1436, 24.0777 ], [ 92.1337, 24.0689 ], [ 92.1192, 24.0669 ], [ 92.1128, 24.072 ], [ 92.1124, 24.0348 ], [ 92.1244, 24.027 ], [ 92.1168, 24.0201 ], [ 92.1127, 24.0229 ], [ 92.1068, 24.0111 ], [ 92.0982, 24.01 ], [ 92.0911, 24.0194 ], [ 92.0813, 24.0182 ], [ 92.0728, 24.0275 ], [ 92.0792, 24.037 ], [ 92.0729, 24.043 ], [ 92.0719, 24.0952 ], [ 92.0805, 24.105 ], [ 92.0509, 24.1085 ], [ 92.0419, 24.1015 ], [ 92.0119, 24.1081 ], [ 92.0116, 24.0916 ], [ 92.0011, 24.0906 ], [ 92.0003, 24.0796 ], [ 91.9897, 24.081 ], [ 91.9703, 24.0698 ], [ 91.971, 24.0863 ], [ 91.9348, 24.104 ], [ 91.9192, 24.1211 ], [ 91.9184, 24.1154 ], [ 91.9027, 24.1378 ], [ 91.9145, 24.1536 ], [ 91.9114, 24.1681 ], [ 91.9408, 24.2681 ], [ 91.92, 24.3375 ], [ 91.9413, 24.3425 ], [ 91.9568, 24.3566 ], [ 91.969, 24.3502 ], [ 91.9771, 24.3274 ], [ 91.996, 24.3221 ], [ 91.9983, 24.3341 ], [ 91.9781, 24.3574 ], [ 91.9846, 24.3609 ], [ 91.9774, 24.3728 ], [ 91.9701, 24.3744 ], [ 91.9723, 24.3795 ], [ 91.9672, 24.3789 ], [ 91.9705, 24.3845 ], [ 91.9852, 24.3767 ], [ 91.9967, 24.3937 ], [ 92.0073, 24.3814 ], [ 92.0201, 24.3865 ], [ 92.044, 24.3749 ], [ 92.076, 24.3751 ], [ 92.0726, 24.3141 ], [ 92.0837, 24.3038 ], [ 92.0826, 24.2757 ], [ 92.1228, 24.2714 ] ] ] } },
{ "type": "Feature", "properties": { "district": "West Tripura", "did": "tripura:West Tripura", "state_key": "tripura" }, "geometry": { "type": "Polygon", "coordinates": [ [ [ 91.3872, 23.7644 ], [ 91.3878, 23.7478 ], [ 91.3667, 23.7405 ], [ 91.3316, 23.7584 ], [ 91.3197, 23.7579 ], [ 91.3152, 23.7259 ], [ 91.2932, 23.7389 ], [ 91.2813, 23.7266 ], [ 91.2655, 23.7341 ], [ 91.25, 23.73 ], [ 91.2438, 23.739 ], [ 91.2336, 23.7322 ], [ 91.2215, 23.7431 ], [ 91.2307, 23.7649 ], [ 91.2266, 23.7916 ], [ 91.2541, 23.8372 ], [ 91.2296, 23.8806 ], [ 91.2285, 23.8986 ], [ 91.2448, 23.9069 ], [ 91.2462, 23.9131 ], [ 91.233, 23.927 ], [ 91.2762, 23.9225 ], [ 91.2729, 23.9376 ], [ 91.2642, 23.9442 ], [ 91.2847, 23.9821 ], [ 91.2877, 23.968 ], [ 91.2998, 23.9721 ], [ 91.3036, 23.9979 ], [ 91.3149, 23.9904 ], [ 91.3301, 23.9925 ], [ 91.3412, 23.982 ], [ 91.3617, 23.9863 ], [ 91.3795, 23.9753 ], [ 91.3733, 24.0026 ], [ 91.3909, 24.0258 ], [ 91.3966, 24.0496 ], [ 91.3771, 24.0798 ], [ 91.3746, 24.1078 ], [ 91.4015, 24.1115 ], [ 91.4284, 24.1083 ], [ 91.4308, 24.0999 ], [ 91.4405, 24.1025 ], [ 91.4422, 24.0973 ], [ 91.4496, 24.1015 ], [ 91.4625, 24.0961 ], [ 91.4732, 24.1018 ], [ 91.4849, 24.0964 ], [ 91.4797, 24.0935 ], [ 91.4807, 24.0797 ], [ 91.4731, 24.0761 ], [ 91.4891, 24.054 ], [ 91.4943, 23.9989 ], [ 91.5086, 23.987 ], [ 91.5062, 23.9779 ], [ 91.518, 23.9624 ], [ 91.5257, 23.935 ], [ 91.5359, 23.9299 ], [ 91.5272, 23.9108 ], [ 91.5448, 23.9056 ], [ 91.5539, 23.9123 ], [ 91.5582, 23.9 ], [ 91.5541, 23.883 ], [ 91.5645, 23.8698 ], [ 91.5595, 23.8252 ], [ 91.5653, 23.8197 ], [ 91.5675, 23.7857 ], [ 91.5521, 23.7856 ], [ 91.5414, 23.7686 ], [ 91.5204, 23.7621 ], [ 91.5169, 23.7506 ], [ 91.4972, 23.7473 ], [ 91.4933, 23.7411 ], [ 91.4814, 23.7458 ], [ 91.4764, 23.7411 ], [ 91.4406, 23.7459 ], [ 91.4325, 23.7645 ], [ 91.3798, 23.7688 ], [ 91.3872, 23.7644 ] ] ] } }
]
}
