{
"type": "FeatureCollection",
"crs": { "type": "name", "properties": { "name": "urn:ogc:def:crs:OGC:1.3:CRS84" } },
"xy_coordinate_resolution": 0.0001,
"features": [
{ "type": "Feature", "properties": { "district": "Ambala", "did": "haryana:Ambala", "state_key": "haryana" }, "geometry": { "type": "MultiPolygon", "coordinates": [ [ [ [ 76.6392, 30.1308 ], [ 76.6453, 30.1279 ], [ 76.6356, 30.1116 ], [ 76.6448, 30.1019 ], [ 76.6209, 30.0867 ], [ 76.6153, 30.073 ], [ 76.5967, 30.0727 ], [ 76.5922, 30.0662 ], [ 76.5868, 30.0691 ], [ 76.5984, 30.0824 ], [ 76.5856, 30.0843 ], [ 76.5752, 30.1008 ], [ 76.5865, 30.1107 ], [ 76.5989, 30.1121 ], [ 76.6235, 30.1402 ], [ 76.6383, 30.1476 ], [ 76.6392, 30.1308 ] ] ], [ [ [ 77.1655, 30.3536 ], [ 77.1694, 30.3597 ], [ 77.1708, 30.3591 ], [ 77.1711, 30.3424 ], [ 77.1819, 30.3323 ], [ 77.1797, 30.3222 ], [ 77.1921, 30.3123 ], [ 77.1892, 30.3073 ], [ 77.1683, 30.3072 ], [ 77.1657, 30.2939 ], [ 77.1416, 30.286 ], [ 77.1332, 30.2679 ], [ 77.1393, 30.2602 ], [ 77.1321, 30.2509 ], [ 77.1416, 30.2408 ], [ 77.1496, 30.2465 ], [ 77.1598, 30.2422 ], [ 77.1633, 30.2337 ], [ 77.1502, 30.214 ], [ 77.1302, 30.2323 ], [ 77.1268, 30.2283 ], [ 77.116, 30.2324 ], [ 77.1063, 30.225 ], [ 77.0918, 30.2283 ], [ 77.0843, 30.2168 ], [ 77.0776, 30.217 ], [ 77.0724, 30.2061 ], [ 77.0767, 30.1997 ], [ 77.1101, 30.1787 ], [ 77.0981, 30.156 ], [ 77.0709, 30.169 ], [ 77.0653, 30.1424 ], [ 77.0693, 30.1313 ], [ 77.0598, 30.1236 ], [ 77.0361, 30.1361 ], [ 77.037, 30.1436 ], [ 77.0225, 30.148 ], [ 77.0079, 30.162 ], [ 76.9817, 30.1694 ], [ 76.9616, 30.1526 ], [ 76.9406, 30.1663 ], [ 76.941, 30.1781 ], [ 76.9461, 30.1841 ], [ 76.9562, 30.1832 ], [ 76.9607, 30.1932 ], [ 76.9251, 30.2055 ], [ 76.9159, 30.2055 ], [ 76.9035, 30.1898 ], [ 76.8837, 30.1988 ], [ 76.883, 30.208 ], [ 76.8902, 30.2121 ], [ 76.8586, 30.233 ], [ 76.8678, 30.2436 ], [ 76.8516, 30.2546 ], [ 76.8428, 30.2458 ], [ 76.8375, 30.2541 ], [ 76.8225, 30.2511 ], [ 76.8175, 30.2421 ], [ 76.8254, 30.2359 ], [ 76.8171, 30.2175 ], [ 76.8119, 30.2197 ], [ 76.8, 30.2112 ], [ 76.7848, 30.2149 ], [ 76.7627, 30.1918 ], [ 76.7384, 30.1979 ], [ 76.7113, 30.1915 ], [ 76.695, 30.1937 ], [ 76.6854, 30.1887 ], [ 76.673, 30.1677 ], [ 76.6437, 30.1502 ], [ 76.6234, 30.1802 ], [ 76.6073, 30.1918 ], [ 76.6142, 30.2044 ], [ 76.6394, 30.1944 ], [ 76.6456, 30.1881 ], [ 76.6355, 30.1845 ], [ 76.6393, 30.1702 ], [ 76.6568, 30.1861 ], [ 76.6506, 30.1931 ], [ 76.6543, 30.2035 ], [ 76.6155, 30.2117 ], [ 76.6275, 30.2272 ], [ 76.6029, 30.2413 ], [ 76.6037, 30.2519 ], [ 76.5915, 30.2558 ], [ 76.5608, 30.2289 ], [ 76.5431, 30.2284 ], [ 76.5536, 30.2301 ], [ 76.5596, 30.2648 ], [ 76.5751, 30.2619 ], [ 76.5838, 30.2702 ], [ 76.5929, 30.2617 ], [ 76.6011, 30.2703 ], [ 76.6144, 30.2725 ], [ 76.6234, 30.2646 ], [ 76.6354, 30.2896 ], [ 76.6389, 30.2844 ], [ 76.6654, 30.3059 ], [ 76.6749, 30.2994 ], [ 76.6808, 30.3031 ], [ 76.6886, 30.3273 ], [ 76.6956, 30.3216 ], [ 76.7, 30.3281 ], [ 76.711, 30.3258 ], [ 76.7164, 30.336 ], [ 76.7223, 30.3332 ], [ 76.7298, 30.3388 ], [ 76.7326, 30.3483 ], [ 76.7461, 30.3495 ], [ 76.7511, 30.3553 ], [ 76.7454, 30.3678 ], [ 76.7376, 30.3704 ], [ 76.7199, 30.3633 ], [ 76.7312, 30.3797 ], [ 76.7176, 30.38 ], [ 76.7142, 30.4021 ], [ 76.7282, 30.4004 ], [ 76.74, 30.4115 ], [ 76.735, 30.4191 ], [ 76.741, 30.4262 ], [ 76.7656, 30.4325 ], [ 76.7735, 30.4434 ], [ 76.7849, 30.4354 ], [ 76.7743, 30.4264 ], [ 76.7901, 30.4146 ], [ 76.7951, 30.4187 ], [ 76.8018, 30.4137 ], [ 76.8091, 30.4176 ], [ 76.8249, 30.4143 ], [ 76.8468, 30.4381 ], [ 76.8561, 30.4176 ], [ 76.8834, 30.4086 ], [ 76.8807, 30.3939 ], [ 76.898, 30.3821 ], [ 76.8903, 30.3694 ], [ 76.8969, 30.3595 ], [ 76.9169, 30.3649 ], [ 76.9415, 30.3954 ], [ 76.9327, 30.4017 ], [ 76.9124, 30.4006 ], [ 76.9194, 30.4074 ], [ 76.9124, 30.4205 ], [ 76.9165, 30.4262 ], [ 76.9064, 30.4336 ], [ 76.9123, 30.4429 ], [ 76.905, 30.4341 ], [ 76.8976, 30.4371 ], [ 76.9137, 30.4714 ], [ 76.898, 30.4838 ], [ 76.899, 30.4888 ], [ 76.9108, 30.4943 ], [ 76.9189, 30.4894 ], [ 76.9311, 30.5013 ], [ 76.9584, 30.4706 ], [ 76.9721, 30.4862 ], [ 76.9898, 30.4742 ], [ 77.0099, 30.4932 ], [ 77.0102, 30.5025 ], [ 77.0385, 30.5093 ], [ 77.05, 30.5217 ], [ 77.0353, 30.5368 ], [ 77.0396, 30.5514 ], [ 77.054, 30.543 ], [ 77.0745, 30.541 ], [ 77.085, 30.557 ], [ 77.1057, 30.5598 ], [ 77.1138, 30.5522 ], [ 77.1217, 30.5629 ], [ 77.1454, 30.5365 ], [ 77.1703, 30.5334 ], [ 77.2013, 30.5153 ], [ 77.2125, 30.4968 ], [ 77.2021, 30.4786 ], [ 77.1946, 30.4805 ], [ 77.1737, 30.4574 ], [ 77.1691, 30.4415 ], [ 77.1744, 30.4315 ], [ 77.1703, 30.4217 ], [ 77.1869, 30.3967 ], [ 77.1876, 30.3827 ], [ 77.1809, 30.3635 ], [ 77.1726, 30.3689 ], [ 77.1619, 30.3599 ], [ 77.1655, 30.3536 ] ] ] ] } },
{ "type": "Feature", "properties": { "district": "Bhiwani", "did": "haryana:Bhiwani", "state_key": "haryana" }, "geometry": { "type": "Polygon", "coordinates": [ [ [ 75.8472, 28.5869 ], [ 75.85, 28.5667 ], [ 75.8325, 28.5565 ], [ 75.823, 28.5389 ], [ 75.823, 28.5166 ], [ 75.8159, 28.512 ], [ 75.8527, 28.4993 ], [ 75.8451, 28.4946 ], [ 75.8453, 28.4732 ], [ 75.8689, 28.4782 ], [ 75.871, 28.4695 ], [ 75.8784, 28.4687 ], [ 75.8898, 28.4745 ], [ 75.9097, 28.4579 ], [ 75.9097, 28.4375 ], [ 75.8973, 28.4244 ], [ 75.9036, 28.4108 ], [ 75.8964, 28.3901 ], [ 75.8904, 28.3831 ], [ 75.864, 28.3852 ], [ 75.8395, 28.3944 ], [ 75.8328, 28.4054 ], [ 75.8222, 28.403 ], [ 75.8187, 28.4099 ], [ 75.7996, 28.4071 ], [ 75.7946, 28.3996 ], [ 75.7886, 28.4041 ], [ 75.7768, 28.4004 ], [ 75.7667, 28.4142 ], [ 75.7808, 28.4329 ], [ 75.7885, 28.4336 ], [ 75.7883, 28.4535 ], [ 75.7357, 28.4688 ], [ 75.7395, 28.4848 ], [ 75.729, 28.4907 ], [ 75.702, 28.4918 ], [ 75.6709, 28.5171 ], [ 75.6658, 28.536 ], [ 75.6335, 28.5444 ], [ 75.6217, 28.6021 ], [ 75.5911, 28.6056 ], [ 75.5863, 28.6132 ], [ 75.5615, 28.6132 ], [ 75.5607, 28.6359 ], [ 75.5549, 28.6438 ], [ 75.5498, 28.641 ], [ 75.5412, 28.6605 ], [ 75.545, 28.6831 ], [ 75.5389, 28.6948 ], [ 75.54, 28.7245 ], [ 75.5305, 28.7383 ], [ 75.5361, 28.7452 ], [ 75.517, 28.7747 ], [ 75.5033, 28.7825 ], [ 75.5113, 28.7936 ], [ 75.5089, 28.8027 ], [ 75.5194, 28.8127 ], [ 75.5202, 28.834 ], [ 75.5078, 28.8392 ], [ 75.5053, 28.8513 ], [ 75.4985, 28.849 ], [ 75.4966, 28.8962 ], [ 75.4743, 28.9211 ], [ 75.4767, 28.9342 ], [ 75.5057, 28.9359 ], [ 75.5116, 28.9421 ], [ 75.51, 28.9539 ], [ 75.525, 28.97 ], [ 75.5481, 28.9664 ], [ 75.5649, 28.9805 ], [ 75.5998, 28.9899 ], [ 75.6306, 28.9778 ], [ 75.6479, 28.9377 ], [ 75.6624, 28.938 ], [ 75.6824, 28.9109 ], [ 75.7142, 28.9032 ], [ 75.7515, 28.9053 ], [ 75.7698, 28.8987 ], [ 75.7779, 28.9181 ], [ 75.7917, 28.9252 ], [ 75.8321, 28.9115 ], [ 75.8476, 28.9209 ], [ 75.8589, 28.9366 ], [ 75.8532, 28.9526 ], [ 75.8779, 28.971 ], [ 75.8858, 28.9882 ], [ 75.8957, 28.986 ], [ 75.8973, 29.0036 ], [ 75.9108, 29.0211 ], [ 75.9223, 29.0231 ], [ 75.959, 29.0 ], [ 75.9794, 28.9954 ], [ 75.9784, 29.0309 ], [ 75.968, 29.0629 ], [ 75.9838, 29.0813 ], [ 76.0118, 29.0603 ], [ 76.039, 29.0613 ], [ 76.0441, 29.0659 ], [ 76.0456, 29.0372 ], [ 76.0685, 29.0228 ], [ 76.075, 29.0229 ], [ 76.0778, 29.0379 ], [ 76.0877, 29.0449 ], [ 76.0982, 29.0472 ], [ 76.1316, 29.0351 ], [ 76.1372, 29.0454 ], [ 76.1905, 29.0514 ], [ 76.2067, 29.0298 ], [ 76.1964, 29.0191 ], [ 76.2014, 29.0071 ], [ 76.2287, 28.9897 ], [ 76.2141, 28.9732 ], [ 76.2124, 28.9551 ], [ 76.2439, 28.9414 ], [ 76.2358, 28.9114 ], [ 76.2542, 28.9036 ], [ 76.2779, 28.9083 ], [ 76.307, 28.8984 ], [ 76.3527, 28.8953 ], [ 76.3653, 28.879 ], [ 76.3446, 28.8495 ], [ 76.3412, 28.8241 ], [ 76.3337, 28.8135 ], [ 76.2923, 28.8074 ], [ 76.2923, 28.7851 ], [ 76.288, 28.7784 ], [ 76.2778, 28.7795 ], [ 76.2721, 28.7424 ], [ 76.2644, 28.7355 ], [ 76.2554, 28.7412 ], [ 76.2496, 28.7262 ], [ 76.2382, 28.7227 ], [ 76.2442, 28.7057 ], [ 76.2432, 28.6998 ], [ 76.2309, 28.696 ], [ 76.2328, 28.6773 ], [ 76.2029, 28.6759 ], [ 76.2039, 28.6801 ], [ 76.1905, 28.6828 ], [ 76.1776, 28.6683 ], [ 76.1498, 28.6852 ], [ 76.1338, 28.6873 ], [ 76.1242, 28.6816 ], [ 76.1355, 28.6658 ], [ 76.1328, 28.6485 ], [ 76.1227, 28.6513 ], [ 76.127, 28.6651 ], [ 76.1212, 28.6742 ], [ 76.1028, 28.6742 ], [ 76.0973, 28.6809 ], [ 76.1055, 28.6547 ], [ 76.0826, 28.6595 ], [ 76.0858, 28.6676 ], [ 76.0728, 28.6677 ], [ 76.0478, 28.6545 ], [ 76.0436, 28.645 ], [ 76.0161, 28.6388 ], [ 76.0035, 28.6242 ], [ 75.9564, 28.6045 ], [ 75.9076, 28.6107 ], [ 75.8472, 28.5869 ] ] ] } },
{ "type": "Feature", "properties": { "district": "Charkhi Dadri", "did": "haryana:Charkhi Dadri", "state_key": "haryana" }, "geometry": { "type": "Polygon", "coordinates": [ [ [ 76.0175, 28.3861 ], [ 76.0184, 28.409 ], [ 76.01, 28.4086 ], [ 76.0112, 28.4349 ], [ 75.9833, 28.445 ], [ 75.9534, 28.4359 ], [ 75.9031, 28.4318 ], [ 75.9097, 28.4375 ], [ 75.9109, 28.4544 ], [ 75.899, 28.4705 ], [ 75.8892, 28.4746 ], [ 75.8711, 28.4694 ], [ 75.8689, 28.4782 ], [ 75.8453, 28.4732 ], [ 75.8451, 28.4946 ], [ 75.8527, 28.4993 ], [ 75.8159, 28.5126 ], [ 75.823, 28.5166 ], [ 75.823, 28.5389 ], [ 75.8325, 28.5565 ], [ 75.85, 28.5667 ], [ 75.8472, 28.5869 ], [ 75.8993, 28.6097 ], [ 75.9564, 28.6045 ], [ 76.0035, 28.6242 ], [ 76.0161, 28.6388 ], [ 76.0436, 28.645 ], [ 76.0478, 28.6545 ], [ 76.0728, 28.6677 ], [ 76.0858, 28.6676 ], [ 76.0826, 28.6595 ], [ 76.1055, 28.6547 ], [ 76.0973, 28.6809 ], [ 76.1028, 28.6742 ], [ 76.1212, 28.6742 ], [ 76.127, 28.6651 ], [ 76.1227, 28.6513 ], [ 76.1328, 28.6485 ], [ 76.1355, 28.6658 ], [ 76.1242, 28.6816 ], [ 76.1338, 28.6873 ], [ 76.1498, 28.6852 ], [ 76.1776, 28.6683 ], [ 76.1905, 28.6828 ], [ 76.2039, 28.6801 ], [ 76.2029, 28.6759 ], [ 76.2328, 28.6773 ], [ 76.2309, 28.696 ], [ 76.2432, 28.6998 ], [ 76.2442, 28.7057 ], [ 76.2382, 28.7227 ], [ 76.2496, 28.7262 ], [ 76.2554, 28.7412 ], [ 76.2644, 28.7355 ], [ 76.2721, 28.7424 ], [ 76.2778, 28.7795 ], [ 76.288, 28.7784 ], [ 76.2923, 28.7851 ], [ 76.2923, 28.8074 ], [ 76.3335, 28.8136 ], [ 76.3399, 28.8045 ], [ 76.3596, 28.7995 ], [ 76.3665, 28.7882 ], [ 76.3856, 28.7827 ], [ 76.3869, 28.7703 ], [ 76.4061, 28.7562 ], [ 76.3998, 28.7343 ], [ 76.3805, 28.7148 ], [ 76.3803, 28.7018 ], [ 76.4062, 28.6826 ], [ 76.4011, 28.6664 ], [ 76.4372, 28.6653 ], [ 76.4497, 28.6595 ], [ 76.4478, 28.6446 ], [ 76.438, 28.6412 ], [ 76.4656, 28.6139 ], [ 76.4483, 28.5983 ], [ 76.4328, 28.5995 ], [ 76.4212, 28.5512 ], [ 76.4099, 28.5489 ], [ 76.404, 28.5517 ], [ 76.4014, 28.5953 ], [ 76.3731, 28.5997 ], [ 76.3602, 28.6071 ], [ 76.357, 28.6167 ], [ 76.3459, 28.6021 ], [ 76.3427, 28.5801 ], [ 76.3342, 28.5824 ], [ 76.3422, 28.5609 ], [ 76.3272, 28.4959 ], [ 76.3201, 28.4922 ], [ 76.3105, 28.4986 ], [ 76.2913, 28.4985 ], [ 76.2857, 28.4872 ], [ 76.2827, 28.478 ], [ 76.2931, 28.4688 ], [ 76.2906, 28.4399 ], [ 76.2842, 28.4309 ], [ 76.2473, 28.4378 ], [ 76.2447, 28.4592 ], [ 76.218, 28.4685 ], [ 76.2119, 28.4431 ], [ 76.189, 28.4433 ], [ 76.1833, 28.4296 ], [ 76.1662, 28.4315 ], [ 76.1615, 28.4574 ], [ 76.1533, 28.4634 ], [ 76.1489, 28.4516 ], [ 76.1187, 28.4535 ], [ 76.1077, 28.4475 ], [ 76.0904, 28.4229 ], [ 76.0821, 28.3928 ], [ 76.0175, 28.3861 ] ] ] } },
{ "type": "Feature", "properties": { "district": "Faridabad", "did": "haryana:Faridabad", "state_key": "haryana" }, "geometry": { "type": "MultiPolygon", "coordinates": [ [ [ [ 77.1798, 28.2855 ], [ 77.1765, 28.2788 ], [ 77.1652, 28.2836 ], [ 77.164, 28.2936 ], [ 77.1798, 28.2855 ] ] ], [ [ [ 77.5048, 28.37 ], [ 77.4963, 28.3491 ], [ 77.4712, 28.3348 ], [ 77.4717, 28.3281 ], [ 77.4849, 28.3257 ], [ 77.5071, 28.3057 ], [ 77.4985, 28.2856 ], [ 77.5034, 28.2801 ], [ 77.4908, 28.2713 ], [ 77.4982, 28.2301 ], [ 77.4893, 28.2182 ], [ 77.4848, 28.2214 ], [ 77.4561, 28.2052 ], [ 77.4342, 28.2139 ], [ 77.4158, 28.2004 ], [ 77.4083, 28.2143 ], [ 77.4055, 28.2112 ], [ 77.3798, 28.2214 ], [ 77.3729, 28.2358 ], [ 77.3449, 28.2351 ], [ 77.3414, 28.2451 ], [ 77.322, 28.2603 ], [ 77.3085, 28.2552 ], [ 77.2797, 28.2697 ], [ 77.2732, 28.2666 ], [ 77.2571, 28.2723 ], [ 77.2552, 28.2581 ], [ 77.2372, 28.2701 ], [ 77.2419, 28.2793 ], [ 77.2283, 28.2895 ], [ 77.2237, 28.2876 ], [ 77.2082, 28.2989 ], [ 77.2008, 28.2894 ], [ 77.1561, 28.3177 ], [ 77.1492, 28.3639 ], [ 77.1537, 28.3898 ], [ 77.1699, 28.3946 ], [ 77.1844, 28.4104 ], [ 77.2166, 28.4097 ], [ 77.2492, 28.4241 ], [ 77.2526, 28.4329 ], [ 77.2466, 28.4527 ], [ 77.2329, 28.4579 ], [ 77.2433, 28.4788 ], [ 77.2903, 28.4965 ], [ 77.3141, 28.4836 ], [ 77.3268, 28.4901 ], [ 77.3451, 28.5132 ], [ 77.3525, 28.4996 ], [ 77.3717, 28.4984 ], [ 77.3701, 28.4857 ], [ 77.3805, 28.4703 ], [ 77.4081, 28.4672 ], [ 77.4001, 28.4556 ], [ 77.4334, 28.4549 ], [ 77.4355, 28.4309 ], [ 77.4625, 28.4244 ], [ 77.4636, 28.4152 ], [ 77.4776, 28.4191 ], [ 77.4838, 28.4081 ], [ 77.4734, 28.397 ], [ 77.5048, 28.37 ] ] ] ] } },
{ "type": "Feature", "properties": { "district": "Fatehabad", "did": "haryana:Fatehabad", "state_key": "haryana" }, "geometry": { "type": "Polygon", "coordinates": [ [ [ 75.7619, 29.5066 ], [ 75.7518, 29.4803 ], [ 75.781, 29.4375 ], [ 75.776, 29.4243 ], [ 75.7716, 29.415 ], [ 75.7381, 29.3964 ], [ 75.7242, 29.405 ], [ 75.7307, 29.4173 ], [ 75.7105, 29.4304 ], [ 75.7014, 29.4244 ], [ 75.6603, 29.425 ], [ 75.6385, 29.4146 ], [ 75.6309, 29.4167 ], [ 75.6161, 29.4032 ], [ 75.6154, 29.3714 ], [ 75.6026, 29.3694 ], [ 75.5955, 29.3606 ], [ 75.6046, 29.3534 ], [ 75.605, 29.3445 ], [ 75.6006, 29.338 ], [ 75.5904, 29.3369 ], [ 75.5805, 29.3583 ], [ 75.5297, 29.3626 ], [ 75.5166, 29.398 ], [ 75.4925, 29.3937 ], [ 75.4713, 29.3766 ], [ 75.4675, 29.3657 ], [ 75.4738, 29.3588 ], [ 75.4497, 29.3532 ], [ 75.4389, 29.3698 ], [ 75.4278, 29.3686 ], [ 75.4158, 29.3461 ], [ 75.4005, 29.3417 ], [ 75.3985, 29.3178 ], [ 75.3578, 29.3099 ], [ 75.3471, 29.2829 ], [ 75.3406, 29.2808 ], [ 75.322, 29.2895 ], [ 75.3058, 29.2746 ], [ 75.2876, 29.2735 ], [ 75.2834, 29.2496 ], [ 75.2452, 29.2502 ], [ 75.2384, 29.2603 ], [ 75.234, 29.2686 ], [ 75.2411, 29.2972 ], [ 75.2255, 29.3256 ], [ 75.2356, 29.3357 ], [ 75.2562, 29.3369 ], [ 75.2652, 29.3457 ], [ 75.2636, 29.3598 ], [ 75.2433, 29.3763 ], [ 75.2277, 29.3797 ], [ 75.22, 29.3976 ], [ 75.2351, 29.4187 ], [ 75.2855, 29.4228 ], [ 75.3013, 29.4398 ], [ 75.281, 29.4737 ], [ 75.2877, 29.4937 ], [ 75.274, 29.5092 ], [ 75.3023, 29.5242 ], [ 75.2949, 29.5338 ], [ 75.3028, 29.5419 ], [ 75.301, 29.5562 ], [ 75.3095, 29.5608 ], [ 75.3113, 29.5801 ], [ 75.3199, 29.5874 ], [ 75.2897, 29.6078 ], [ 75.2957, 29.625 ], [ 75.3166, 29.6306 ], [ 75.3338, 29.6735 ], [ 75.3411, 29.6752 ], [ 75.3602, 29.6626 ], [ 75.3457, 29.696 ], [ 75.3586, 29.6997 ], [ 75.3591, 29.7055 ], [ 75.3708, 29.7045 ], [ 75.373, 29.7133 ], [ 75.3923, 29.7133 ], [ 75.3882, 29.7299 ], [ 75.3964, 29.7395 ], [ 75.4048, 29.739 ], [ 75.4063, 29.7612 ], [ 75.4214, 29.7751 ], [ 75.4275, 29.7709 ], [ 75.4384, 29.78 ], [ 75.454, 29.782 ], [ 75.4567, 29.8066 ], [ 75.5031, 29.7777 ], [ 75.5186, 29.7758 ], [ 75.523, 29.7584 ], [ 75.538, 29.7733 ], [ 75.5621, 29.7702 ], [ 75.5721, 29.7433 ], [ 75.5801, 29.7391 ], [ 75.6053, 29.7519 ], [ 75.6168, 29.7441 ], [ 75.6275, 29.7484 ], [ 75.6345, 29.7553 ], [ 75.6352, 29.7723 ], [ 75.6425, 29.7751 ], [ 75.6772, 29.7766 ], [ 75.6914, 29.7559 ], [ 75.7064, 29.7532 ], [ 75.7047, 29.7636 ], [ 75.7124, 29.7741 ], [ 75.7207, 29.8135 ], [ 75.7378, 29.814 ], [ 75.7562, 29.805 ], [ 75.7794, 29.8223 ], [ 75.7898, 29.8106 ], [ 75.8158, 29.8042 ], [ 75.8259, 29.8145 ], [ 75.8348, 29.8145 ], [ 75.837, 29.7942 ], [ 75.8529, 29.778 ], [ 75.8514, 29.7727 ], [ 75.8667, 29.7665 ], [ 75.8703, 29.7493 ], [ 75.8988, 29.7462 ], [ 75.9063, 29.7533 ], [ 75.9224, 29.7377 ], [ 75.9468, 29.7298 ], [ 75.9448, 29.703 ], [ 75.9336, 29.6846 ], [ 75.9514, 29.6702 ], [ 75.9414, 29.6415 ], [ 75.9567, 29.627 ], [ 75.9487, 29.5938 ], [ 75.9614, 29.5914 ], [ 75.9641, 29.5625 ], [ 75.9348, 29.5802 ], [ 75.9266, 29.5761 ], [ 75.9164, 29.554 ], [ 75.8945, 29.5578 ], [ 75.8943, 29.5364 ], [ 75.8767, 29.5378 ], [ 75.8721, 29.5558 ], [ 75.8582, 29.5503 ], [ 75.8523, 29.5392 ], [ 75.8546, 29.5259 ], [ 75.8398, 29.5098 ], [ 75.8243, 29.5114 ], [ 75.8069, 29.5214 ], [ 75.7988, 29.5154 ], [ 75.7876, 29.5178 ], [ 75.7619, 29.5066 ] ] ] } },
{ "type": "Feature", "properties": { "district": "Gurugram", "did": "haryana:Gurugram", "state_key": "haryana" }, "geometry": { "type": "Polygon", "coordinates": [ [ [ 76.7805, 28.2239 ], [ 76.7693, 28.24 ], [ 76.7535, 28.2485 ], [ 76.7111, 28.2648 ], [ 76.6991, 28.2587 ], [ 76.6881, 28.2659 ], [ 76.6835, 28.2613 ], [ 76.6772, 28.2645 ], [ 76.6732, 28.2701 ], [ 76.6855, 28.3138 ], [ 76.6729, 28.3171 ], [ 76.6664, 28.3031 ], [ 76.6503, 28.3077 ], [ 76.6647, 28.3404 ], [ 76.6571, 28.3548 ], [ 76.669, 28.3792 ], [ 76.6922, 28.3704 ], [ 76.6964, 28.3609 ], [ 76.7137, 28.3563 ], [ 76.7251, 28.3576 ], [ 76.7326, 28.3686 ], [ 76.729, 28.3882 ], [ 76.7072, 28.4013 ], [ 76.7171, 28.4378 ], [ 76.7116, 28.4571 ], [ 76.7057, 28.4593 ], [ 76.7043, 28.4927 ], [ 76.7261, 28.4867 ], [ 76.7353, 28.4795 ], [ 76.734, 28.4722 ], [ 76.7493, 28.4626 ], [ 76.7585, 28.4608 ], [ 76.7689, 28.4792 ], [ 76.7919, 28.4659 ], [ 76.8107, 28.475 ], [ 76.8239, 28.5047 ], [ 76.8763, 28.4981 ], [ 76.8922, 28.5008 ], [ 76.9079, 28.5138 ], [ 76.9208, 28.507 ], [ 76.9273, 28.5105 ], [ 76.9488, 28.504 ], [ 76.9781, 28.5213 ], [ 76.9904, 28.5135 ], [ 76.9966, 28.5197 ], [ 77.0102, 28.5143 ], [ 77.0171, 28.5208 ], [ 77.0002, 28.5321 ], [ 77.0067, 28.5414 ], [ 77.043, 28.5247 ], [ 77.0462, 28.5167 ], [ 77.0668, 28.512 ], [ 77.0718, 28.5202 ], [ 77.0804, 28.518 ], [ 77.1207, 28.4959 ], [ 77.1108, 28.4713 ], [ 77.1218, 28.4585 ], [ 77.1236, 28.4455 ], [ 77.1623, 28.4289 ], [ 77.1652, 28.4142 ], [ 77.1745, 28.4047 ], [ 77.1699, 28.3946 ], [ 77.1537, 28.3898 ], [ 77.1509, 28.3804 ], [ 77.1561, 28.3177 ], [ 77.2008, 28.2894 ], [ 77.2082, 28.2989 ], [ 77.2419, 28.2793 ], [ 77.2372, 28.2701 ], [ 77.2138, 28.2617 ], [ 77.2098, 28.2496 ], [ 77.1957, 28.245 ], [ 77.1915, 28.2348 ], [ 77.2018, 28.2289 ], [ 77.1979, 28.2224 ], [ 77.2045, 28.2188 ], [ 77.2033, 28.2123 ], [ 77.1827, 28.2099 ], [ 77.1719, 28.199 ], [ 77.1622, 28.2129 ], [ 77.1344, 28.2264 ], [ 77.1206, 28.218 ], [ 77.103, 28.2275 ], [ 77.0941, 28.2199 ], [ 77.0816, 28.2299 ], [ 77.0719, 28.2143 ], [ 77.0614, 28.2172 ], [ 77.0547, 28.2231 ], [ 77.0564, 28.244 ], [ 77.0213, 28.2482 ], [ 77.0108, 28.3055 ], [ 77.0, 28.3266 ], [ 76.9864, 28.3268 ], [ 76.9777, 28.3357 ], [ 76.9704, 28.3266 ], [ 76.9596, 28.3276 ], [ 76.9514, 28.3142 ], [ 76.932, 28.3247 ], [ 76.9154, 28.3001 ], [ 76.9046, 28.3024 ], [ 76.9039, 28.2918 ], [ 76.9171, 28.2783 ], [ 76.9123, 28.2637 ], [ 76.894, 28.2533 ], [ 76.8753, 28.2639 ], [ 76.8575, 28.2346 ], [ 76.8233, 28.2453 ], [ 76.8122, 28.2408 ], [ 76.811, 28.2542 ], [ 76.7957, 28.2553 ], [ 76.7805, 28.2239 ] ], [ [ 77.1765, 28.2788 ], [ 77.1798, 28.2855 ], [ 77.164, 28.2936 ], [ 77.1688, 28.2812 ], [ 77.1765, 28.2788 ] ] ] } },
{ "type": "Feature", "properties": { "district": "Hisar", "did": "haryana:Hisar", "state_key": "haryana" }, "geometry": { "type": "Polygon", "coordinates": [ [ [ 76.2586, 29.2075 ], [ 76.2832, 29.2071 ], [ 76.3001, 29.1881 ], [ 76.3001, 29.1773 ], [ 76.2954, 29.1775 ], [ 76.3052, 29.1268 ], [ 76.3181, 29.1171 ], [ 76.2832, 29.0642 ], [ 76.2448, 29.061 ], [ 76.2394, 29.0464 ], [ 76.2506, 29.0228 ], [ 76.2466, 29.0047 ], [ 76.2353, 29.0 ], [ 76.2301, 28.9896 ], [ 76.2015, 29.0069 ], [ 76.1964, 29.0191 ], [ 76.2067, 29.0298 ], [ 76.1905, 29.0514 ], [ 76.1372, 29.0454 ], [ 76.1316, 29.0351 ], [ 76.0982, 29.0472 ], [ 76.0877, 29.0449 ], [ 76.0778, 29.0379 ], [ 76.075, 29.0229 ], [ 76.0685, 29.0228 ], [ 76.0456, 29.0372 ], [ 76.0441, 29.0659 ], [ 76.039, 29.0613 ], [ 76.0118, 29.0603 ], [ 75.9838, 29.0813 ], [ 75.968, 29.0629 ], [ 75.9784, 29.0309 ], [ 75.9794, 28.9954 ], [ 75.959, 29.0 ], [ 75.9223, 29.0231 ], [ 75.9108, 29.0211 ], [ 75.8973, 29.0036 ], [ 75.8957, 28.986 ], [ 75.8858, 28.9882 ], [ 75.8779, 28.971 ], [ 75.8532, 28.9526 ], [ 75.8589, 28.9366 ], [ 75.8476, 28.9209 ], [ 75.8321, 28.9115 ], [ 75.7917, 28.9252 ], [ 75.7779, 28.9181 ], [ 75.7689, 28.8986 ], [ 75.7515, 28.9053 ], [ 75.7142, 28.9032 ], [ 75.6824, 28.9109 ], [ 75.6624, 28.938 ], [ 75.6479, 28.9377 ], [ 75.6306, 28.9778 ], [ 75.6132, 28.9866 ], [ 75.5967, 28.9899 ], [ 75.5864, 28.9827 ], [ 75.5826, 28.9859 ], [ 75.5649, 28.9805 ], [ 75.5481, 28.9664 ], [ 75.5273, 28.9705 ], [ 75.522, 29.0037 ], [ 75.5156, 29.0083 ], [ 75.4599, 29.0144 ], [ 75.4457, 29.0083 ], [ 75.443, 29.0231 ], [ 75.4519, 29.0392 ], [ 75.4418, 29.0575 ], [ 75.3913, 29.0627 ], [ 75.3969, 29.0976 ], [ 75.3921, 29.102 ], [ 75.4058, 29.1198 ], [ 75.4022, 29.1279 ], [ 75.3844, 29.1295 ], [ 75.3712, 29.14 ], [ 75.3787, 29.1422 ], [ 75.3813, 29.169 ], [ 75.4068, 29.1697 ], [ 75.4144, 29.1843 ], [ 75.4086, 29.2133 ], [ 75.3968, 29.2175 ], [ 75.412, 29.2427 ], [ 75.4107, 29.2555 ], [ 75.3927, 29.2614 ], [ 75.3753, 29.2554 ], [ 75.3624, 29.2444 ], [ 75.3559, 29.223 ], [ 75.328, 29.2359 ], [ 75.3358, 29.2443 ], [ 75.3406, 29.2808 ], [ 75.3471, 29.2829 ], [ 75.3549, 29.3076 ], [ 75.3985, 29.3178 ], [ 75.4005, 29.3417 ], [ 75.4158, 29.3461 ], [ 75.4278, 29.3686 ], [ 75.4389, 29.3698 ], [ 75.4497, 29.3532 ], [ 75.4693, 29.3572 ], [ 75.4738, 29.3588 ], [ 75.4674, 29.3666 ], [ 75.482, 29.3897 ], [ 75.5166, 29.398 ], [ 75.5297, 29.3626 ], [ 75.5805, 29.3583 ], [ 75.5876, 29.3377 ], [ 75.6006, 29.338 ], [ 75.6046, 29.3534 ], [ 75.5955, 29.3606 ], [ 75.6026, 29.3694 ], [ 75.6154, 29.3714 ], [ 75.6161, 29.4032 ], [ 75.6309, 29.4167 ], [ 75.6385, 29.4146 ], [ 75.6603, 29.425 ], [ 75.7014, 29.4244 ], [ 75.7105, 29.4304 ], [ 75.7307, 29.4173 ], [ 75.7242, 29.405 ], [ 75.7381, 29.3964 ], [ 75.7716, 29.415 ], [ 75.781, 29.4375 ], [ 75.7518, 29.4803 ], [ 75.7619, 29.5066 ], [ 75.8054, 29.5214 ], [ 75.8398, 29.5098 ], [ 75.8546, 29.5259 ], [ 75.8523, 29.5392 ], [ 75.8582, 29.5503 ], [ 75.8721, 29.5558 ], [ 75.8767, 29.5378 ], [ 75.8943, 29.5364 ], [ 75.8945, 29.5578 ], [ 75.9164, 29.554 ], [ 75.9266, 29.5761 ], [ 75.9367, 29.5803 ], [ 75.9624, 29.5635 ], [ 75.9637, 29.5541 ], [ 75.9516, 29.5212 ], [ 75.9383, 29.5128 ], [ 75.933, 29.4991 ], [ 75.9498, 29.4941 ], [ 75.9606, 29.4972 ], [ 76.0138, 29.4807 ], [ 75.996, 29.4471 ], [ 76.0194, 29.4375 ], [ 76.0246, 29.4237 ], [ 76.0511, 29.4399 ], [ 76.0767, 29.4415 ], [ 76.0829, 29.4366 ], [ 76.086, 29.4092 ], [ 76.0943, 29.4036 ], [ 76.1135, 29.4059 ], [ 76.1318, 29.3901 ], [ 76.1429, 29.4093 ], [ 76.1573, 29.42 ], [ 76.1669, 29.4135 ], [ 76.1852, 29.4129 ], [ 76.1985, 29.4029 ], [ 76.2067, 29.3645 ], [ 76.1778, 29.3406 ], [ 76.2093, 29.3196 ], [ 76.1867, 29.2861 ], [ 76.2136, 29.2562 ], [ 76.2115, 29.248 ], [ 76.2281, 29.2388 ], [ 76.2237, 29.222 ], [ 76.2586, 29.2075 ] ] ] } },
{ "type": "Feature", "properties": { "district": "Jhajjar", "did": "haryana:Jhajjar", "state_key": "haryana" }, "geometry": { "type": "Polygon", "coordinates": [ [ [ 76.4589, 28.4258 ], [ 76.4542, 28.4181 ], [ 76.44, 28.4248 ], [ 76.4453, 28.4378 ], [ 76.4361, 28.4399 ], [ 76.4407, 28.4561 ], [ 76.4018, 28.4719 ], [ 76.3703, 28.4708 ], [ 76.3646, 28.455 ], [ 76.3254, 28.4672 ], [ 76.3183, 28.4618 ], [ 76.3124, 28.4705 ], [ 76.2931, 28.4688 ], [ 76.2827, 28.478 ], [ 76.2913, 28.4985 ], [ 76.3105, 28.4986 ], [ 76.3201, 28.4922 ], [ 76.3272, 28.4959 ], [ 76.3422, 28.5609 ], [ 76.3342, 28.5824 ], [ 76.3427, 28.5801 ], [ 76.3459, 28.6021 ], [ 76.357, 28.6167 ], [ 76.3602, 28.6071 ], [ 76.3731, 28.5997 ], [ 76.4014, 28.5953 ], [ 76.404, 28.5517 ], [ 76.4099, 28.5489 ], [ 76.4212, 28.5512 ], [ 76.4328, 28.5995 ], [ 76.4483, 28.5983 ], [ 76.4656, 28.6139 ], [ 76.438, 28.6412 ], [ 76.4478, 28.6446 ], [ 76.4497, 28.6595 ], [ 76.4372, 28.6653 ], [ 76.4011, 28.6664 ], [ 76.42, 28.7029 ], [ 76.4153, 28.7235 ], [ 76.4252, 28.7224 ], [ 76.4453, 28.7361 ], [ 76.471, 28.7412 ], [ 76.4932, 28.7368 ], [ 76.5031, 28.743 ], [ 76.5231, 28.7375 ], [ 76.5302, 28.7507 ], [ 76.5775, 28.7339 ], [ 76.5945, 28.7536 ], [ 76.5954, 28.7814 ], [ 76.6042, 28.7922 ], [ 76.6268, 28.7893 ], [ 76.6452, 28.8042 ], [ 76.6316, 28.8283 ], [ 76.6444, 28.8397 ], [ 76.6556, 28.8183 ], [ 76.6696, 28.8132 ], [ 76.6706, 28.7961 ], [ 76.7089, 28.7871 ], [ 76.7083, 28.7687 ], [ 76.6929, 28.7635 ], [ 76.6869, 28.7435 ], [ 76.6992, 28.7357 ], [ 76.7091, 28.7362 ], [ 76.7155, 28.7588 ], [ 76.7406, 28.7568 ], [ 76.757, 28.7694 ], [ 76.7675, 28.7626 ], [ 76.7644, 28.7511 ], [ 76.7796, 28.743 ], [ 76.819, 28.7838 ], [ 76.8341, 28.8104 ], [ 76.8501, 28.8076 ], [ 76.8696, 28.8237 ], [ 76.884, 28.8166 ], [ 76.8965, 28.7952 ], [ 76.9121, 28.7935 ], [ 76.9233, 28.801 ], [ 76.9459, 28.7981 ], [ 76.9533, 28.7916 ], [ 76.9498, 28.7771 ], [ 76.9556, 28.7678 ], [ 76.9445, 28.7541 ], [ 76.9583, 28.7432 ], [ 76.9601, 28.7327 ], [ 76.9482, 28.713 ], [ 76.9678, 28.6996 ], [ 76.9538, 28.6677 ], [ 76.9353, 28.6679 ], [ 76.925, 28.6501 ], [ 76.9445, 28.6333 ], [ 76.943, 28.628 ], [ 76.9346, 28.6184 ], [ 76.9202, 28.6315 ], [ 76.9065, 28.6238 ], [ 76.8883, 28.632 ], [ 76.8643, 28.586 ], [ 76.8395, 28.5828 ], [ 76.8453, 28.5505 ], [ 76.8647, 28.5435 ], [ 76.877, 28.5244 ], [ 76.8871, 28.5206 ], [ 76.8804, 28.5062 ], [ 76.8853, 28.5008 ], [ 76.8239, 28.5047 ], [ 76.8107, 28.475 ], [ 76.7919, 28.4659 ], [ 76.7689, 28.4792 ], [ 76.7585, 28.4608 ], [ 76.734, 28.4722 ], [ 76.7353, 28.4795 ], [ 76.7178, 28.4919 ], [ 76.7043, 28.4927 ], [ 76.7057, 28.4593 ], [ 76.7116, 28.4571 ], [ 76.7171, 28.4378 ], [ 76.7072, 28.4013 ], [ 76.7268, 28.3905 ], [ 76.7346, 28.3763 ], [ 76.7251, 28.3576 ], [ 76.7015, 28.3587 ], [ 76.6839, 28.3757 ], [ 76.6659, 28.3799 ], [ 76.6327, 28.4217 ], [ 76.6142, 28.4298 ], [ 76.5837, 28.4369 ], [ 76.5606, 28.4046 ], [ 76.5118, 28.4152 ], [ 76.5005, 28.4309 ], [ 76.4589, 28.4258 ] ] ] } },
{ "type": "Feature", "properties": { "district": "Jind", "did": "haryana:Jind", "state_key": "haryana" }, "geometry": { "type": "Polygon", "coordinates": [ [ [ 76.4956, 29.1781 ], [ 76.5122, 29.1632 ], [ 76.5109, 29.156 ], [ 76.4929, 29.1433 ], [ 76.4772, 29.0909 ], [ 76.4556, 29.0613 ], [ 76.4433, 29.0554 ], [ 76.4028, 29.0757 ], [ 76.3795, 29.0656 ], [ 76.3501, 29.0832 ], [ 76.3014, 29.086 ], [ 76.3019, 29.0956 ], [ 76.3181, 29.1163 ], [ 76.3052, 29.1268 ], [ 76.2954, 29.1775 ], [ 76.3001, 29.1773 ], [ 76.3001, 29.1881 ], [ 76.2805, 29.2087 ], [ 76.2591, 29.2073 ], [ 76.225, 29.2191 ], [ 76.2281, 29.2388 ], [ 76.2115, 29.248 ], [ 76.2136, 29.2562 ], [ 76.1867, 29.2861 ], [ 76.2093, 29.3193 ], [ 76.1778, 29.3406 ], [ 76.2067, 29.3645 ], [ 76.1985, 29.4029 ], [ 76.1852, 29.4129 ], [ 76.1669, 29.4135 ], [ 76.1573, 29.42 ], [ 76.1429, 29.4093 ], [ 76.1318, 29.3901 ], [ 76.1135, 29.4059 ], [ 76.0943, 29.4036 ], [ 76.086, 29.4092 ], [ 76.0829, 29.4366 ], [ 76.0767, 29.4415 ], [ 76.0511, 29.4399 ], [ 76.0273, 29.4226 ], [ 76.0166, 29.4397 ], [ 75.996, 29.4471 ], [ 76.0138, 29.4807 ], [ 75.9606, 29.4972 ], [ 75.9498, 29.4941 ], [ 75.933, 29.4991 ], [ 75.9383, 29.5128 ], [ 75.9516, 29.5212 ], [ 75.9637, 29.5541 ], [ 75.9614, 29.5914 ], [ 75.9487, 29.5938 ], [ 75.9567, 29.627 ], [ 75.9414, 29.6415 ], [ 75.9514, 29.6702 ], [ 75.9336, 29.6846 ], [ 75.944, 29.7006 ], [ 75.9485, 29.7306 ], [ 75.9844, 29.7271 ], [ 75.9949, 29.7393 ], [ 76.0168, 29.743 ], [ 76.0268, 29.7563 ], [ 76.0318, 29.7468 ], [ 76.0438, 29.7427 ], [ 76.0568, 29.7654 ], [ 76.0826, 29.7812 ], [ 76.085, 29.8007 ], [ 76.0981, 29.8106 ], [ 76.1051, 29.8118 ], [ 76.12, 29.8009 ], [ 76.124, 29.7909 ], [ 76.1455, 29.8191 ], [ 76.1737, 29.8179 ], [ 76.1849, 29.8227 ], [ 76.1978, 29.8448 ], [ 76.212, 29.843 ], [ 76.2092, 29.8239 ], [ 76.2188, 29.8184 ], [ 76.2172, 29.7951 ], [ 76.2069, 29.7877 ], [ 76.2085, 29.7738 ], [ 76.1962, 29.7639 ], [ 76.2031, 29.7576 ], [ 76.1977, 29.7471 ], [ 76.1797, 29.7369 ], [ 76.1837, 29.7197 ], [ 76.1684, 29.6888 ], [ 76.1921, 29.6796 ], [ 76.2022, 29.6647 ], [ 76.1941, 29.6407 ], [ 76.218, 29.6228 ], [ 76.2346, 29.6182 ], [ 76.2422, 29.6015 ], [ 76.2385, 29.5934 ], [ 76.266, 29.5767 ], [ 76.2711, 29.55 ], [ 76.2814, 29.5469 ], [ 76.3011, 29.5575 ], [ 76.2907, 29.5781 ], [ 76.2978, 29.5899 ], [ 76.3284, 29.5798 ], [ 76.351, 29.5799 ], [ 76.3586, 29.5688 ], [ 76.3491, 29.5554 ], [ 76.3744, 29.5272 ], [ 76.4052, 29.5305 ], [ 76.4156, 29.5343 ], [ 76.414, 29.5407 ], [ 76.4302, 29.545 ], [ 76.4369, 29.5292 ], [ 76.4476, 29.5313 ], [ 76.4538, 29.547 ], [ 76.4603, 29.5488 ], [ 76.4858, 29.5418 ], [ 76.5061, 29.4864 ], [ 76.4816, 29.4767 ], [ 76.471, 29.4367 ], [ 76.4629, 29.4275 ], [ 76.4746, 29.4165 ], [ 76.4835, 29.4337 ], [ 76.5, 29.4254 ], [ 76.5228, 29.4315 ], [ 76.5373, 29.4576 ], [ 76.5842, 29.4647 ], [ 76.6078, 29.4807 ], [ 76.6331, 29.4693 ], [ 76.6547, 29.4912 ], [ 76.6919, 29.4762 ], [ 76.7094, 29.4744 ], [ 76.7176, 29.4823 ], [ 76.7344, 29.4811 ], [ 76.7457, 29.4777 ], [ 76.7549, 29.4654 ], [ 76.7625, 29.4658 ], [ 76.7311, 29.4125 ], [ 76.7405, 29.4067 ], [ 76.7346, 29.3881 ], [ 76.7106, 29.3819 ], [ 76.69, 29.3836 ], [ 76.6856, 29.3768 ], [ 76.6494, 29.3667 ], [ 76.6483, 29.3383 ], [ 76.6319, 29.3146 ], [ 76.6418, 29.3053 ], [ 76.6367, 29.2975 ], [ 76.6547, 29.2836 ], [ 76.6769, 29.2805 ], [ 76.6825, 29.2741 ], [ 76.6789, 29.2648 ], [ 76.6536, 29.2663 ], [ 76.6108, 29.2892 ], [ 76.5974, 29.2802 ], [ 76.5826, 29.2853 ], [ 76.5609, 29.2809 ], [ 76.5542, 29.2567 ], [ 76.5684, 29.2267 ], [ 76.5598, 29.2087 ], [ 76.5341, 29.214 ], [ 76.5248, 29.2212 ], [ 76.5256, 29.2316 ], [ 76.4834, 29.2426 ], [ 76.4745, 29.238 ], [ 76.4956, 29.1781 ] ] ] } },
{ "type": "Feature", "properties": { "district": "Kaithal", "did": "haryana:Kaithal", "state_key": "haryana" }, "geometry": { "type": "Polygon", "coordinates": [ [ [ 76.3284, 29.5798 ], [ 76.2978, 29.5899 ], [ 76.2907, 29.5781 ], [ 76.3011, 29.5575 ], [ 76.2814, 29.5469 ], [ 76.2711, 29.55 ], [ 76.266, 29.5767 ], [ 76.2385, 29.5934 ], [ 76.2422, 29.6015 ], [ 76.2346, 29.6182 ], [ 76.218, 29.6228 ], [ 76.1941, 29.6407 ], [ 76.2022, 29.6647 ], [ 76.1921, 29.6796 ], [ 76.1684, 29.6888 ], [ 76.1837, 29.7197 ], [ 76.1797, 29.7369 ], [ 76.1977, 29.7471 ], [ 76.2031, 29.7576 ], [ 76.1962, 29.7639 ], [ 76.2085, 29.7738 ], [ 76.2069, 29.7877 ], [ 76.2172, 29.7951 ], [ 76.22, 29.8111 ], [ 76.2146, 29.8132 ], [ 76.2183, 29.8194 ], [ 76.2092, 29.8239 ], [ 76.2123, 29.8368 ], [ 76.2206, 29.8378 ], [ 76.2272, 29.8518 ], [ 76.2438, 29.8524 ], [ 76.2471, 29.8754 ], [ 76.2294, 29.8856 ], [ 76.2174, 29.884 ], [ 76.2108, 29.8913 ], [ 76.2098, 29.8859 ], [ 76.1935, 29.8856 ], [ 76.1857, 29.8924 ], [ 76.1878, 29.9206 ], [ 76.1721, 29.9277 ], [ 76.1838, 29.9483 ], [ 76.2102, 29.9396 ], [ 76.2127, 29.9471 ], [ 76.1981, 29.9683 ], [ 76.2057, 29.9743 ], [ 76.2024, 29.9893 ], [ 76.2107, 29.9882 ], [ 76.2093, 30.0041 ], [ 76.2256, 30.0077 ], [ 76.232, 30.0152 ], [ 76.2132, 30.0221 ], [ 76.214, 30.0317 ], [ 76.2224, 30.0367 ], [ 76.2262, 30.0587 ], [ 76.2497, 30.0869 ], [ 76.2601, 30.0874 ], [ 76.2653, 30.0988 ], [ 76.2517, 30.1075 ], [ 76.2421, 30.1005 ], [ 76.2238, 30.1116 ], [ 76.2168, 30.11 ], [ 76.2173, 30.1227 ], [ 76.1964, 30.1235 ], [ 76.1969, 30.1325 ], [ 76.2077, 30.1342 ], [ 76.2159, 30.1237 ], [ 76.2243, 30.1271 ], [ 76.2077, 30.1443 ], [ 76.2077, 30.157 ], [ 76.214, 30.1564 ], [ 76.219, 30.1477 ], [ 76.2344, 30.1449 ], [ 76.2324, 30.1399 ], [ 76.2425, 30.1291 ], [ 76.285, 30.1063 ], [ 76.2961, 30.1146 ], [ 76.3202, 30.0954 ], [ 76.3399, 30.0987 ], [ 76.3602, 30.1202 ], [ 76.3421, 30.1263 ], [ 76.3335, 30.1382 ], [ 76.3378, 30.1433 ], [ 76.3505, 30.1468 ], [ 76.3589, 30.1402 ], [ 76.3669, 30.1242 ], [ 76.3604, 30.1218 ], [ 76.3679, 30.1176 ], [ 76.3889, 30.1132 ], [ 76.4001, 30.1167 ], [ 76.3911, 30.1348 ], [ 76.4101, 30.145 ], [ 76.3872, 30.1706 ], [ 76.4064, 30.1903 ], [ 76.4219, 30.1924 ], [ 76.4343, 30.1831 ], [ 76.4304, 30.178 ], [ 76.4406, 30.1658 ], [ 76.4288, 30.1501 ], [ 76.4398, 30.1437 ], [ 76.4405, 30.1314 ], [ 76.46, 30.1294 ], [ 76.4571, 30.1101 ], [ 76.4679, 30.0988 ], [ 76.4217, 30.0307 ], [ 76.4426, 30.0071 ], [ 76.4327, 29.9953 ], [ 76.4392, 29.9723 ], [ 76.4566, 29.9639 ], [ 76.4674, 29.9735 ], [ 76.4866, 29.956 ], [ 76.4812, 29.9526 ], [ 76.4831, 29.9366 ], [ 76.4655, 29.9135 ], [ 76.4805, 29.906 ], [ 76.5036, 29.9042 ], [ 76.5115, 29.8973 ], [ 76.5186, 29.9196 ], [ 76.5311, 29.9262 ], [ 76.5408, 29.9205 ], [ 76.5307, 29.9017 ], [ 76.5369, 29.8998 ], [ 76.5596, 29.9175 ], [ 76.5721, 29.909 ], [ 76.5885, 29.9204 ], [ 76.6062, 29.9128 ], [ 76.6189, 29.9218 ], [ 76.6478, 29.9112 ], [ 76.6891, 29.9188 ], [ 76.6852, 29.9085 ], [ 76.6949, 29.8994 ], [ 76.6933, 29.8864 ], [ 76.6841, 29.8662 ], [ 76.6745, 29.864 ], [ 76.6943, 29.854 ], [ 76.6878, 29.827 ], [ 76.7045, 29.8256 ], [ 76.717, 29.8132 ], [ 76.6983, 29.7959 ], [ 76.7002, 29.7839 ], [ 76.6835, 29.7686 ], [ 76.6898, 29.7535 ], [ 76.6974, 29.7513 ], [ 76.6951, 29.7273 ], [ 76.6682, 29.7091 ], [ 76.7124, 29.6936 ], [ 76.7033, 29.6677 ], [ 76.6834, 29.6776 ], [ 76.6727, 29.6699 ], [ 76.6562, 29.6713 ], [ 76.6382, 29.649 ], [ 76.6174, 29.644 ], [ 76.6157, 29.636 ], [ 76.6033, 29.6279 ], [ 76.5774, 29.6256 ], [ 76.5636, 29.63 ], [ 76.5399, 29.6136 ], [ 76.5219, 29.6147 ], [ 76.5499, 29.5905 ], [ 76.5441, 29.5758 ], [ 76.5301, 29.5703 ], [ 76.5234, 29.5495 ], [ 76.5261, 29.5367 ], [ 76.511, 29.5317 ], [ 76.5055, 29.5144 ], [ 76.4952, 29.5165 ], [ 76.4873, 29.5264 ], [ 76.4858, 29.5418 ], [ 76.4626, 29.5489 ], [ 76.4538, 29.547 ], [ 76.4476, 29.5313 ], [ 76.4369, 29.5292 ], [ 76.4302, 29.545 ], [ 76.414, 29.5407 ], [ 76.4156, 29.5343 ], [ 76.4052, 29.5305 ], [ 76.3733, 29.5276 ], [ 76.3491, 29.5554 ], [ 76.3586, 29.5694 ], [ 76.3453, 29.5827 ], [ 76.3284, 29.5798 ] ] ] } },
{ "type": "Feature", "properties": { "district": "Karnal", "did": "haryana:Karnal", "state_key": "haryana" }, "geometry": { "type": "Polygon", "coordinates": [ [ [ 77.132, 29.4849 ], [ 77.1168, 29.4694 ], [ 77.0873, 29.458 ], [ 77.0731, 29.4726 ], [ 77.0553, 29.4673 ], [ 77.0218, 29.4689 ], [ 77.0175, 29.4639 ], [ 76.9655, 29.4838 ], [ 76.9499, 29.4786 ], [ 76.9161, 29.4827 ], [ 76.9085, 29.4773 ], [ 76.8982, 29.4892 ], [ 76.9028, 29.5068 ], [ 76.9119, 29.5098 ], [ 76.915, 29.5185 ], [ 76.8854, 29.5257 ], [ 76.8828, 29.534 ], [ 76.8777, 29.5198 ], [ 76.888, 29.5117 ], [ 76.8826, 29.4931 ], [ 76.8558, 29.49 ], [ 76.8289, 29.5121 ], [ 76.8181, 29.5141 ], [ 76.7952, 29.4667 ], [ 76.7755, 29.4743 ], [ 76.7556, 29.4652 ], [ 76.7457, 29.4777 ], [ 76.7212, 29.4826 ], [ 76.7094, 29.4744 ], [ 76.6878, 29.4769 ], [ 76.6548, 29.4912 ], [ 76.6331, 29.4693 ], [ 76.6078, 29.4807 ], [ 76.5842, 29.4647 ], [ 76.5348, 29.4565 ], [ 76.5228, 29.4315 ], [ 76.5, 29.4254 ], [ 76.4835, 29.4337 ], [ 76.4746, 29.4165 ], [ 76.4631, 29.4255 ], [ 76.484, 29.4805 ], [ 76.4959, 29.4789 ], [ 76.5061, 29.4864 ], [ 76.4953, 29.5164 ], [ 76.5055, 29.5144 ], [ 76.511, 29.5317 ], [ 76.5261, 29.5367 ], [ 76.5234, 29.5495 ], [ 76.5301, 29.5703 ], [ 76.5472, 29.5805 ], [ 76.5465, 29.596 ], [ 76.5219, 29.6147 ], [ 76.5399, 29.6136 ], [ 76.5636, 29.63 ], [ 76.5774, 29.6256 ], [ 76.6033, 29.6279 ], [ 76.6157, 29.636 ], [ 76.6174, 29.644 ], [ 76.6382, 29.649 ], [ 76.6562, 29.6713 ], [ 76.6727, 29.6699 ], [ 76.6834, 29.6776 ], [ 76.7033, 29.6677 ], [ 76.7125, 29.695 ], [ 76.6682, 29.7091 ], [ 76.6951, 29.7273 ], [ 76.6974, 29.7513 ], [ 76.6898, 29.7535 ], [ 76.6835, 29.7686 ], [ 76.7002, 29.7839 ], [ 76.6983, 29.7959 ], [ 76.717, 29.8132 ], [ 76.7045, 29.8256 ], [ 76.6878, 29.827 ], [ 76.6943, 29.854 ], [ 76.6745, 29.864 ], [ 76.6856, 29.8685 ], [ 76.6949, 29.8994 ], [ 76.7323, 29.8717 ], [ 76.7551, 29.8668 ], [ 76.7663, 29.8762 ], [ 76.7816, 29.8734 ], [ 76.8033, 29.8823 ], [ 76.8098, 29.9019 ], [ 76.8227, 29.8941 ], [ 76.8334, 29.9021 ], [ 76.8397, 29.8873 ], [ 76.8577, 29.8774 ], [ 76.8809, 29.8805 ], [ 76.8972, 29.8997 ], [ 76.9001, 29.9199 ], [ 76.9209, 29.9144 ], [ 76.9311, 29.9259 ], [ 76.9556, 29.9139 ], [ 76.9491, 29.9318 ], [ 76.9834, 29.9533 ], [ 76.9828, 29.9588 ], [ 76.9998, 29.9499 ], [ 77.0063, 29.9566 ], [ 77.022, 29.9471 ], [ 77.0333, 29.9553 ], [ 77.048, 29.9528 ], [ 77.053, 29.9464 ], [ 77.0647, 29.9521 ], [ 77.096, 29.9506 ], [ 77.1045, 29.9684 ], [ 77.1146, 29.9709 ], [ 77.1114, 29.9843 ], [ 77.1174, 29.9934 ], [ 77.1344, 29.9791 ], [ 77.134, 29.9642 ], [ 77.171, 29.9699 ], [ 77.1892, 29.9547 ], [ 77.182, 29.9466 ], [ 77.1958, 29.9377 ], [ 77.2293, 29.9396 ], [ 77.216, 29.922 ], [ 77.1858, 29.9075 ], [ 77.1883, 29.8941 ], [ 77.2001, 29.8895 ], [ 77.202, 29.8689 ], [ 77.1973, 29.8587 ], [ 77.1869, 29.8578 ], [ 77.1782, 29.8458 ], [ 77.1795, 29.8134 ], [ 77.1726, 29.8016 ], [ 77.1639, 29.7914 ], [ 77.1514, 29.7882 ], [ 77.1466, 29.7718 ], [ 77.1253, 29.7695 ], [ 77.1198, 29.7601 ], [ 77.1391, 29.7382 ], [ 77.1342, 29.7184 ], [ 77.1495, 29.7095 ], [ 77.1566, 29.6926 ], [ 77.1424, 29.6804 ], [ 77.1465, 29.6722 ], [ 77.1381, 29.6666 ], [ 77.141, 29.655 ], [ 77.1315, 29.6418 ], [ 77.1062, 29.6323 ], [ 77.1016, 29.6198 ], [ 77.113, 29.6106 ], [ 77.1095, 29.5974 ], [ 77.0842, 29.5909 ], [ 77.0855, 29.5848 ], [ 77.1268, 29.5595 ], [ 77.1022, 29.5388 ], [ 77.098, 29.5172 ], [ 77.132, 29.4849 ] ] ] } },
{ "type": "Feature", "properties": { "district": "Kurukshetra", "did": "haryana:Kurukshetra", "state_key": "haryana" }, "geometry": { "type": "Polygon", "coordinates": [ [ [ 77.0693, 30.1313 ], [ 77.0912, 30.1119 ], [ 77.0867, 30.1023 ], [ 77.0686, 30.0967 ], [ 77.0683, 30.0727 ], [ 77.076, 30.0663 ], [ 77.0807, 30.0711 ], [ 77.0866, 30.0508 ], [ 77.0982, 30.0414 ], [ 77.0944, 30.0373 ], [ 77.1051, 30.0301 ], [ 77.1012, 30.0175 ], [ 77.1226, 29.9981 ], [ 77.1123, 29.9903 ], [ 77.1146, 29.9709 ], [ 77.1045, 29.9684 ], [ 77.096, 29.9506 ], [ 77.0809, 29.9482 ], [ 77.0647, 29.9521 ], [ 77.053, 29.9464 ], [ 77.048, 29.9528 ], [ 77.0333, 29.9553 ], [ 77.0207, 29.9472 ], [ 77.0063, 29.9566 ], [ 76.9998, 29.9499 ], [ 76.9828, 29.9588 ], [ 76.9834, 29.9533 ], [ 76.9491, 29.9318 ], [ 76.9556, 29.9139 ], [ 76.9311, 29.9259 ], [ 76.9209, 29.9144 ], [ 76.9001, 29.9199 ], [ 76.8972, 29.8997 ], [ 76.8809, 29.8805 ], [ 76.8577, 29.8774 ], [ 76.8397, 29.8873 ], [ 76.8334, 29.9021 ], [ 76.8227, 29.8941 ], [ 76.8098, 29.9019 ], [ 76.8033, 29.8823 ], [ 76.7816, 29.8734 ], [ 76.7663, 29.8762 ], [ 76.7551, 29.8668 ], [ 76.7125, 29.8831 ], [ 76.688, 29.9041 ], [ 76.6897, 29.9179 ], [ 76.6848, 29.9211 ], [ 76.6478, 29.9112 ], [ 76.6189, 29.9218 ], [ 76.6062, 29.9128 ], [ 76.5875, 29.9202 ], [ 76.5721, 29.909 ], [ 76.5596, 29.9175 ], [ 76.5369, 29.8998 ], [ 76.5307, 29.9017 ], [ 76.5408, 29.9205 ], [ 76.5311, 29.9262 ], [ 76.5186, 29.9196 ], [ 76.5115, 29.8973 ], [ 76.5017, 29.9048 ], [ 76.4779, 29.9068 ], [ 76.4655, 29.9135 ], [ 76.4834, 29.9372 ], [ 76.4858, 29.9579 ], [ 76.4674, 29.9735 ], [ 76.4566, 29.9639 ], [ 76.4392, 29.9723 ], [ 76.4327, 29.9953 ], [ 76.4426, 30.0071 ], [ 76.4219, 30.0295 ], [ 76.4679, 30.0988 ], [ 76.5021, 30.0919 ], [ 76.5104, 30.0823 ], [ 76.5083, 30.0703 ], [ 76.5269, 30.077 ], [ 76.5438, 30.0743 ], [ 76.5752, 30.1008 ], [ 76.5856, 30.0843 ], [ 76.5984, 30.0824 ], [ 76.5868, 30.0691 ], [ 76.6153, 30.073 ], [ 76.6209, 30.0867 ], [ 76.6448, 30.1019 ], [ 76.6356, 30.1116 ], [ 76.6453, 30.1279 ], [ 76.6366, 30.1378 ], [ 76.6383, 30.1476 ], [ 76.6551, 30.1529 ], [ 76.673, 30.1677 ], [ 76.6854, 30.1887 ], [ 76.7364, 30.1979 ], [ 76.7634, 30.1919 ], [ 76.7848, 30.2149 ], [ 76.8, 30.2112 ], [ 76.8119, 30.2197 ], [ 76.8175, 30.2179 ], [ 76.8254, 30.2359 ], [ 76.8175, 30.2421 ], [ 76.826, 30.2531 ], [ 76.8375, 30.2541 ], [ 76.8428, 30.2458 ], [ 76.8511, 30.2547 ], [ 76.8644, 30.2497 ], [ 76.8678, 30.2436 ], [ 76.8586, 30.233 ], [ 76.8902, 30.2121 ], [ 76.8824, 30.1998 ], [ 76.8976, 30.1918 ], [ 76.9037, 30.1899 ], [ 76.9159, 30.2055 ], [ 76.9608, 30.1931 ], [ 76.9562, 30.1832 ], [ 76.9454, 30.1836 ], [ 76.9398, 30.1722 ], [ 76.9616, 30.1526 ], [ 76.9817, 30.1694 ], [ 76.9907, 30.1679 ], [ 77.037, 30.1436 ], [ 77.0359, 30.1364 ], [ 77.0574, 30.1242 ], [ 77.0693, 30.1313 ] ] ] } },
{ "type": "Feature", "properties": { "district": "Mahendragarh", "did": "haryana:Mahendragarh", "state_key": "haryana" }, "geometry": { "type": "Polygon", "coordinates": [ [ [ 76.1866, 27.9655 ], [ 76.1682, 27.9034 ], [ 76.2015, 27.8925 ], [ 76.1938, 27.8595 ], [ 76.2122, 27.8464 ], [ 76.2089, 27.84 ], [ 76.2252, 27.8333 ], [ 76.2173, 27.8168 ], [ 76.1996, 27.8216 ], [ 76.1827, 27.7986 ], [ 76.175, 27.7981 ], [ 76.1536, 27.8197 ], [ 76.1323, 27.8245 ], [ 76.1354, 27.8393 ], [ 76.1233, 27.851 ], [ 76.0889, 27.8605 ], [ 76.0857, 27.8447 ], [ 76.0606, 27.8483 ], [ 76.0481, 27.835 ], [ 76.0409, 27.8413 ], [ 76.0363, 27.8374 ], [ 76.0096, 27.8415 ], [ 76.0046, 27.8344 ], [ 75.9714, 27.852 ], [ 75.9844, 27.8826 ], [ 75.9753, 27.8937 ], [ 75.9875, 27.9042 ], [ 75.9732, 27.9021 ], [ 75.9748, 27.9118 ], [ 75.9681, 27.9144 ], [ 75.9383, 27.9141 ], [ 75.9345, 27.9186 ], [ 75.9396, 27.9228 ], [ 75.9324, 27.9301 ], [ 75.9517, 27.9477 ], [ 75.9579, 27.9359 ], [ 75.9727, 27.9327 ], [ 75.983, 27.951 ], [ 75.9778, 27.9544 ], [ 75.982, 27.9653 ], [ 75.9999, 27.9776 ], [ 75.9658, 27.9836 ], [ 75.9667, 28.0 ], [ 75.9899, 27.9947 ], [ 75.9955, 28.0069 ], [ 75.9711, 28.0161 ], [ 75.9727, 28.0236 ], [ 75.9769, 28.0314 ], [ 75.9946, 28.0385 ], [ 75.9977, 28.033 ], [ 76.0164, 28.0305 ], [ 76.0171, 28.0527 ], [ 76.0083, 28.0584 ], [ 76.0254, 28.0542 ], [ 76.0408, 28.0741 ], [ 76.0232, 28.086 ], [ 76.0077, 28.0589 ], [ 75.9988, 28.0571 ], [ 75.9929, 28.0463 ], [ 75.9844, 28.0471 ], [ 75.9748, 28.051 ], [ 75.9883, 28.0663 ], [ 75.9834, 28.0814 ], [ 75.9646, 28.0805 ], [ 75.9386, 28.0879 ], [ 75.9456, 28.1072 ], [ 75.9674, 28.1138 ], [ 75.9767, 28.1248 ], [ 75.999, 28.1228 ], [ 76.0075, 28.1531 ], [ 76.0168, 28.1501 ], [ 76.0318, 28.1679 ], [ 76.0707, 28.1651 ], [ 76.0654, 28.1415 ], [ 76.073, 28.1376 ], [ 76.0929, 28.14 ], [ 76.0959, 28.1487 ], [ 76.0762, 28.1685 ], [ 76.0719, 28.1943 ], [ 76.0473, 28.1981 ], [ 76.056, 28.2203 ], [ 76.0378, 28.2227 ], [ 76.0161, 28.237 ], [ 76.013, 28.246 ], [ 76.0263, 28.275 ], [ 75.9862, 28.2931 ], [ 75.9725, 28.3186 ], [ 75.9578, 28.3138 ], [ 75.955, 28.3338 ], [ 75.933, 28.3366 ], [ 75.9295, 28.3591 ], [ 75.9167, 28.3674 ], [ 75.9182, 28.372 ], [ 75.9002, 28.3724 ], [ 75.8952, 28.3876 ], [ 75.9036, 28.4108 ], [ 75.8973, 28.4244 ], [ 75.9035, 28.4317 ], [ 75.9534, 28.4359 ], [ 75.9833, 28.445 ], [ 76.0112, 28.4349 ], [ 76.01, 28.4086 ], [ 76.0184, 28.409 ], [ 76.0167, 28.3879 ], [ 76.0273, 28.3861 ], [ 76.0425, 28.3917 ], [ 76.0821, 28.3928 ], [ 76.0932, 28.4281 ], [ 76.1164, 28.4531 ], [ 76.1489, 28.4516 ], [ 76.1528, 28.4632 ], [ 76.1595, 28.4622 ], [ 76.1662, 28.4315 ], [ 76.1833, 28.4296 ], [ 76.189, 28.4433 ], [ 76.2119, 28.4431 ], [ 76.22, 28.4682 ], [ 76.2447, 28.4592 ], [ 76.2473, 28.4378 ], [ 76.2881, 28.4293 ], [ 76.2801, 28.4056 ], [ 76.3019, 28.4015 ], [ 76.2976, 28.3827 ], [ 76.3039, 28.3772 ], [ 76.3279, 28.3718 ], [ 76.3344, 28.3627 ], [ 76.355, 28.3656 ], [ 76.3568, 28.3435 ], [ 76.3679, 28.3354 ], [ 76.3677, 28.3234 ], [ 76.3471, 28.3086 ], [ 76.3526, 28.2857 ], [ 76.3431, 28.273 ], [ 76.3504, 28.2606 ], [ 76.3433, 28.2282 ], [ 76.3407, 28.2227 ], [ 76.3271, 28.2238 ], [ 76.3207, 28.2063 ], [ 76.3053, 28.2035 ], [ 76.3116, 28.1781 ], [ 76.2923, 28.1792 ], [ 76.2807, 28.1658 ], [ 76.3046, 28.1593 ], [ 76.2976, 28.1491 ], [ 76.321, 28.1486 ], [ 76.3331, 28.1336 ], [ 76.3599, 28.1249 ], [ 76.3366, 28.1026 ], [ 76.3093, 28.1082 ], [ 76.3014, 28.0979 ], [ 76.3289, 28.0877 ], [ 76.3435, 28.0702 ], [ 76.3557, 28.0707 ], [ 76.3448, 28.035 ], [ 76.319, 28.0155 ], [ 76.2922, 28.0259 ], [ 76.2936, 28.0492 ], [ 76.261, 28.0675 ], [ 76.2429, 28.0644 ], [ 76.238, 28.0497 ], [ 76.2193, 28.0492 ], [ 76.2011, 28.0584 ], [ 76.1804, 28.0545 ], [ 76.1779, 28.0456 ], [ 76.196, 28.0304 ], [ 76.2018, 28.0293 ], [ 76.2037, 28.0378 ], [ 76.2167, 28.0355 ], [ 76.2148, 28.0266 ], [ 76.2033, 28.028 ], [ 76.1969, 28.0155 ], [ 76.1769, 28.0215 ], [ 76.1578, 27.989 ], [ 76.1668, 27.9832 ], [ 76.1663, 27.9725 ], [ 76.1866, 27.9655 ] ] ] } },
{ "type": "Feature", "properties": { "district": "Mewat", "did": "haryana:Mewat", "state_key": "haryana" }, "geometry": { "type": "Polygon", "coordinates": [ [ [ 77.1085, 27.7855 ], [ 77.0746, 27.8136 ], [ 77.0639, 27.8113 ], [ 77.0448, 27.821 ], [ 77.0266, 27.7792 ], [ 77.0358, 27.7815 ], [ 77.0561, 27.7712 ], [ 77.0596, 27.7609 ], [ 77.0764, 27.7663 ], [ 77.0857, 27.7381 ], [ 77.0596, 27.7265 ], [ 77.0487, 27.7315 ], [ 77.0365, 27.7486 ], [ 77.0198, 27.7458 ], [ 77.0115, 27.7311 ], [ 77.0001, 27.737 ], [ 76.9794, 27.6536 ], [ 76.9438, 27.6737 ], [ 76.9334, 27.656 ], [ 76.9269, 27.6613 ], [ 76.9156, 27.6523 ], [ 76.9108, 27.6547 ], [ 76.9067, 27.6617 ], [ 76.9109, 27.668 ], [ 76.8986, 27.6775 ], [ 76.9062, 27.6863 ], [ 76.8899, 27.7007 ], [ 76.9086, 27.6937 ], [ 76.9247, 27.6999 ], [ 76.9142, 27.7132 ], [ 76.8945, 27.7178 ], [ 76.8927, 27.7335 ], [ 76.9017, 27.744 ], [ 76.9062, 27.7878 ], [ 76.9133, 27.7886 ], [ 76.9115, 27.7961 ], [ 76.919, 27.8041 ], [ 76.91, 27.8149 ], [ 76.9136, 27.8317 ], [ 76.9357, 27.8288 ], [ 76.9423, 27.8426 ], [ 76.9377, 27.8962 ], [ 76.9506, 27.8956 ], [ 76.9516, 27.918 ], [ 76.9315, 27.9223 ], [ 76.9379, 27.9828 ], [ 76.9335, 27.9816 ], [ 76.9306, 27.9933 ], [ 76.9396, 28.043 ], [ 76.9538, 28.0626 ], [ 76.9705, 28.1384 ], [ 76.9482, 28.1422 ], [ 76.9509, 28.1499 ], [ 76.932, 28.153 ], [ 76.9197, 28.1669 ], [ 76.9065, 28.1719 ], [ 76.9025, 28.1811 ], [ 76.8925, 28.1836 ], [ 76.8923, 28.1932 ], [ 76.9068, 28.2003 ], [ 76.8727, 28.2058 ], [ 76.8749, 28.2178 ], [ 76.8529, 28.2207 ], [ 76.8753, 28.2639 ], [ 76.8973, 28.2534 ], [ 76.9134, 28.2654 ], [ 76.9171, 28.2783 ], [ 76.9039, 28.2918 ], [ 76.9046, 28.3024 ], [ 76.9154, 28.3001 ], [ 76.932, 28.3247 ], [ 76.9514, 28.3142 ], [ 76.9596, 28.3276 ], [ 76.9704, 28.3266 ], [ 76.9775, 28.3356 ], [ 76.9864, 28.3268 ], [ 77.0, 28.3266 ], [ 77.0108, 28.3055 ], [ 77.0213, 28.2482 ], [ 77.0564, 28.244 ], [ 77.0547, 28.2231 ], [ 77.062, 28.2167 ], [ 77.0719, 28.2143 ], [ 77.0816, 28.2299 ], [ 77.0941, 28.2199 ], [ 77.103, 28.2275 ], [ 77.1206, 28.218 ], [ 77.1389, 28.2252 ], [ 77.1622, 28.2129 ], [ 77.1719, 28.199 ], [ 77.1827, 28.2099 ], [ 77.1917, 28.2087 ], [ 77.1985, 28.1963 ], [ 77.1925, 28.1837 ], [ 77.1726, 28.1895 ], [ 77.1647, 28.1792 ], [ 77.1663, 28.169 ], [ 77.1206, 28.1146 ], [ 77.1432, 28.1 ], [ 77.1333, 28.0724 ], [ 77.1413, 28.0699 ], [ 77.148, 28.0555 ], [ 77.1392, 28.0416 ], [ 77.1494, 28.0234 ], [ 77.1353, 28.0003 ], [ 77.1521, 27.9946 ], [ 77.1444, 27.9629 ], [ 77.1563, 27.9572 ], [ 77.1583, 27.9476 ], [ 77.1705, 27.9511 ], [ 77.1817, 27.9403 ], [ 77.1798, 27.9494 ], [ 77.1874, 27.9506 ], [ 77.2066, 27.9382 ], [ 77.2217, 27.925 ], [ 77.2343, 27.8962 ], [ 77.2499, 27.8905 ], [ 77.2497, 27.8821 ], [ 77.2638, 27.898 ], [ 77.2841, 27.8916 ], [ 77.2871, 27.8858 ], [ 77.2966, 27.8916 ], [ 77.3115, 27.8843 ], [ 77.3245, 27.8719 ], [ 77.3218, 27.8577 ], [ 77.3352, 27.8474 ], [ 77.3364, 27.8342 ], [ 77.3207, 27.8253 ], [ 77.2965, 27.8252 ], [ 77.2986, 27.8152 ], [ 77.2837, 27.801 ], [ 77.2688, 27.8149 ], [ 77.2613, 27.8002 ], [ 77.2417, 27.7835 ], [ 77.2339, 27.786 ], [ 77.2384, 27.7918 ], [ 77.2326, 27.7965 ], [ 77.2107, 27.8011 ], [ 77.2133, 27.8077 ], [ 77.2021, 27.8238 ], [ 77.1914, 27.8091 ], [ 77.1986, 27.7988 ], [ 77.1833, 27.7868 ], [ 77.1691, 27.7909 ], [ 77.1789, 27.8044 ], [ 77.1847, 27.8025 ], [ 77.1895, 27.8084 ], [ 77.1799, 27.8171 ], [ 77.1587, 27.8156 ], [ 77.1586, 27.7873 ], [ 77.1436, 27.7856 ], [ 77.1352, 27.7751 ], [ 77.1345, 27.786 ], [ 77.1219, 27.7925 ], [ 77.1085, 27.7855 ] ] ] } },
{ "type": "Feature", "properties": { "district": "Palwal", "did": "haryana:Palwal", "state_key": "haryana" }, "geometry": { "type": "Polygon", "coordinates": [ [ [ 77.5424, 27.9891 ], [ 77.5378, 27.979 ], [ 77.517, 27.9712 ], [ 77.5187, 27.9621 ], [ 77.5442, 27.9622 ], [ 77.5461, 27.9579 ], [ 77.5335, 27.9292 ], [ 77.5261, 27.9254 ], [ 77.5168, 27.9331 ], [ 77.5015, 27.9253 ], [ 77.4922, 27.9385 ], [ 77.4753, 27.9293 ], [ 77.4807, 27.9079 ], [ 77.4744, 27.8858 ], [ 77.4505, 27.871 ], [ 77.4283, 27.8909 ], [ 77.4201, 27.8904 ], [ 77.4093, 27.8742 ], [ 77.4222, 27.8561 ], [ 77.4132, 27.8517 ], [ 77.377, 27.8589 ], [ 77.3609, 27.8508 ], [ 77.3489, 27.8557 ], [ 77.3352, 27.8474 ], [ 77.3218, 27.8577 ], [ 77.3245, 27.8719 ], [ 77.3115, 27.8843 ], [ 77.2966, 27.8916 ], [ 77.2871, 27.8858 ], [ 77.2841, 27.8916 ], [ 77.2638, 27.898 ], [ 77.25, 27.882 ], [ 77.2499, 27.8905 ], [ 77.2343, 27.8962 ], [ 77.2217, 27.925 ], [ 77.2062, 27.9385 ], [ 77.1874, 27.9506 ], [ 77.1798, 27.9494 ], [ 77.1817, 27.9403 ], [ 77.1705, 27.9511 ], [ 77.1583, 27.9476 ], [ 77.1432, 27.9696 ], [ 77.1515, 27.9782 ], [ 77.152, 27.9949 ], [ 77.1353, 28.0003 ], [ 77.1495, 28.0246 ], [ 77.1392, 28.0416 ], [ 77.1471, 28.0583 ], [ 77.1413, 28.0699 ], [ 77.1333, 28.0724 ], [ 77.1432, 28.1 ], [ 77.1206, 28.1146 ], [ 77.1663, 28.169 ], [ 77.1647, 28.1792 ], [ 77.1726, 28.1895 ], [ 77.1925, 28.1837 ], [ 77.1985, 28.1963 ], [ 77.1894, 28.207 ], [ 77.2033, 28.2123 ], [ 77.2045, 28.2188 ], [ 77.1979, 28.2224 ], [ 77.2018, 28.2289 ], [ 77.1915, 28.2348 ], [ 77.1957, 28.245 ], [ 77.2098, 28.2496 ], [ 77.2138, 28.2617 ], [ 77.2321, 28.2695 ], [ 77.2556, 28.2581 ], [ 77.2571, 28.2723 ], [ 77.2732, 28.2666 ], [ 77.2795, 28.2697 ], [ 77.3085, 28.2552 ], [ 77.3224, 28.2602 ], [ 77.3414, 28.2451 ], [ 77.3449, 28.2351 ], [ 77.3729, 28.2358 ], [ 77.3798, 28.2214 ], [ 77.4055, 28.2112 ], [ 77.4083, 28.2143 ], [ 77.4158, 28.2004 ], [ 77.4342, 28.2139 ], [ 77.4561, 28.2052 ], [ 77.4848, 28.2214 ], [ 77.4893, 28.2182 ], [ 77.4982, 28.2301 ], [ 77.4936, 28.2445 ], [ 77.5015, 28.2524 ], [ 77.5188, 28.2425 ], [ 77.5459, 28.2482 ], [ 77.5495, 28.24 ], [ 77.5213, 28.2244 ], [ 77.5352, 28.2103 ], [ 77.5325, 28.2005 ], [ 77.524, 28.1957 ], [ 77.5037, 28.2099 ], [ 77.4969, 28.2046 ], [ 77.5012, 28.1817 ], [ 77.5156, 28.1929 ], [ 77.5306, 28.1859 ], [ 77.5438, 28.1913 ], [ 77.5486, 28.1759 ], [ 77.5284, 28.1624 ], [ 77.5112, 28.1668 ], [ 77.5021, 28.1612 ], [ 77.5042, 28.1454 ], [ 77.4914, 28.1365 ], [ 77.5124, 28.1248 ], [ 77.4985, 28.1089 ], [ 77.4994, 28.0946 ], [ 77.4922, 28.0951 ], [ 77.4898, 28.1056 ], [ 77.4826, 28.1072 ], [ 77.4743, 28.0874 ], [ 77.5012, 28.0585 ], [ 77.4836, 28.0405 ], [ 77.5128, 28.0319 ], [ 77.5079, 28.024 ], [ 77.5213, 28.0141 ], [ 77.524, 28.0031 ], [ 77.5424, 27.9891 ] ] ] } },
{ "type": "Feature", "properties": { "district": "Panchkula", "did": "haryana:Panchkula", "state_key": "haryana" }, "geometry": { "type": "Polygon", "coordinates": [ [ [ 77.0206, 30.7523 ], [ 77.0175, 30.7434 ], [ 77.027, 30.7369 ], [ 77.0456, 30.7413 ], [ 77.0416, 30.7502 ], [ 77.0484, 30.7492 ], [ 77.0472, 30.753 ], [ 77.0681, 30.7409 ], [ 77.0935, 30.7423 ], [ 77.1141, 30.7286 ], [ 77.1137, 30.7182 ], [ 77.1244, 30.7218 ], [ 77.1422, 30.6995 ], [ 77.1612, 30.6909 ], [ 77.1685, 30.6695 ], [ 77.163, 30.6508 ], [ 77.1769, 30.637 ], [ 77.1714, 30.6275 ], [ 77.1738, 30.6006 ], [ 77.1138, 30.5522 ], [ 77.1057, 30.5598 ], [ 77.085, 30.557 ], [ 77.0737, 30.541 ], [ 77.0376, 30.5504 ], [ 77.0353, 30.5368 ], [ 77.05, 30.5217 ], [ 77.0385, 30.5093 ], [ 77.0102, 30.5025 ], [ 77.0099, 30.4932 ], [ 76.9898, 30.4742 ], [ 76.9721, 30.4862 ], [ 76.9584, 30.4706 ], [ 76.9311, 30.5013 ], [ 76.932, 30.5222 ], [ 76.9156, 30.5257 ], [ 76.9125, 30.534 ], [ 76.8961, 30.5381 ], [ 76.8867, 30.5486 ], [ 76.9049, 30.543 ], [ 76.9162, 30.5537 ], [ 76.9175, 30.5591 ], [ 76.909, 30.5647 ], [ 76.9198, 30.5852 ], [ 76.9097, 30.5919 ], [ 76.9202, 30.5932 ], [ 76.926, 30.6101 ], [ 76.9135, 30.6114 ], [ 76.9101, 30.6261 ], [ 76.8956, 30.6289 ], [ 76.8965, 30.6358 ], [ 76.8851, 30.6453 ], [ 76.8712, 30.6421 ], [ 76.8764, 30.6805 ], [ 76.853, 30.6572 ], [ 76.845, 30.659 ], [ 76.8458, 30.6686 ], [ 76.8313, 30.6652 ], [ 76.8319, 30.6832 ], [ 76.8252, 30.6882 ], [ 76.8494, 30.7183 ], [ 76.8436, 30.7192 ], [ 76.8494, 30.7234 ], [ 76.8474, 30.7314 ], [ 76.8315, 30.7395 ], [ 76.8369, 30.7427 ], [ 76.8418, 30.7745 ], [ 76.857, 30.7947 ], [ 76.8453, 30.8072 ], [ 76.8467, 30.8339 ], [ 76.823, 30.8448 ], [ 76.814, 30.843 ], [ 76.8147, 30.8524 ], [ 76.7841, 30.8783 ], [ 76.7761, 30.906 ], [ 76.8224, 30.9285 ], [ 76.841, 30.8917 ], [ 76.8511, 30.89 ], [ 76.8696, 30.8731 ], [ 76.9169, 30.9008 ], [ 76.918, 30.8876 ], [ 76.9257, 30.8848 ], [ 76.9284, 30.8915 ], [ 76.9365, 30.8846 ], [ 76.9361, 30.8778 ], [ 76.9266, 30.8726 ], [ 76.9364, 30.8746 ], [ 76.9438, 30.8529 ], [ 76.9513, 30.8505 ], [ 76.944, 30.8377 ], [ 76.949, 30.8244 ], [ 76.9426, 30.8174 ], [ 76.9508, 30.8138 ], [ 76.9601, 30.8273 ], [ 76.9621, 30.8214 ], [ 76.9705, 30.8247 ], [ 76.9776, 30.8124 ], [ 76.9972, 30.8122 ], [ 77.0028, 30.8056 ], [ 77.0125, 30.8092 ], [ 77.0124, 30.788 ], [ 77.0186, 30.7803 ], [ 77.0013, 30.7704 ], [ 77.0186, 30.7655 ], [ 77.0164, 30.7503 ], [ 77.0206, 30.7523 ] ], [ [ 76.9177, 30.8865 ], [ 76.9242, 30.8765 ], [ 76.922, 30.8826 ], [ 76.9177, 30.8865 ] ] ] } },
{ "type": "Feature", "properties": { "district": "Panipat", "did": "haryana:Panipat", "state_key": "haryana" }, "geometry": { "type": "Polygon", "coordinates": [ [ [ 77.15, 29.2328 ], [ 77.1314, 29.2175 ], [ 77.1424, 29.2033 ], [ 77.1402, 29.1921 ], [ 77.1473, 29.1796 ], [ 77.1433, 29.1669 ], [ 77.1143, 29.1696 ], [ 77.0973, 29.1618 ], [ 77.0786, 29.1797 ], [ 77.0599, 29.1728 ], [ 77.0503, 29.1844 ], [ 77.0289, 29.1776 ], [ 77.007, 29.189 ], [ 76.9822, 29.1884 ], [ 76.964, 29.1936 ], [ 76.9674, 29.197 ], [ 76.9596, 29.2051 ], [ 76.9181, 29.2193 ], [ 76.8943, 29.2103 ], [ 76.8859, 29.1948 ], [ 76.8754, 29.1919 ], [ 76.8548, 29.2058 ], [ 76.8417, 29.2055 ], [ 76.8111, 29.2176 ], [ 76.7931, 29.2507 ], [ 76.7963, 29.2725 ], [ 76.7795, 29.282 ], [ 76.7696, 29.2798 ], [ 76.753, 29.2626 ], [ 76.7147, 29.2509 ], [ 76.7088, 29.261 ], [ 76.6821, 29.2695 ], [ 76.6769, 29.2805 ], [ 76.6442, 29.2883 ], [ 76.6367, 29.2975 ], [ 76.6418, 29.3053 ], [ 76.6319, 29.3146 ], [ 76.6483, 29.3383 ], [ 76.6512, 29.369 ], [ 76.6856, 29.3768 ], [ 76.6919, 29.3841 ], [ 76.7106, 29.3819 ], [ 76.7346, 29.3881 ], [ 76.7405, 29.4067 ], [ 76.7311, 29.4125 ], [ 76.7501, 29.438 ], [ 76.7547, 29.4581 ], [ 76.7755, 29.4743 ], [ 76.7952, 29.4667 ], [ 76.8181, 29.5141 ], [ 76.8616, 29.4883 ], [ 76.8862, 29.4962 ], [ 76.8879, 29.5124 ], [ 76.8777, 29.5198 ], [ 76.8828, 29.534 ], [ 76.8854, 29.5257 ], [ 76.915, 29.5185 ], [ 76.9119, 29.5098 ], [ 76.9028, 29.5068 ], [ 76.8982, 29.4892 ], [ 76.9116, 29.4762 ], [ 76.9161, 29.4827 ], [ 76.9499, 29.4786 ], [ 76.9655, 29.4838 ], [ 77.014, 29.464 ], [ 77.0218, 29.4689 ], [ 77.0553, 29.4673 ], [ 77.0731, 29.4726 ], [ 77.0873, 29.458 ], [ 77.1168, 29.4694 ], [ 77.1322, 29.4847 ], [ 77.1227, 29.4689 ], [ 77.1232, 29.4554 ], [ 77.1445, 29.4453 ], [ 77.1484, 29.4341 ], [ 77.1331, 29.4188 ], [ 77.1333, 29.4008 ], [ 77.1474, 29.3879 ], [ 77.1574, 29.3873 ], [ 77.1233, 29.3703 ], [ 77.1295, 29.3426 ], [ 77.1605, 29.3356 ], [ 77.1583, 29.3029 ], [ 77.139, 29.2678 ], [ 77.15, 29.2328 ] ] ] } },
{ "type": "Feature", "properties": { "district": "Rewari", "did": "haryana:Rewari", "state_key": "haryana" }, "geometry": { "type": "MultiPolygon", "coordinates": [ [ [ [ 76.6874, 28.0877 ], [ 76.6572, 28.0892 ], [ 76.6544, 28.0347 ], [ 76.663, 28.0299 ], [ 76.6682, 28.0138 ], [ 76.6407, 28.0023 ], [ 76.6062, 28.0038 ], [ 76.5899, 27.9979 ], [ 76.5804, 27.9789 ], [ 76.5644, 27.9781 ], [ 76.5617, 27.9661 ], [ 76.5447, 27.9637 ], [ 76.536, 27.9795 ], [ 76.5427, 27.9995 ], [ 76.5364, 28.0 ], [ 76.5455, 28.0073 ], [ 76.5393, 28.0232 ], [ 76.5438, 28.0342 ], [ 76.5304, 28.0402 ], [ 76.5101, 28.0297 ], [ 76.5026, 28.0314 ], [ 76.4974, 28.0433 ], [ 76.4547, 28.0423 ], [ 76.4625, 28.0591 ], [ 76.4894, 28.0528 ], [ 76.5012, 28.0597 ], [ 76.4789, 28.0777 ], [ 76.4478, 28.089 ], [ 76.4637, 28.1092 ], [ 76.4773, 28.108 ], [ 76.48, 28.1005 ], [ 76.499, 28.1002 ], [ 76.5027, 28.1187 ], [ 76.4871, 28.1194 ], [ 76.4919, 28.1299 ], [ 76.4819, 28.1284 ], [ 76.472, 28.1351 ], [ 76.4757, 28.1486 ], [ 76.4374, 28.1487 ], [ 76.4326, 28.1409 ], [ 76.4008, 28.145 ], [ 76.3916, 28.1346 ], [ 76.3807, 28.1334 ], [ 76.3566, 28.1437 ], [ 76.3544, 28.1638 ], [ 76.3116, 28.1781 ], [ 76.3053, 28.2035 ], [ 76.3207, 28.2063 ], [ 76.3274, 28.2239 ], [ 76.3417, 28.2243 ], [ 76.3504, 28.2606 ], [ 76.3431, 28.273 ], [ 76.3526, 28.2857 ], [ 76.3466, 28.3065 ], [ 76.3557, 28.3102 ], [ 76.3581, 28.3208 ], [ 76.3676, 28.3227 ], [ 76.368, 28.335 ], [ 76.3568, 28.3435 ], [ 76.355, 28.3656 ], [ 76.3344, 28.3627 ], [ 76.3279, 28.3718 ], [ 76.3049, 28.3765 ], [ 76.2976, 28.3827 ], [ 76.3019, 28.4015 ], [ 76.2803, 28.4053 ], [ 76.2931, 28.4688 ], [ 76.3124, 28.4705 ], [ 76.3183, 28.4618 ], [ 76.3254, 28.4672 ], [ 76.3646, 28.455 ], [ 76.3703, 28.4708 ], [ 76.3958, 28.4685 ], [ 76.3988, 28.4729 ], [ 76.4407, 28.4561 ], [ 76.4361, 28.4399 ], [ 76.4453, 28.4378 ], [ 76.44, 28.4248 ], [ 76.4443, 28.4217 ], [ 76.4546, 28.418 ], [ 76.4589, 28.4258 ], [ 76.5005, 28.4309 ], [ 76.5066, 28.4288 ], [ 76.5093, 28.4166 ], [ 76.5355, 28.4068 ], [ 76.5606, 28.4046 ], [ 76.5837, 28.4369 ], [ 76.6256, 28.4261 ], [ 76.669, 28.3792 ], [ 76.6571, 28.3548 ], [ 76.6647, 28.3404 ], [ 76.6503, 28.3077 ], [ 76.6664, 28.3031 ], [ 76.6729, 28.3171 ], [ 76.6855, 28.3138 ], [ 76.6732, 28.2701 ], [ 76.6772, 28.2645 ], [ 76.6835, 28.2613 ], [ 76.6881, 28.2659 ], [ 76.6991, 28.2587 ], [ 76.7111, 28.2648 ], [ 76.7535, 28.2485 ], [ 76.7693, 28.24 ], [ 76.7805, 28.2239 ], [ 76.7966, 28.2562 ], [ 76.811, 28.2542 ], [ 76.8122, 28.2408 ], [ 76.8233, 28.2453 ], [ 76.8575, 28.2346 ], [ 76.8529, 28.2207 ], [ 76.8382, 28.22 ], [ 76.8315, 28.2093 ], [ 76.8084, 28.2109 ], [ 76.8048, 28.1973 ], [ 76.8123, 28.1909 ], [ 76.8062, 28.1865 ], [ 76.7975, 28.1918 ], [ 76.7925, 28.1842 ], [ 76.8006, 28.1623 ], [ 76.7948, 28.1484 ], [ 76.7838, 28.1509 ], [ 76.7764, 28.1441 ], [ 76.7624, 28.1426 ], [ 76.7436, 28.121 ], [ 76.7158, 28.1277 ], [ 76.685, 28.0916 ], [ 76.6874, 28.0877 ] ] ], [ [ [ 76.4229, 28.1143 ], [ 76.4293, 28.1385 ], [ 76.441, 28.1199 ], [ 76.4389, 28.1101 ], [ 76.4229, 28.1143 ] ] ] ] } },
{ "type": "Feature", "properties": { "district": "Rohtak", "did": "haryana:Rohtak", "state_key": "haryana" }, "geometry": { "type": "Polygon", "coordinates": [ [ [ 76.8231, 28.8601 ], [ 76.8472, 28.8608 ], [ 76.863, 28.8459 ], [ 76.8687, 28.8233 ], [ 76.8501, 28.8076 ], [ 76.8341, 28.8104 ], [ 76.819, 28.7838 ], [ 76.7796, 28.743 ], [ 76.7644, 28.7511 ], [ 76.7675, 28.7626 ], [ 76.757, 28.7694 ], [ 76.7406, 28.7568 ], [ 76.7155, 28.7588 ], [ 76.7091, 28.7362 ], [ 76.6942, 28.7378 ], [ 76.6869, 28.7435 ], [ 76.6913, 28.7592 ], [ 76.7083, 28.7687 ], [ 76.7089, 28.7871 ], [ 76.6706, 28.7961 ], [ 76.6696, 28.8132 ], [ 76.6556, 28.8183 ], [ 76.6434, 28.8396 ], [ 76.6318, 28.8251 ], [ 76.6452, 28.8042 ], [ 76.6268, 28.7893 ], [ 76.6042, 28.7922 ], [ 76.5954, 28.7814 ], [ 76.5948, 28.7544 ], [ 76.5789, 28.7348 ], [ 76.5302, 28.7507 ], [ 76.5231, 28.7375 ], [ 76.5031, 28.743 ], [ 76.4932, 28.7368 ], [ 76.4755, 28.7416 ], [ 76.4453, 28.7361 ], [ 76.4252, 28.7224 ], [ 76.4153, 28.7235 ], [ 76.42, 28.7029 ], [ 76.4062, 28.6826 ], [ 76.3795, 28.7051 ], [ 76.381, 28.7156 ], [ 76.3998, 28.7343 ], [ 76.4061, 28.7562 ], [ 76.3869, 28.7703 ], [ 76.3856, 28.7827 ], [ 76.3674, 28.7877 ], [ 76.3596, 28.7995 ], [ 76.3335, 28.8114 ], [ 76.3472, 28.8387 ], [ 76.3446, 28.8495 ], [ 76.3653, 28.879 ], [ 76.3527, 28.8953 ], [ 76.307, 28.8984 ], [ 76.2779, 28.9083 ], [ 76.2542, 28.9036 ], [ 76.237, 28.9108 ], [ 76.2439, 28.9414 ], [ 76.2124, 28.9551 ], [ 76.2141, 28.9732 ], [ 76.2353, 29.0 ], [ 76.2466, 29.0047 ], [ 76.2509, 29.025 ], [ 76.2396, 29.0523 ], [ 76.2448, 29.061 ], [ 76.2832, 29.0642 ], [ 76.2994, 29.0856 ], [ 76.3212, 29.0874 ], [ 76.351, 29.0829 ], [ 76.3795, 29.0656 ], [ 76.4028, 29.0757 ], [ 76.4436, 29.0554 ], [ 76.4617, 29.0659 ], [ 76.4775, 29.0921 ], [ 76.5101, 29.0772 ], [ 76.5379, 29.0983 ], [ 76.5671, 29.0588 ], [ 76.593, 29.0606 ], [ 76.6414, 29.0519 ], [ 76.6526, 29.0551 ], [ 76.6771, 29.0403 ], [ 76.6982, 29.0388 ], [ 76.7366, 29.0074 ], [ 76.7368, 28.9896 ], [ 76.7261, 28.9718 ], [ 76.7424, 28.9614 ], [ 76.7597, 28.9655 ], [ 76.775, 28.9486 ], [ 76.7711, 28.9396 ], [ 76.7787, 28.9304 ], [ 76.7949, 28.9245 ], [ 76.8187, 28.9313 ], [ 76.8252, 28.9208 ], [ 76.8259, 28.9011 ], [ 76.8104, 28.8667 ], [ 76.8231, 28.8601 ] ] ] } },
{ "type": "Feature", "properties": { "district": "Sirsa", "did": "haryana:Sirsa", "state_key": "haryana" }, "geometry": { "type": "Polygon", "coordinates": [ [ [ 75.2877, 29.4937 ], [ 75.281, 29.4737 ], [ 75.3011, 29.4393 ], [ 75.2855, 29.4228 ], [ 75.2351, 29.4187 ], [ 75.22, 29.3976 ], [ 75.2277, 29.3797 ], [ 75.2439, 29.3758 ], [ 75.2635, 29.3601 ], [ 75.2647, 29.3504 ], [ 75.2559, 29.3367 ], [ 75.2356, 29.3357 ], [ 75.2255, 29.3256 ], [ 75.2411, 29.2972 ], [ 75.234, 29.2686 ], [ 75.2452, 29.2502 ], [ 75.2384, 29.2302 ], [ 75.2101, 29.2346 ], [ 75.188, 29.2682 ], [ 75.1686, 29.2587 ], [ 75.1744, 29.2512 ], [ 75.1628, 29.244 ], [ 75.1244, 29.2399 ], [ 75.1196, 29.2229 ], [ 75.0821, 29.228 ], [ 75.0744, 29.2313 ], [ 75.0732, 29.2478 ], [ 75.05, 29.2861 ], [ 75.0199, 29.2862 ], [ 74.9992, 29.2703 ], [ 74.9833, 29.2806 ], [ 74.9612, 29.2806 ], [ 74.9484, 29.3015 ], [ 74.9609, 29.3203 ], [ 74.9545, 29.3327 ], [ 74.9399, 29.34 ], [ 74.9383, 29.362 ], [ 74.9003, 29.3848 ], [ 74.8777, 29.3835 ], [ 74.8714, 29.3949 ], [ 74.8506, 29.4036 ], [ 74.8204, 29.3972 ], [ 74.7876, 29.3614 ], [ 74.7622, 29.3544 ], [ 74.7392, 29.3541 ], [ 74.7195, 29.37 ], [ 74.691, 29.3659 ], [ 74.6582, 29.372 ], [ 74.6521, 29.3513 ], [ 74.6545, 29.3329 ], [ 74.5993, 29.3275 ], [ 74.6073, 29.3562 ], [ 74.6029, 29.3649 ], [ 74.5779, 29.3885 ], [ 74.5664, 29.4205 ], [ 74.5366, 29.4245 ], [ 74.5347, 29.4477 ], [ 74.5438, 29.468 ], [ 74.5732, 29.4651 ], [ 74.5847, 29.4585 ], [ 74.601, 29.5011 ], [ 74.6219, 29.5222 ], [ 74.6231, 29.5311 ], [ 74.5899, 29.5479 ], [ 74.575, 29.5643 ], [ 74.5816, 29.6272 ], [ 74.5914, 29.6395 ], [ 74.5855, 29.6545 ], [ 74.6012, 29.6904 ], [ 74.6095, 29.7432 ], [ 74.6159, 29.7523 ], [ 74.6033, 29.7579 ], [ 74.6001, 29.7665 ], [ 74.5875, 29.7669 ], [ 74.5781, 29.748 ], [ 74.5773, 29.7541 ], [ 74.5486, 29.7555 ], [ 74.5347, 29.7406 ], [ 74.5067, 29.7423 ], [ 74.4779, 29.7468 ], [ 74.4736, 29.7672 ], [ 74.4835, 29.8136 ], [ 74.508, 29.8333 ], [ 74.5442, 29.8444 ], [ 74.5611, 29.8698 ], [ 74.5438, 29.9017 ], [ 74.5098, 29.9084 ], [ 74.5316, 29.9497 ], [ 74.559, 29.9273 ], [ 74.5799, 29.9257 ], [ 74.5973, 29.9128 ], [ 74.6508, 29.9051 ], [ 74.6468, 29.9113 ], [ 74.6517, 29.9266 ], [ 74.6821, 29.9435 ], [ 74.6944, 29.9678 ], [ 74.7069, 29.977 ], [ 74.7068, 29.9705 ], [ 74.731, 29.9615 ], [ 74.7613, 29.9733 ], [ 74.7785, 29.9717 ], [ 74.813, 29.9923 ], [ 74.8243, 29.9858 ], [ 74.8211, 29.971 ], [ 74.8385, 29.9711 ], [ 74.8554, 29.9565 ], [ 74.8758, 29.9576 ], [ 74.888, 29.9667 ], [ 74.903, 29.9535 ], [ 74.8972, 29.9397 ], [ 74.9267, 29.9505 ], [ 74.948, 29.9072 ], [ 74.9789, 29.8943 ], [ 74.991, 29.8678 ], [ 75.0225, 29.8663 ], [ 75.0329, 29.8798 ], [ 75.047, 29.8851 ], [ 75.07, 29.877 ], [ 75.0864, 29.9165 ], [ 75.0988, 29.9128 ], [ 75.1104, 29.9019 ], [ 75.1147, 29.8787 ], [ 75.0901, 29.854 ], [ 75.1189, 29.8316 ], [ 75.1015, 29.8215 ], [ 75.1008, 29.8068 ], [ 75.1183, 29.8027 ], [ 75.1351, 29.8073 ], [ 75.1403, 29.7861 ], [ 75.151, 29.7755 ], [ 75.1668, 29.7847 ], [ 75.1591, 29.8013 ], [ 75.1656, 29.826 ], [ 75.191, 29.8414 ], [ 75.2123, 29.8293 ], [ 75.2085, 29.7927 ], [ 75.2263, 29.7891 ], [ 75.2244, 29.7807 ], [ 75.2414, 29.7505 ], [ 75.2264, 29.7289 ], [ 75.2156, 29.7381 ], [ 75.2082, 29.7375 ], [ 75.1969, 29.7152 ], [ 75.1978, 29.7032 ], [ 75.2078, 29.7012 ], [ 75.2068, 29.6875 ], [ 75.168, 29.667 ], [ 75.1747, 29.6556 ], [ 75.1876, 29.6518 ], [ 75.1831, 29.6284 ], [ 75.1969, 29.6193 ], [ 75.2068, 29.6219 ], [ 75.2354, 29.6031 ], [ 75.2217, 29.5803 ], [ 75.232, 29.5748 ], [ 75.2384, 29.5589 ], [ 75.2354, 29.5421 ], [ 75.2733, 29.55 ], [ 75.2812, 29.5615 ], [ 75.303, 29.5597 ], [ 75.3028, 29.5419 ], [ 75.2949, 29.5338 ], [ 75.3023, 29.5242 ], [ 75.274, 29.509 ], [ 75.2877, 29.4937 ] ] ] } },
{ "type": "Feature", "properties": { "district": "Sonipat", "did": "haryana:Sonipat", "state_key": "haryana" }, "geometry": { "type": "Polygon", "coordinates": [ [ [ 77.0402, 28.8321 ], [ 77.0074, 28.8407 ], [ 76.9872, 28.8353 ], [ 76.9797, 28.8212 ], [ 76.967, 28.8281 ], [ 76.9618, 28.8148 ], [ 76.9484, 28.8154 ], [ 76.9416, 28.7985 ], [ 76.9232, 28.801 ], [ 76.9121, 28.7935 ], [ 76.8913, 28.7979 ], [ 76.887, 28.8126 ], [ 76.8684, 28.8236 ], [ 76.863, 28.8459 ], [ 76.8472, 28.8608 ], [ 76.8231, 28.8601 ], [ 76.8092, 28.8677 ], [ 76.8259, 28.9011 ], [ 76.8271, 28.9159 ], [ 76.8191, 28.9311 ], [ 76.7893, 28.9256 ], [ 76.7717, 28.9381 ], [ 76.775, 28.9486 ], [ 76.7597, 28.9655 ], [ 76.7424, 28.9614 ], [ 76.7261, 28.9718 ], [ 76.7368, 28.9896 ], [ 76.7366, 29.0074 ], [ 76.6982, 29.0388 ], [ 76.6771, 29.0403 ], [ 76.6526, 29.0551 ], [ 76.6414, 29.0519 ], [ 76.593, 29.0606 ], [ 76.5671, 29.0588 ], [ 76.5379, 29.0983 ], [ 76.5101, 29.0772 ], [ 76.4775, 29.0921 ], [ 76.4894, 29.1368 ], [ 76.5122, 29.1632 ], [ 76.4956, 29.1781 ], [ 76.4906, 29.2067 ], [ 76.478, 29.2222 ], [ 76.4745, 29.238 ], [ 76.4834, 29.2426 ], [ 76.5256, 29.2316 ], [ 76.5248, 29.2212 ], [ 76.5341, 29.214 ], [ 76.5598, 29.2087 ], [ 76.5684, 29.2267 ], [ 76.5542, 29.2567 ], [ 76.5609, 29.2809 ], [ 76.5826, 29.2853 ], [ 76.5974, 29.2802 ], [ 76.6108, 29.2892 ], [ 76.6562, 29.2655 ], [ 76.6786, 29.2647 ], [ 76.6821, 29.2695 ], [ 76.7088, 29.261 ], [ 76.7155, 29.2508 ], [ 76.753, 29.2626 ], [ 76.7696, 29.2798 ], [ 76.7795, 29.282 ], [ 76.7963, 29.2725 ], [ 76.7931, 29.2507 ], [ 76.8111, 29.2176 ], [ 76.8417, 29.2055 ], [ 76.8548, 29.2058 ], [ 76.8754, 29.1919 ], [ 76.8859, 29.1948 ], [ 76.8943, 29.2103 ], [ 76.9181, 29.2193 ], [ 76.9596, 29.2051 ], [ 76.9674, 29.197 ], [ 76.964, 29.1936 ], [ 76.9822, 29.1884 ], [ 77.007, 29.189 ], [ 77.0289, 29.1776 ], [ 77.0503, 29.1844 ], [ 77.0599, 29.1728 ], [ 77.0786, 29.1797 ], [ 77.0973, 29.1618 ], [ 77.1143, 29.1696 ], [ 77.1433, 29.1669 ], [ 77.136, 29.142 ], [ 77.1474, 29.1335 ], [ 77.149, 29.1168 ], [ 77.1341, 29.0951 ], [ 77.1468, 29.0806 ], [ 77.1638, 29.0794 ], [ 77.1721, 29.0465 ], [ 77.167, 29.0338 ], [ 77.1891, 29.0277 ], [ 77.191, 29.0059 ], [ 77.2027, 28.9853 ], [ 77.193, 28.9589 ], [ 77.1959, 28.9393 ], [ 77.2312, 28.9205 ], [ 77.2347, 28.9091 ], [ 77.2284, 28.8822 ], [ 77.222, 28.8786 ], [ 77.2104, 28.8877 ], [ 77.1955, 28.8862 ], [ 77.1887, 28.8801 ], [ 77.1893, 28.8679 ], [ 77.2099, 28.8577 ], [ 77.1754, 28.8583 ], [ 77.1577, 28.8367 ], [ 77.1424, 28.8389 ], [ 77.1453, 28.8536 ], [ 77.1403, 28.8621 ], [ 77.1209, 28.8583 ], [ 77.1098, 28.8701 ], [ 77.0876, 28.8753 ], [ 77.0827, 28.8835 ], [ 77.0746, 28.8675 ], [ 77.0581, 28.8681 ], [ 77.0402, 28.8321 ] ] ] } },
{ "type": "Feature", "properties": { "district": "Yamunanagar", "did": "haryana:Yamunanagar", "state_key": "haryana" }, "geometry": { "type": "Polygon", "coordinates": [ [ [ 77.2777, 30.0002 ], [ 77.2615, 29.9829 ], [ 77.247, 29.9766 ], [ 77.244, 29.9598 ], [ 77.2295, 29.9396 ], [ 77.2083, 29.9351 ], [ 77.182, 29.9466 ], [ 77.1892, 29.9547 ], [ 77.171, 29.9699 ], [ 77.1315, 29.9659 ], [ 77.1344, 29.9791 ], [ 77.1008, 30.0183 ], [ 77.1051, 30.0301 ], [ 77.0944, 30.0373 ], [ 77.0982, 30.0414 ], [ 77.0866, 30.0508 ], [ 77.0807, 30.0711 ], [ 77.076, 30.0663 ], [ 77.0683, 30.0727 ], [ 77.0686, 30.0967 ], [ 77.0867, 30.1023 ], [ 77.0912, 30.1119 ], [ 77.0707, 30.1263 ], [ 77.0653, 30.1424 ], [ 77.0687, 30.1643 ], [ 77.0709, 30.169 ], [ 77.0981, 30.156 ], [ 77.1101, 30.1787 ], [ 77.0767, 30.1997 ], [ 77.0747, 30.2116 ], [ 77.0918, 30.2283 ], [ 77.1063, 30.225 ], [ 77.1166, 30.2325 ], [ 77.1268, 30.2283 ], [ 77.1302, 30.2323 ], [ 77.1502, 30.214 ], [ 77.1637, 30.2362 ], [ 77.1523, 30.2461 ], [ 77.1416, 30.2408 ], [ 77.1321, 30.2467 ], [ 77.1393, 30.2602 ], [ 77.1332, 30.2679 ], [ 77.1384, 30.2816 ], [ 77.1657, 30.2939 ], [ 77.1683, 30.3072 ], [ 77.1892, 30.3073 ], [ 77.1921, 30.3123 ], [ 77.1797, 30.3222 ], [ 77.1819, 30.3323 ], [ 77.1711, 30.3424 ], [ 77.1708, 30.3591 ], [ 77.1618, 30.3562 ], [ 77.1726, 30.3689 ], [ 77.1809, 30.3635 ], [ 77.1876, 30.3827 ], [ 77.1869, 30.3967 ], [ 77.1703, 30.4217 ], [ 77.1744, 30.4315 ], [ 77.1691, 30.4415 ], [ 77.1737, 30.4574 ], [ 77.1946, 30.4805 ], [ 77.2021, 30.4786 ], [ 77.2125, 30.4968 ], [ 77.2135, 30.4684 ], [ 77.2281, 30.4854 ], [ 77.2654, 30.4768 ], [ 77.2743, 30.4587 ], [ 77.2911, 30.4606 ], [ 77.3087, 30.4492 ], [ 77.3211, 30.4481 ], [ 77.3327, 30.4577 ], [ 77.3536, 30.4607 ], [ 77.364, 30.4344 ], [ 77.3672, 30.4422 ], [ 77.3876, 30.442 ], [ 77.3914, 30.4317 ], [ 77.4083, 30.4287 ], [ 77.3986, 30.4174 ], [ 77.4052, 30.4102 ], [ 77.459, 30.4581 ], [ 77.4662, 30.45 ], [ 77.4616, 30.4346 ], [ 77.454, 30.4337 ], [ 77.445, 30.4187 ], [ 77.4238, 30.4108 ], [ 77.4229, 30.4041 ], [ 77.4385, 30.404 ], [ 77.4453, 30.396 ], [ 77.4735, 30.401 ], [ 77.4929, 30.4117 ], [ 77.4987, 30.4058 ], [ 77.503, 30.4298 ], [ 77.5198, 30.4454 ], [ 77.5468, 30.396 ], [ 77.6046, 30.3674 ], [ 77.578, 30.3308 ], [ 77.5861, 30.3154 ], [ 77.5831, 30.3076 ], [ 77.5382, 30.278 ], [ 77.5302, 30.2505 ], [ 77.5046, 30.2252 ], [ 77.4805, 30.1842 ], [ 77.4718, 30.1819 ], [ 77.4578, 30.1627 ], [ 77.4298, 30.164 ], [ 77.4257, 30.1581 ], [ 77.4198, 30.1352 ], [ 77.4251, 30.1315 ], [ 77.4135, 30.1129 ], [ 77.4032, 30.1117 ], [ 77.4102, 30.1047 ], [ 77.4239, 30.1032 ], [ 77.4062, 30.0883 ], [ 77.3775, 30.09 ], [ 77.3452, 30.0693 ], [ 77.3343, 30.0537 ], [ 77.2969, 30.0533 ], [ 77.2778, 30.0418 ], [ 77.2777, 30.0002 ] ] ] } }
]
}
