{
"type": "FeatureCollection",
"crs": { "type": "name", "properties": { "name": "urn:ogc:def:crs:OGC:1.3:CRS84" } },
"xy_coordinate_resolution": 0.0001,
"features": [
{ "type": "Feature", "properties": { "district": "West", "did": "delhi:West", "state": "NCT of Delhi", "state_key": "delhi" }, "geometry": { "type": "Polygon", "coordinates": [ [ [ 77.329, 28.5083 ], [ 77.3069, 28.4907 ], [ 77.2781, 28.4981 ], [ 77.2427, 28.4846 ], [ 77.2257, 28.464 ], [ 77.2433, 28.4475 ], [ 77.2406, 28.4289 ], [ 77.2153, 28.4157 ], [ 77.1658, 28.4085 ], [ 77.1424, 28.4357 ], [ 77.1183, 28.4424 ], [ 77.1027, 28.4704 ], [ 77.1077, 28.4939 ], [ 77.0725, 28.5203 ], [ 77.0488, 28.5152 ], [ 77.0061, 28.5428 ], [ 76.9959, 28.5369 ], [ 77.0114, 28.5241 ], [ 77.0055, 28.5144 ], [ 76.9685, 28.5276 ], [ 76.9446, 28.5136 ], [ 76.9227, 28.5193 ], [ 76.8975, 28.5178 ], [ 76.8794, 28.5091 ], [ 76.8738, 28.5144 ], [ 76.8763, 28.5284 ], [ 76.8567, 28.5478 ], [ 76.8376, 28.557 ], [ 76.8329, 28.5825 ], [ 76.835, 28.5914 ], [ 76.8548, 28.5924 ], [ 76.8779, 28.6376 ], [ 76.8937, 28.6328 ], [ 76.9103, 28.6378 ], [ 76.9237, 28.6287 ], [ 76.9339, 28.6376 ], [ 76.9175, 28.6573 ], [ 76.9297, 28.6744 ], [ 76.9473, 28.6772 ], [ 76.9546, 28.7054 ], [ 76.9413, 28.717 ], [ 76.9507, 28.7365 ], [ 76.9503, 28.7467 ], [ 76.9382, 28.7596 ], [ 76.9466, 28.774 ], [ 76.9375, 28.8035 ], [ 76.9423, 28.8207 ], [ 76.9558, 28.82 ], [ 76.9608, 28.8317 ], [ 76.9737, 28.8258 ], [ 76.9835, 28.8391 ], [ 77.0315, 28.8368 ], [ 77.0498, 28.8732 ], [ 77.0657, 28.873 ], [ 77.0759, 28.8845 ], [ 77.0834, 28.8746 ], [ 77.1285, 28.8654 ], [ 77.1392, 28.8417 ], [ 77.1646, 28.8606 ], [ 77.1869, 28.8668 ], [ 77.2048, 28.8629 ], [ 77.2173, 28.8353 ], [ 77.2136, 28.8135 ], [ 77.1946, 28.8154 ], [ 77.1969, 28.7953 ], [ 77.2085, 28.7872 ], [ 77.2247, 28.7876 ], [ 77.2171, 28.7817 ], [ 77.238, 28.7592 ], [ 77.2532, 28.7528 ], [ 77.2562, 28.7399 ], [ 77.2769, 28.7344 ], [ 77.2849, 28.7125 ], [ 77.3235, 28.7159 ], [ 77.3198, 28.7036 ], [ 77.3271, 28.6852 ], [ 77.3179, 28.6793 ], [ 77.3112, 28.6446 ], [ 77.3342, 28.627 ], [ 77.3362, 28.6089 ], [ 77.3071, 28.5969 ], [ 77.2936, 28.5797 ], [ 77.2938, 28.5667 ], [ 77.334, 28.5207 ], [ 77.3377, 28.509 ], [ 77.329, 28.5083 ] ] ] } }
]
}
