{
"type": "FeatureCollection",
"crs": { "type": "name", "properties": { "name": "urn:ogc:def:crs:OGC:1.3:CRS84" } },
"xy_coordinate_resolution": 0.0001,
"features": [
{ "type": "Feature", "properties": { "district": "Lakshadweep", "did": "lakshadweep:Lakshadweep", "state_key": "lakshadweep" }, "geometry": { "type": "MultiPolygon", "coordinates": [ [ [ [ 72.2848, 10.0474 ], [ 72.2898, 10.0543 ], [ 72.288, 10.0467 ], [ 72.2826, 10.0426 ], [ 72.2848, 10.0474 ] ] ], [ [ [ 72.3342, 10.1009 ], [ 72.3364, 10.1076 ], [ 72.3376, 10.106 ], [ 72.3342, 10.1009 ] ] ], [ [ [ 72.3266, 10.131 ], [ 72.3275, 10.1399 ], [ 72.331, 10.1341 ], [ 72.3325, 10.1297 ], [ 72.3266, 10.131 ] ] ], [ [ [ 72.6489, 10.5646 ], [ 72.6164, 10.5433 ], [ 72.6399, 10.5804 ], [ 72.6489, 10.5646 ] ] ], [ [ [ 72.1679, 10.8139 ], [ 72.164, 10.8142 ], [ 72.168, 10.8164 ], [ 72.1679, 10.8139 ] ] ], [ [ [ 72.179, 10.8299 ], [ 72.1694, 10.8193 ], [ 72.1939, 10.8724 ], [ 72.2054, 10.8796 ], [ 72.179, 10.8299 ] ] ], [ [ [ 72.292, 10.9381 ], [ 72.2849, 10.9373 ], [ 72.2864, 10.9474 ], [ 72.292, 10.9381 ] ] ], [ [ [ 72.3147, 10.9447 ], [ 72.3163, 10.9507 ], [ 72.3263, 10.9526 ], [ 72.3147, 10.9447 ] ] ], [ [ [ 72.3296, 10.9527 ], [ 72.3327, 10.9539 ], [ 72.3326, 10.9531 ], [ 72.3296, 10.9527 ] ] ], [ [ [ 72.3331, 10.9541 ], [ 72.3324, 10.9561 ], [ 72.334, 10.9564 ], [ 72.3331, 10.9541 ] ] ], [ [ [ 72.3333, 10.9602 ], [ 72.3335, 10.9604 ], [ 72.3345, 10.9575 ], [ 72.3333, 10.9602 ] ] ], [ [ [ 72.7186, 11.1297 ], [ 72.7329, 11.1375 ], [ 72.7283, 11.1236 ], [ 72.718, 11.1164 ], [ 72.7186, 11.1297 ] ] ], [ [ [ 72.1857, 11.5999 ], [ 72.1848, 11.603 ], [ 72.1885, 11.6017 ], [ 72.1857, 11.5999 ] ] ], [ [ [ 72.7048, 11.6838 ], [ 72.7157, 11.705 ], [ 72.7166, 11.6958 ], [ 72.7048, 11.6838 ] ] ], [ [ [ 73.0238, 8.2684 ], [ 73.0182, 8.2714 ], [ 73.017, 8.2769 ], [ 73.0275, 8.272 ], [ 73.047, 8.2767 ], [ 73.0629, 8.2951 ], [ 73.0679, 8.3103 ], [ 73.0742, 8.3218 ], [ 73.0776, 8.3255 ], [ 73.0661, 8.304 ], [ 73.0652, 8.2862 ], [ 73.0479, 8.2674 ], [ 73.0238, 8.2684 ] ] ], [ [ [ 73.0132, 8.3036 ], [ 73.0132, 8.3032 ], [ 73.013, 8.3032 ], [ 73.0132, 8.3036 ] ] ], [ [ [ 73.6307, 10.07 ], [ 73.6309, 10.0698 ], [ 73.6297, 10.0693 ], [ 73.6307, 10.07 ] ] ], [ [ [ 73.6324, 10.0704 ], [ 73.6317, 10.0699 ], [ 73.6316, 10.0705 ], [ 73.6324, 10.0704 ] ] ], [ [ [ 73.634, 10.0729 ], [ 73.6331, 10.0725 ], [ 73.6328, 10.0733 ], [ 73.634, 10.0729 ] ] ], [ [ [ 73.6258, 10.0732 ], [ 73.6253, 10.0739 ], [ 73.6273, 10.0755 ], [ 73.6258, 10.0732 ] ] ], [ [ [ 73.6298, 10.0746 ], [ 73.6304, 10.075 ], [ 73.6302, 10.0743 ], [ 73.6298, 10.0746 ] ] ], [ [ [ 73.6404, 10.0583 ], [ 73.6342, 10.0724 ], [ 73.6433, 10.0774 ], [ 73.6504, 10.1031 ], [ 73.6471, 10.0653 ], [ 73.6404, 10.0583 ] ] ], [ [ [ 73.6518, 10.1103 ], [ 73.6515, 10.1097 ], [ 73.6511, 10.1102 ], [ 73.6518, 10.1103 ] ] ], [ [ [ 73.6634, 10.1408 ], [ 73.6606, 10.131 ], [ 73.6592, 10.1303 ], [ 73.6583, 10.1565 ], [ 73.6634, 10.1408 ] ] ], [ [ [ 73.6986, 10.8175 ], [ 73.7009, 10.8154 ], [ 73.6709, 10.8051 ], [ 73.6617, 10.8076 ], [ 73.6587, 10.8144 ], [ 73.6986, 10.8175 ] ] ], [ [ [ 72.7787, 11.2437 ], [ 72.7895, 11.2615 ], [ 72.7763, 11.2185 ], [ 72.7614, 11.1846 ], [ 72.7787, 11.2437 ] ] ], [ [ [ 72.9974, 11.4983 ], [ 72.9991, 11.4996 ], [ 73.0092, 11.4887 ], [ 73.0111, 11.4743 ], [ 73.0064, 11.4711 ], [ 72.9974, 11.4983 ] ] ] ] } }
]
}
