{
"type": "FeatureCollection",
"crs": { "type": "name", "properties": { "name": "urn:ogc:def:crs:OGC:1.3:CRS84" } },
"xy_coordinate_resolution": 0.0001,
"features": [
{ "type": "Feature", "properties": { "district": "Amritsar", "did": "punjab:Amritsar", "state_key": "punjab" }, "geometry": { "type": "Polygon", "coordinates": [ [ [ 75.1739, 31.749 ], [ 75.1843, 31.7391 ], [ 75.1904, 31.7406 ], [ 75.1879, 31.7339 ], [ 75.2031, 31.7306 ], [ 75.2038, 31.7224 ], [ 75.1937, 31.7177 ], [ 75.1939, 31.711 ], [ 75.2133, 31.7054 ], [ 75.2129, 31.6958 ], [ 75.2273, 31.6917 ], [ 75.2276, 31.6841 ], [ 75.2403, 31.6832 ], [ 75.2412, 31.6897 ], [ 75.285, 31.6984 ], [ 75.2843, 31.6818 ], [ 75.2975, 31.6811 ], [ 75.3133, 31.6673 ], [ 75.302, 31.6526 ], [ 75.3272, 31.6354 ], [ 75.3387, 31.6412 ], [ 75.3414, 31.6356 ], [ 75.3727, 31.6246 ], [ 75.4043, 31.5935 ], [ 75.396, 31.5804 ], [ 75.3748, 31.5789 ], [ 75.3284, 31.5433 ], [ 75.2822, 31.4821 ], [ 75.2505, 31.5024 ], [ 75.2334, 31.4989 ], [ 75.2283, 31.4913 ], [ 75.2009, 31.5044 ], [ 75.1951, 31.5007 ], [ 75.1842, 31.5073 ], [ 75.1913, 31.5205 ], [ 75.1789, 31.5293 ], [ 75.1679, 31.5246 ], [ 75.1626, 31.512 ], [ 75.1386, 31.5087 ], [ 75.1246, 31.4952 ], [ 75.1102, 31.5119 ], [ 75.1084, 31.5237 ], [ 75.0833, 31.5208 ], [ 75.0705, 31.5287 ], [ 75.0478, 31.5171 ], [ 75.0416, 31.5252 ], [ 75.03, 31.5267 ], [ 75.0314, 31.5324 ], [ 75.0182, 31.5235 ], [ 75.0066, 31.5246 ], [ 74.9936, 31.5043 ], [ 74.982, 31.5267 ], [ 74.9729, 31.5183 ], [ 74.9773, 31.5127 ], [ 74.9651, 31.5141 ], [ 74.9526, 31.4967 ], [ 74.9383, 31.5094 ], [ 74.9374, 31.5235 ], [ 74.9168, 31.5276 ], [ 74.9013, 31.5237 ], [ 74.899, 31.5528 ], [ 74.8891, 31.5544 ], [ 74.878, 31.5377 ], [ 74.8446, 31.531 ], [ 74.8307, 31.5389 ], [ 74.823, 31.5366 ], [ 74.8171, 31.5444 ], [ 74.819, 31.5565 ], [ 74.8049, 31.5581 ], [ 74.7939, 31.5708 ], [ 74.7733, 31.5595 ], [ 74.7529, 31.5657 ], [ 74.7539, 31.5583 ], [ 74.7296, 31.5633 ], [ 74.7118, 31.5503 ], [ 74.7069, 31.5394 ], [ 74.68, 31.5502 ], [ 74.6696, 31.5326 ], [ 74.6493, 31.5404 ], [ 74.6265, 31.5251 ], [ 74.6284, 31.5159 ], [ 74.6181, 31.5104 ], [ 74.614, 31.4993 ], [ 74.5947, 31.5015 ], [ 74.5934, 31.4963 ], [ 74.5839, 31.4967 ], [ 74.5752, 31.5012 ], [ 74.5871, 31.504 ], [ 74.58, 31.5073 ], [ 74.5843, 31.5209 ], [ 74.6129, 31.5273 ], [ 74.6187, 31.5516 ], [ 74.6068, 31.563 ], [ 74.6156, 31.569 ], [ 74.5923, 31.5741 ], [ 74.5753, 31.6038 ], [ 74.5553, 31.6078 ], [ 74.5467, 31.6457 ], [ 74.5373, 31.6533 ], [ 74.5402, 31.6601 ], [ 74.5287, 31.6666 ], [ 74.535, 31.6776 ], [ 74.5019, 31.6958 ], [ 74.4993, 31.7095 ], [ 74.4866, 31.715 ], [ 74.4906, 31.7238 ], [ 74.5031, 31.7285 ], [ 74.5037, 31.7405 ], [ 74.5474, 31.7493 ], [ 74.5594, 31.7579 ], [ 74.5618, 31.7633 ], [ 74.5514, 31.779 ], [ 74.5556, 31.7914 ], [ 74.5671, 31.7964 ], [ 74.5579, 31.8048 ], [ 74.5731, 31.816 ], [ 74.5721, 31.8388 ], [ 74.5833, 31.8519 ], [ 74.5907, 31.8485 ], [ 74.5972, 31.8674 ], [ 74.6066, 31.8685 ], [ 74.6079, 31.8904 ], [ 74.6363, 31.8842 ], [ 74.6509, 31.9022 ], [ 74.6576, 31.9019 ], [ 74.6667, 31.9227 ], [ 74.6743, 31.9186 ], [ 74.6772, 31.9261 ], [ 74.7192, 31.9237 ], [ 74.7141, 31.9323 ], [ 74.7202, 31.9414 ], [ 74.7566, 31.9437 ], [ 74.7556, 31.9558 ], [ 74.7684, 31.9477 ], [ 74.8062, 31.9628 ], [ 74.8191, 31.9587 ], [ 74.8314, 31.9809 ], [ 74.8289, 31.9986 ], [ 74.8532, 32.0136 ], [ 74.8484, 32.0205 ], [ 74.8656, 32.0232 ], [ 74.8656, 32.0304 ], [ 74.869, 32.022 ], [ 74.8795, 32.0315 ], [ 74.8692, 32.0428 ], [ 74.8795, 32.0538 ], [ 74.8899, 32.0552 ], [ 74.9084, 32.0515 ], [ 74.9226, 32.0392 ], [ 74.9355, 32.0119 ], [ 74.9191, 31.9989 ], [ 74.9172, 31.9752 ], [ 74.9391, 31.9625 ], [ 74.9486, 31.9704 ], [ 74.9738, 31.9746 ], [ 74.9719, 31.9603 ], [ 74.9428, 31.9495 ], [ 74.9387, 31.9413 ], [ 74.9157, 31.9422 ], [ 74.9017, 31.9314 ], [ 74.8894, 31.9315 ], [ 74.9066, 31.8946 ], [ 74.9194, 31.8926 ], [ 74.9166, 31.8792 ], [ 74.9383, 31.8669 ], [ 74.9443, 31.8705 ], [ 74.9419, 31.8606 ], [ 74.962, 31.854 ], [ 74.9692, 31.8313 ], [ 74.9836, 31.8363 ], [ 75.0005, 31.8326 ], [ 75.0129, 31.8204 ], [ 75.0281, 31.8228 ], [ 75.0219, 31.8177 ], [ 75.0399, 31.8025 ], [ 75.0706, 31.8075 ], [ 75.0825, 31.7921 ], [ 75.1119, 31.7812 ], [ 75.1068, 31.7654 ], [ 75.0997, 31.7641 ], [ 75.1046, 31.755 ], [ 75.1374, 31.7518 ], [ 75.144, 31.7589 ], [ 75.1554, 31.7474 ], [ 75.1739, 31.749 ] ] ] } },
{ "type": "Feature", "properties": { "district": "Barnala", "did": "punjab:Barnala", "state_key": "punjab" }, "geometry": { "type": "Polygon", "coordinates": [ [ [ 75.5067, 30.5724 ], [ 75.5131, 30.5841 ], [ 75.5288, 30.5852 ], [ 75.5283, 30.571 ], [ 75.537, 30.5673 ], [ 75.541, 30.5784 ], [ 75.5488, 30.5803 ], [ 75.5789, 30.5696 ], [ 75.6038, 30.5942 ], [ 75.6268, 30.6009 ], [ 75.6517, 30.5912 ], [ 75.677, 30.5976 ], [ 75.6846, 30.5915 ], [ 75.659, 30.5626 ], [ 75.6651, 30.5522 ], [ 75.6522, 30.543 ], [ 75.6584, 30.5298 ], [ 75.677, 30.5211 ], [ 75.6803, 30.5104 ], [ 75.671, 30.499 ], [ 75.6588, 30.4956 ], [ 75.658, 30.4808 ], [ 75.6648, 30.4732 ], [ 75.6754, 30.4725 ], [ 75.6728, 30.4589 ], [ 75.6646, 30.4479 ], [ 75.6583, 30.4441 ], [ 75.6536, 30.4481 ], [ 75.6464, 30.4407 ], [ 75.6699, 30.4201 ], [ 75.6659, 30.3879 ], [ 75.6773, 30.3789 ], [ 75.677, 30.3567 ], [ 75.684, 30.3514 ], [ 75.6675, 30.3347 ], [ 75.6563, 30.3379 ], [ 75.65, 30.331 ], [ 75.6582, 30.3165 ], [ 75.6555, 30.3101 ], [ 75.6701, 30.2909 ], [ 75.7163, 30.2833 ], [ 75.7311, 30.2751 ], [ 75.7207, 30.2715 ], [ 75.7188, 30.2602 ], [ 75.7004, 30.2531 ], [ 75.6979, 30.2419 ], [ 75.688, 30.24 ], [ 75.6917, 30.2301 ], [ 75.681, 30.24 ], [ 75.6488, 30.2381 ], [ 75.6132, 30.2171 ], [ 75.5834, 30.2279 ], [ 75.5852, 30.2159 ], [ 75.5684, 30.2024 ], [ 75.5581, 30.2019 ], [ 75.5553, 30.1942 ], [ 75.5598, 30.187 ], [ 75.5556, 30.1772 ], [ 75.576, 30.156 ], [ 75.5771, 30.144 ], [ 75.5615, 30.1476 ], [ 75.5488, 30.1376 ], [ 75.5341, 30.1466 ], [ 75.5229, 30.1396 ], [ 75.4944, 30.1517 ], [ 75.4873, 30.1745 ], [ 75.4618, 30.1951 ], [ 75.4163, 30.1863 ], [ 75.3934, 30.2004 ], [ 75.397, 30.2068 ], [ 75.3918, 30.2098 ], [ 75.374, 30.198 ], [ 75.3701, 30.2053 ], [ 75.3599, 30.2057 ], [ 75.3711, 30.2099 ], [ 75.3771, 30.2283 ], [ 75.3762, 30.2372 ], [ 75.3638, 30.2411 ], [ 75.3687, 30.2475 ], [ 75.365, 30.2579 ], [ 75.3713, 30.2612 ], [ 75.3613, 30.2677 ], [ 75.3639, 30.2823 ], [ 75.342, 30.2855 ], [ 75.3397, 30.2925 ], [ 75.3465, 30.3002 ], [ 75.3342, 30.3064 ], [ 75.3185, 30.3027 ], [ 75.3218, 30.3167 ], [ 75.3139, 30.3271 ], [ 75.3206, 30.3354 ], [ 75.3452, 30.3371 ], [ 75.3444, 30.3441 ], [ 75.3246, 30.3508 ], [ 75.3335, 30.378 ], [ 75.3055, 30.3788 ], [ 75.2993, 30.4078 ], [ 75.3054, 30.418 ], [ 75.2831, 30.4418 ], [ 75.265, 30.4364 ], [ 75.262, 30.4439 ], [ 75.2677, 30.4452 ], [ 75.2537, 30.4638 ], [ 75.2777, 30.4912 ], [ 75.2829, 30.508 ], [ 75.2941, 30.5116 ], [ 75.3127, 30.5355 ], [ 75.3226, 30.5381 ], [ 75.3309, 30.5332 ], [ 75.3346, 30.5208 ], [ 75.3606, 30.5129 ], [ 75.4006, 30.5285 ], [ 75.4192, 30.548 ], [ 75.404, 30.5667 ], [ 75.4091, 30.5839 ], [ 75.4309, 30.5839 ], [ 75.4339, 30.593 ], [ 75.4449, 30.5917 ], [ 75.454, 30.601 ], [ 75.4641, 30.5993 ], [ 75.4643, 30.6058 ], [ 75.4967, 30.5974 ], [ 75.4875, 30.5829 ], [ 75.5067, 30.5724 ] ] ] } },
{ "type": "Feature", "properties": { "district": "Bathinda", "did": "punjab:Bathinda", "state_key": "punjab" }, "geometry": { "type": "Polygon", "coordinates": [ [ [ 75.2909, 30.1039 ], [ 75.2998, 30.0981 ], [ 75.3064, 30.0774 ], [ 75.3259, 30.0698 ], [ 75.3244, 30.0645 ], [ 75.3202, 30.0613 ], [ 75.2936, 30.0708 ], [ 75.2492, 30.0372 ], [ 75.2602, 30.016 ], [ 75.2815, 30.0114 ], [ 75.289, 30.0224 ], [ 75.3012, 30.0206 ], [ 75.2743, 29.9959 ], [ 75.2718, 29.9898 ], [ 75.2811, 29.9793 ], [ 75.2731, 29.974 ], [ 75.2507, 29.9829 ], [ 75.2376, 29.9598 ], [ 75.2166, 29.9676 ], [ 75.2058, 29.9802 ], [ 75.1951, 29.9809 ], [ 75.1828, 29.9702 ], [ 75.1781, 29.9459 ], [ 75.1835, 29.9415 ], [ 75.1717, 29.9278 ], [ 75.1848, 29.9161 ], [ 75.1881, 29.8894 ], [ 75.2175, 29.883 ], [ 75.2182, 29.8645 ], [ 75.1931, 29.8535 ], [ 75.1844, 29.8341 ], [ 75.1647, 29.825 ], [ 75.1591, 29.8013 ], [ 75.1668, 29.7847 ], [ 75.151, 29.7755 ], [ 75.1403, 29.7861 ], [ 75.1351, 29.8073 ], [ 75.1183, 29.8027 ], [ 75.1006, 29.8071 ], [ 75.1015, 29.8215 ], [ 75.1189, 29.8319 ], [ 75.0901, 29.854 ], [ 75.1147, 29.8787 ], [ 75.1093, 29.9041 ], [ 75.0942, 29.9151 ], [ 75.0864, 29.9165 ], [ 75.07, 29.877 ], [ 75.047, 29.8851 ], [ 75.0329, 29.8798 ], [ 75.0225, 29.8663 ], [ 74.9981, 29.8662 ], [ 74.9856, 29.8753 ], [ 74.9789, 29.8943 ], [ 74.9513, 29.9032 ], [ 74.9267, 29.9505 ], [ 74.8972, 29.9397 ], [ 74.903, 29.9535 ], [ 74.888, 29.9667 ], [ 74.8758, 29.9576 ], [ 74.8554, 29.9565 ], [ 74.8385, 29.9711 ], [ 74.8211, 29.971 ], [ 74.8243, 29.9858 ], [ 74.8115, 29.9924 ], [ 74.7785, 29.9717 ], [ 74.7613, 29.9733 ], [ 74.731, 29.9615 ], [ 74.7068, 29.9705 ], [ 74.7008, 29.9871 ], [ 74.7171, 30.0139 ], [ 74.6942, 30.0337 ], [ 74.6941, 30.0492 ], [ 74.7048, 30.0651 ], [ 74.6828, 30.0721 ], [ 74.6766, 30.0812 ], [ 74.6738, 30.0899 ], [ 74.6843, 30.1099 ], [ 74.6488, 30.1105 ], [ 74.6297, 30.1306 ], [ 74.6399, 30.1504 ], [ 74.6547, 30.1625 ], [ 74.6868, 30.168 ], [ 74.6907, 30.1618 ], [ 74.7029, 30.1601 ], [ 74.735, 30.1753 ], [ 74.7345, 30.1923 ], [ 74.712, 30.1966 ], [ 74.713, 30.2134 ], [ 74.7255, 30.2299 ], [ 74.7181, 30.2483 ], [ 74.7344, 30.2788 ], [ 74.7425, 30.2783 ], [ 74.7521, 30.2871 ], [ 74.7241, 30.3087 ], [ 74.7463, 30.3208 ], [ 74.7623, 30.3204 ], [ 74.7854, 30.3366 ], [ 74.6991, 30.356 ], [ 74.7239, 30.3659 ], [ 74.7922, 30.3367 ], [ 74.7965, 30.356 ], [ 74.8217, 30.3928 ], [ 74.8532, 30.3751 ], [ 74.8757, 30.3893 ], [ 74.9212, 30.3663 ], [ 74.9306, 30.3686 ], [ 74.9443, 30.3843 ], [ 74.9617, 30.3888 ], [ 74.9706, 30.4045 ], [ 74.9836, 30.3985 ], [ 74.9956, 30.4046 ], [ 75.0128, 30.3857 ], [ 75.0431, 30.3789 ], [ 75.0525, 30.3886 ], [ 75.0523, 30.4093 ], [ 75.0328, 30.4275 ], [ 75.0221, 30.4263 ], [ 75.0272, 30.4387 ], [ 75.0207, 30.4419 ], [ 75.0332, 30.458 ], [ 75.0541, 30.4583 ], [ 75.0422, 30.4656 ], [ 75.0426, 30.4733 ], [ 75.0305, 30.4743 ], [ 75.0202, 30.4909 ], [ 75.0324, 30.5043 ], [ 75.062, 30.5015 ], [ 75.0847, 30.5319 ], [ 75.1052, 30.5212 ], [ 75.1282, 30.5223 ], [ 75.1308, 30.5377 ], [ 75.1206, 30.5609 ], [ 75.1456, 30.5824 ], [ 75.1543, 30.5767 ], [ 75.1654, 30.5791 ], [ 75.1794, 30.5518 ], [ 75.1817, 30.5101 ], [ 75.1955, 30.5121 ], [ 75.2032, 30.5069 ], [ 75.212, 30.5164 ], [ 75.2276, 30.5076 ], [ 75.262, 30.5209 ], [ 75.2829, 30.508 ], [ 75.2777, 30.4912 ], [ 75.2537, 30.4638 ], [ 75.2677, 30.4452 ], [ 75.2622, 30.4397 ], [ 75.2831, 30.4418 ], [ 75.3039, 30.4201 ], [ 75.2993, 30.4078 ], [ 75.3051, 30.3793 ], [ 75.3335, 30.378 ], [ 75.3246, 30.3508 ], [ 75.3452, 30.3425 ], [ 75.3439, 30.3343 ], [ 75.3148, 30.3324 ], [ 75.3218, 30.3167 ], [ 75.3176, 30.3046 ], [ 75.3342, 30.3064 ], [ 75.3465, 30.3002 ], [ 75.3397, 30.2925 ], [ 75.342, 30.2855 ], [ 75.3639, 30.2823 ], [ 75.3613, 30.2677 ], [ 75.3713, 30.2612 ], [ 75.365, 30.2579 ], [ 75.3687, 30.2475 ], [ 75.3638, 30.2411 ], [ 75.3762, 30.2372 ], [ 75.3767, 30.2242 ], [ 75.3711, 30.2099 ], [ 75.3599, 30.2057 ], [ 75.371, 30.2024 ], [ 75.3573, 30.1871 ], [ 75.364, 30.176 ], [ 75.3561, 30.1683 ], [ 75.3592, 30.1636 ], [ 75.3445, 30.1595 ], [ 75.3437, 30.1462 ], [ 75.3532, 30.1414 ], [ 75.3137, 30.1122 ], [ 75.297, 30.1118 ], [ 75.2909, 30.1039 ] ] ] } },
{ "type": "Feature", "properties": { "district": "Faridkot", "did": "punjab:Faridkot", "state_key": "punjab" }, "geometry": { "type": "Polygon", "coordinates": [ [ [ 74.9029, 30.5706 ], [ 74.9041, 30.5488 ], [ 74.9263, 30.5391 ], [ 74.9317, 30.5595 ], [ 74.9447, 30.5718 ], [ 74.9505, 30.5689 ], [ 74.9626, 30.5606 ], [ 74.965, 30.5515 ], [ 74.9779, 30.5432 ], [ 74.9904, 30.5433 ], [ 74.9958, 30.5363 ], [ 74.9901, 30.5204 ], [ 74.9972, 30.4884 ], [ 75.0202, 30.4909 ], [ 75.0305, 30.4743 ], [ 75.0426, 30.4733 ], [ 75.0422, 30.4656 ], [ 75.053, 30.4605 ], [ 75.0498, 30.4553 ], [ 75.0332, 30.458 ], [ 75.0207, 30.4419 ], [ 75.0272, 30.4387 ], [ 75.0221, 30.4263 ], [ 75.0328, 30.4275 ], [ 75.0523, 30.4093 ], [ 75.0525, 30.3886 ], [ 75.0431, 30.3789 ], [ 75.0128, 30.3857 ], [ 74.9956, 30.4046 ], [ 74.9836, 30.3985 ], [ 74.9706, 30.4045 ], [ 74.9617, 30.3888 ], [ 74.9443, 30.3843 ], [ 74.9306, 30.3686 ], [ 74.9212, 30.3663 ], [ 74.8757, 30.3893 ], [ 74.8532, 30.3751 ], [ 74.8072, 30.4011 ], [ 74.8051, 30.3971 ], [ 74.7698, 30.3973 ], [ 74.7576, 30.39 ], [ 74.753, 30.3942 ], [ 74.7593, 30.4228 ], [ 74.7294, 30.457 ], [ 74.7414, 30.473 ], [ 74.7629, 30.4838 ], [ 74.7607, 30.4933 ], [ 74.7375, 30.4928 ], [ 74.7182, 30.5095 ], [ 74.6884, 30.5181 ], [ 74.6849, 30.5243 ], [ 74.7019, 30.5404 ], [ 74.7088, 30.5589 ], [ 74.6687, 30.5789 ], [ 74.6588, 30.593 ], [ 74.6461, 30.595 ], [ 74.6344, 30.61 ], [ 74.6363, 30.6158 ], [ 74.6239, 30.6182 ], [ 74.6189, 30.6393 ], [ 74.6138, 30.6367 ], [ 74.5892, 30.6579 ], [ 74.5619, 30.6657 ], [ 74.4802, 30.673 ], [ 74.4692, 30.7469 ], [ 74.4786, 30.7554 ], [ 74.5219, 30.7713 ], [ 74.5424, 30.7925 ], [ 74.5773, 30.8082 ], [ 74.5965, 30.8092 ], [ 74.624, 30.8364 ], [ 74.6466, 30.8185 ], [ 74.6632, 30.8342 ], [ 74.6814, 30.8248 ], [ 74.6925, 30.831 ], [ 74.7274, 30.823 ], [ 74.7405, 30.8263 ], [ 74.7546, 30.8125 ], [ 74.7714, 30.8154 ], [ 74.7811, 30.807 ], [ 74.7836, 30.7947 ], [ 74.8072, 30.7892 ], [ 74.8138, 30.768 ], [ 74.8356, 30.7704 ], [ 74.8446, 30.7588 ], [ 74.8547, 30.7572 ], [ 74.8582, 30.7437 ], [ 74.8752, 30.7466 ], [ 74.9097, 30.7359 ], [ 74.9041, 30.7033 ], [ 74.9155, 30.6826 ], [ 74.9228, 30.6879 ], [ 74.922, 30.6793 ], [ 74.9553, 30.6778 ], [ 74.9583, 30.6566 ], [ 74.95, 30.645 ], [ 74.9562, 30.6369 ], [ 74.9467, 30.6093 ], [ 74.9555, 30.5936 ], [ 74.9099, 30.5801 ], [ 74.9029, 30.5706 ] ] ] } },
{ "type": "Feature", "properties": { "district": "Fatehgarh Sahib", "did": "punjab:Fatehgarh Sahib", "state_key": "punjab" }, "geometry": { "type": "Polygon", "coordinates": [ [ [ 76.2836, 30.5449 ], [ 76.2752, 30.5598 ], [ 76.2563, 30.5672 ], [ 76.2471, 30.5515 ], [ 76.2382, 30.5499 ], [ 76.2379, 30.5666 ], [ 76.2294, 30.5701 ], [ 76.1831, 30.5414 ], [ 76.1731, 30.5471 ], [ 76.1657, 30.5351 ], [ 76.1543, 30.5444 ], [ 76.1363, 30.5235 ], [ 76.1199, 30.5454 ], [ 76.1079, 30.5293 ], [ 76.0758, 30.5465 ], [ 76.0896, 30.568 ], [ 76.098, 30.5604 ], [ 76.1077, 30.5621 ], [ 76.108, 30.576 ], [ 76.1146, 30.5798 ], [ 76.1102, 30.5874 ], [ 76.1255, 30.597 ], [ 76.1165, 30.6149 ], [ 76.1279, 30.6228 ], [ 76.1278, 30.6295 ], [ 76.1528, 30.6398 ], [ 76.152, 30.6551 ], [ 76.1692, 30.6618 ], [ 76.1737, 30.6792 ], [ 76.1807, 30.6794 ], [ 76.188, 30.6677 ], [ 76.2181, 30.679 ], [ 76.2301, 30.69 ], [ 76.2431, 30.6795 ], [ 76.2662, 30.6754 ], [ 76.2813, 30.6815 ], [ 76.3033, 30.6784 ], [ 76.3198, 30.6879 ], [ 76.3195, 30.7034 ], [ 76.3059, 30.7042 ], [ 76.2978, 30.7171 ], [ 76.2911, 30.7139 ], [ 76.2757, 30.7341 ], [ 76.284, 30.7379 ], [ 76.2809, 30.7463 ], [ 76.3109, 30.7562 ], [ 76.3049, 30.768 ], [ 76.2897, 30.7824 ], [ 76.2724, 30.7757 ], [ 76.2619, 30.7867 ], [ 76.2691, 30.7992 ], [ 76.2891, 30.8081 ], [ 76.2802, 30.8202 ], [ 76.2813, 30.8303 ], [ 76.3111, 30.8423 ], [ 76.2983, 30.8699 ], [ 76.3279, 30.8788 ], [ 76.334, 30.8696 ], [ 76.3375, 30.875 ], [ 76.3486, 30.8738 ], [ 76.3486, 30.8655 ], [ 76.368, 30.8722 ], [ 76.3821, 30.8603 ], [ 76.3849, 30.849 ], [ 76.4069, 30.847 ], [ 76.4112, 30.8399 ], [ 76.4025, 30.8306 ], [ 76.4085, 30.8196 ], [ 76.4326, 30.8192 ], [ 76.4341, 30.7992 ], [ 76.4429, 30.797 ], [ 76.4442, 30.7595 ], [ 76.4595, 30.75 ], [ 76.4637, 30.7547 ], [ 76.4697, 30.7455 ], [ 76.4833, 30.7507 ], [ 76.4969, 30.7466 ], [ 76.5216, 30.7577 ], [ 76.5318, 30.7409 ], [ 76.5215, 30.733 ], [ 76.5314, 30.7245 ], [ 76.5346, 30.7099 ], [ 76.5513, 30.7087 ], [ 76.5541, 30.6904 ], [ 76.5661, 30.6863 ], [ 76.5761, 30.6653 ], [ 76.5875, 30.6672 ], [ 76.5985, 30.6521 ], [ 76.6034, 30.6551 ], [ 76.6199, 30.6419 ], [ 76.6259, 30.6449 ], [ 76.6339, 30.6191 ], [ 76.6133, 30.6086 ], [ 76.604, 30.5919 ], [ 76.5957, 30.5944 ], [ 76.5727, 30.5654 ], [ 76.5631, 30.5679 ], [ 76.5383, 30.5576 ], [ 76.5184, 30.5689 ], [ 76.5042, 30.564 ], [ 76.5068, 30.5546 ], [ 76.4992, 30.5454 ], [ 76.5026, 30.5273 ], [ 76.491, 30.5193 ], [ 76.4966, 30.5079 ], [ 76.4912, 30.4999 ], [ 76.5028, 30.4696 ], [ 76.4989, 30.4633 ], [ 76.4874, 30.4647 ], [ 76.4704, 30.4741 ], [ 76.4649, 30.4668 ], [ 76.4714, 30.4572 ], [ 76.4598, 30.4597 ], [ 76.4496, 30.4489 ], [ 76.4176, 30.4645 ], [ 76.4074, 30.4483 ], [ 76.3971, 30.452 ], [ 76.3824, 30.4717 ], [ 76.373, 30.4729 ], [ 76.3521, 30.4606 ], [ 76.3454, 30.4799 ], [ 76.3337, 30.488 ], [ 76.3351, 30.4947 ], [ 76.3297, 30.4937 ], [ 76.3329, 30.5034 ], [ 76.3232, 30.5287 ], [ 76.3283, 30.5402 ], [ 76.3132, 30.5471 ], [ 76.2836, 30.5449 ] ] ] } },
{ "type": "Feature", "properties": { "district": "Fazilka", "did": "punjab:Fazilka", "state_key": "punjab" }, "geometry": { "type": "Polygon", "coordinates": [ [ [ 74.2862, 30.2333 ], [ 74.3235, 30.2449 ], [ 74.358, 30.2407 ], [ 74.3357, 30.1638 ], [ 74.3747, 30.1535 ], [ 74.3813, 30.1308 ], [ 74.4129, 30.0975 ], [ 74.3819, 30.1117 ], [ 74.3718, 30.1078 ], [ 74.3656, 30.0874 ], [ 74.3889, 30.0746 ], [ 74.3927, 30.0566 ], [ 74.4141, 30.0358 ], [ 74.4081, 30.0282 ], [ 74.4514, 30.0298 ], [ 74.4611, 30.0142 ], [ 74.4596, 30.0064 ], [ 74.422, 29.9979 ], [ 74.4321, 29.9675 ], [ 74.4482, 29.9472 ], [ 73.8951, 29.9741 ], [ 73.8865, 30.0125 ], [ 73.9041, 30.0501 ], [ 73.9299, 30.0687 ], [ 73.9522, 30.1043 ], [ 73.9756, 30.121 ], [ 73.9681, 30.1448 ], [ 73.9743, 30.1891 ], [ 73.9598, 30.2702 ], [ 73.9309, 30.3201 ], [ 73.9027, 30.3491 ], [ 73.8798, 30.3597 ], [ 73.9141, 30.3827 ], [ 73.9222, 30.3981 ], [ 73.9367, 30.4022 ], [ 73.9487, 30.4167 ], [ 73.9647, 30.4246 ], [ 73.9738, 30.4438 ], [ 73.9488, 30.4369 ], [ 73.9263, 30.4389 ], [ 73.9373, 30.4451 ], [ 73.9277, 30.4659 ], [ 73.9345, 30.4903 ], [ 73.9477, 30.4839 ], [ 73.9501, 30.4601 ], [ 73.9641, 30.4565 ], [ 73.9697, 30.4753 ], [ 73.9637, 30.4849 ], [ 73.982, 30.504 ], [ 73.9927, 30.5143 ], [ 74.02, 30.5142 ], [ 74.0111, 30.5211 ], [ 74.012, 30.5336 ], [ 74.031, 30.5269 ], [ 74.0392, 30.5426 ], [ 74.05, 30.5372 ], [ 74.0573, 30.5187 ], [ 74.0723, 30.5229 ], [ 74.0909, 30.5494 ], [ 74.08, 30.5485 ], [ 74.0734, 30.5547 ], [ 74.1021, 30.5792 ], [ 74.0953, 30.6012 ], [ 74.1023, 30.6096 ], [ 74.096, 30.6116 ], [ 74.1051, 30.6193 ], [ 74.1181, 30.6079 ], [ 74.1274, 30.6348 ], [ 74.1377, 30.6275 ], [ 74.1491, 30.6317 ], [ 74.1634, 30.6484 ], [ 74.1968, 30.6682 ], [ 74.2132, 30.6887 ], [ 74.2492, 30.6677 ], [ 74.2581, 30.6783 ], [ 74.2699, 30.6672 ], [ 74.2842, 30.6745 ], [ 74.2927, 30.6639 ], [ 74.2964, 30.6705 ], [ 74.2877, 30.6773 ], [ 74.29, 30.6906 ], [ 74.3041, 30.6921 ], [ 74.3051, 30.6793 ], [ 74.3309, 30.6745 ], [ 74.3292, 30.6699 ], [ 74.3396, 30.6717 ], [ 74.348, 30.6645 ], [ 74.3524, 30.6677 ], [ 74.352, 30.6511 ], [ 74.3458, 30.6465 ], [ 74.3567, 30.6398 ], [ 74.3572, 30.6331 ], [ 74.3414, 30.6035 ], [ 74.3688, 30.5884 ], [ 74.3798, 30.5575 ], [ 74.375, 30.5487 ], [ 74.4011, 30.5353 ], [ 74.3988, 30.5268 ], [ 74.373, 30.5125 ], [ 74.3837, 30.5 ], [ 74.3764, 30.4855 ], [ 74.3626, 30.4803 ], [ 74.3462, 30.4844 ], [ 74.3438, 30.4635 ], [ 74.3276, 30.4453 ], [ 74.3065, 30.4462 ], [ 74.2712, 30.4278 ], [ 74.2443, 30.4277 ], [ 74.3509, 30.4054 ], [ 74.3584, 30.3959 ], [ 74.3534, 30.3821 ], [ 74.3145, 30.3867 ], [ 74.3077, 30.3701 ], [ 74.3254, 30.3293 ], [ 74.3031, 30.3083 ], [ 74.2976, 30.2652 ], [ 74.283, 30.2748 ], [ 74.2637, 30.2465 ], [ 74.2862, 30.2333 ] ] ] } },
{ "type": "Feature", "properties": { "district": "Firozpur", "did": "punjab:Firozpur", "state_key": "punjab" }, "geometry": { "type": "Polygon", "coordinates": [ [ [ 74.4688, 30.7451 ], [ 74.48, 30.6733 ], [ 74.5046, 30.6687 ], [ 74.4971, 30.663 ], [ 74.4834, 30.6639 ], [ 74.4759, 30.6477 ], [ 74.494, 30.6372 ], [ 74.458, 30.6204 ], [ 74.4642, 30.6155 ], [ 74.4618, 30.6083 ], [ 74.4419, 30.6261 ], [ 74.4138, 30.6122 ], [ 74.4195, 30.597 ], [ 74.4014, 30.5977 ], [ 74.3696, 30.588 ], [ 74.3418, 30.6027 ], [ 74.3572, 30.6331 ], [ 74.3567, 30.6398 ], [ 74.3458, 30.6465 ], [ 74.3549, 30.6633 ], [ 74.3051, 30.6793 ], [ 74.3041, 30.6921 ], [ 74.29, 30.6906 ], [ 74.2877, 30.6773 ], [ 74.2964, 30.6705 ], [ 74.2927, 30.6639 ], [ 74.2842, 30.6745 ], [ 74.2699, 30.6672 ], [ 74.2581, 30.6783 ], [ 74.2492, 30.6677 ], [ 74.2132, 30.6887 ], [ 74.2327, 30.7246 ], [ 74.2609, 30.7231 ], [ 74.2684, 30.7344 ], [ 74.2748, 30.7371 ], [ 74.2815, 30.7309 ], [ 74.2865, 30.7357 ], [ 74.2745, 30.7443 ], [ 74.26, 30.7726 ], [ 74.2648, 30.7771 ], [ 74.2744, 30.7735 ], [ 74.302, 30.7794 ], [ 74.3068, 30.7892 ], [ 74.2949, 30.7945 ], [ 74.3198, 30.8274 ], [ 74.3204, 30.8466 ], [ 74.3481, 30.8549 ], [ 74.3634, 30.8473 ], [ 74.3685, 30.8518 ], [ 74.3645, 30.8574 ], [ 74.3821, 30.8604 ], [ 74.3608, 30.8737 ], [ 74.3659, 30.8929 ], [ 74.3829, 30.8955 ], [ 74.3973, 30.9094 ], [ 74.4227, 30.9078 ], [ 74.4244, 30.916 ], [ 74.4103, 30.9235 ], [ 74.4235, 30.9207 ], [ 74.4287, 30.9312 ], [ 74.4139, 30.9296 ], [ 74.4164, 30.9403 ], [ 74.4395, 30.9422 ], [ 74.4421, 30.9517 ], [ 74.4664, 30.9569 ], [ 74.4573, 30.9646 ], [ 74.4797, 30.9743 ], [ 74.4919, 30.9744 ], [ 74.4979, 30.9643 ], [ 74.5035, 30.9648 ], [ 74.5162, 30.9795 ], [ 74.5462, 30.9924 ], [ 74.5425, 31.0174 ], [ 74.548, 31.0325 ], [ 74.5587, 31.0374 ], [ 74.5682, 31.0547 ], [ 74.5901, 31.05 ], [ 74.5968, 31.0377 ], [ 74.6696, 31.0531 ], [ 74.6959, 31.0742 ], [ 74.7079, 31.072 ], [ 74.7207, 31.1016 ], [ 74.7415, 31.1039 ], [ 74.7417, 31.1186 ], [ 74.7554, 31.1162 ], [ 74.7657, 31.1255 ], [ 74.7892, 31.13 ], [ 74.8006, 31.115 ], [ 74.7995, 31.128 ], [ 74.8066, 31.1398 ], [ 74.8096, 31.1346 ], [ 74.8441, 31.1325 ], [ 74.8855, 31.1555 ], [ 74.9019, 31.1493 ], [ 74.9193, 31.1622 ], [ 74.9473, 31.1526 ], [ 74.9645, 31.1535 ], [ 74.9599, 31.1473 ], [ 75.0059, 31.1197 ], [ 75.0134, 31.1302 ], [ 75.0066, 31.1451 ], [ 75.0139, 31.1451 ], [ 75.024, 31.1564 ], [ 75.0609, 31.1458 ], [ 75.0794, 31.1529 ], [ 75.0835, 31.1468 ], [ 75.0771, 31.1342 ], [ 75.1248, 31.1217 ], [ 75.1385, 31.1086 ], [ 75.1357, 31.1048 ], [ 75.1501, 31.0978 ], [ 75.1339, 31.0737 ], [ 75.1201, 31.0817 ], [ 75.1093, 31.0752 ], [ 75.0993, 31.0774 ], [ 75.1083, 31.0682 ], [ 75.104, 31.0663 ], [ 75.0946, 31.0713 ], [ 75.0836, 31.0687 ], [ 75.0845, 31.0622 ], [ 75.0965, 31.0587 ], [ 75.0943, 31.0471 ], [ 75.0729, 31.0469 ], [ 75.062, 31.0676 ], [ 75.0517, 31.0625 ], [ 75.0473, 31.0519 ], [ 75.053, 31.0428 ], [ 75.0678, 31.0407 ], [ 75.0677, 31.0342 ], [ 75.0955, 31.0255 ], [ 75.1033, 31.0153 ], [ 75.0961, 30.9917 ], [ 75.103, 30.9721 ], [ 75.0938, 30.9754 ], [ 75.0865, 30.9586 ], [ 75.0776, 30.9576 ], [ 75.0785, 30.9464 ], [ 75.0699, 30.9451 ], [ 75.051, 30.9236 ], [ 75.0408, 30.9222 ], [ 75.0304, 30.8968 ], [ 75.0161, 30.8923 ], [ 75.0004, 30.8958 ], [ 74.9964, 30.8886 ], [ 74.9522, 30.8916 ], [ 74.9426, 30.8777 ], [ 74.9479, 30.8572 ], [ 74.941, 30.839 ], [ 74.9472, 30.8284 ], [ 74.9281, 30.8045 ], [ 74.931, 30.789 ], [ 74.9149, 30.7823 ], [ 74.9071, 30.758 ], [ 74.9123, 30.7478 ], [ 74.9088, 30.7366 ], [ 74.8752, 30.7466 ], [ 74.8582, 30.7437 ], [ 74.8547, 30.7572 ], [ 74.8446, 30.7588 ], [ 74.8356, 30.7704 ], [ 74.8131, 30.7684 ], [ 74.8072, 30.7892 ], [ 74.7844, 30.7941 ], [ 74.7784, 30.8104 ], [ 74.7714, 30.8154 ], [ 74.7546, 30.8125 ], [ 74.7405, 30.8263 ], [ 74.7274, 30.823 ], [ 74.6925, 30.831 ], [ 74.6814, 30.8248 ], [ 74.6632, 30.8342 ], [ 74.6485, 30.8183 ], [ 74.624, 30.8364 ], [ 74.5965, 30.8092 ], [ 74.5773, 30.8082 ], [ 74.5424, 30.7925 ], [ 74.5219, 30.7713 ], [ 74.4786, 30.7554 ], [ 74.4688, 30.7451 ] ] ] } },
{ "type": "Feature", "properties": { "district": "Gurdaspur", "did": "punjab:Gurdaspur", "state_key": "punjab" }, "geometry": { "type": "Polygon", "coordinates": [ [ [ 75.5408, 31.765 ], [ 75.5374, 31.7506 ], [ 75.5427, 31.7505 ], [ 75.5134, 31.7128 ], [ 75.4942, 31.698 ], [ 75.4683, 31.6366 ], [ 75.4257, 31.6277 ], [ 75.4125, 31.5982 ], [ 75.4043, 31.5935 ], [ 75.3727, 31.6246 ], [ 75.3414, 31.6356 ], [ 75.3387, 31.6412 ], [ 75.3272, 31.6354 ], [ 75.302, 31.6526 ], [ 75.3133, 31.6673 ], [ 75.2975, 31.6811 ], [ 75.2843, 31.6818 ], [ 75.285, 31.6984 ], [ 75.2412, 31.6897 ], [ 75.2403, 31.6832 ], [ 75.2276, 31.6841 ], [ 75.2273, 31.6917 ], [ 75.2129, 31.6958 ], [ 75.2133, 31.7054 ], [ 75.1939, 31.711 ], [ 75.1937, 31.7177 ], [ 75.2038, 31.7224 ], [ 75.2031, 31.7306 ], [ 75.1878, 31.734 ], [ 75.1895, 31.7414 ], [ 75.1843, 31.7391 ], [ 75.1739, 31.749 ], [ 75.1546, 31.7473 ], [ 75.144, 31.7589 ], [ 75.1374, 31.7518 ], [ 75.1046, 31.755 ], [ 75.0997, 31.7641 ], [ 75.1068, 31.7654 ], [ 75.1119, 31.7812 ], [ 75.0825, 31.7921 ], [ 75.0706, 31.8075 ], [ 75.0399, 31.8025 ], [ 75.0219, 31.8177 ], [ 75.0281, 31.8228 ], [ 75.0129, 31.8204 ], [ 75.0005, 31.8326 ], [ 74.9836, 31.8363 ], [ 74.9692, 31.8313 ], [ 74.962, 31.854 ], [ 74.9419, 31.8606 ], [ 74.9443, 31.8705 ], [ 74.9383, 31.8669 ], [ 74.9166, 31.8792 ], [ 74.9194, 31.8926 ], [ 74.9066, 31.8946 ], [ 74.8894, 31.9315 ], [ 74.9017, 31.9314 ], [ 74.9157, 31.9422 ], [ 74.9387, 31.9413 ], [ 74.9428, 31.9495 ], [ 74.9718, 31.9602 ], [ 74.974, 31.9732 ], [ 74.9486, 31.9704 ], [ 74.9391, 31.9625 ], [ 74.9172, 31.9752 ], [ 74.9191, 31.9989 ], [ 74.9356, 32.0115 ], [ 74.9226, 32.0392 ], [ 74.9084, 32.0515 ], [ 74.9244, 32.0661 ], [ 74.9344, 32.0656 ], [ 74.9739, 32.0535 ], [ 74.9781, 32.048 ], [ 74.9716, 32.0426 ], [ 75.0028, 32.0436 ], [ 75.0124, 32.0357 ], [ 75.0216, 32.0486 ], [ 75.0339, 32.0507 ], [ 75.0407, 32.0427 ], [ 75.062, 32.0553 ], [ 75.0687, 32.0672 ], [ 75.073, 32.0597 ], [ 75.084, 32.06 ], [ 75.0912, 32.0718 ], [ 75.1049, 32.0586 ], [ 75.1067, 32.0696 ], [ 75.1229, 32.0814 ], [ 75.1577, 32.0818 ], [ 75.1742, 32.0675 ], [ 75.1793, 32.0762 ], [ 75.1985, 32.0827 ], [ 75.1979, 32.0986 ], [ 75.2041, 32.0967 ], [ 75.2057, 32.1025 ], [ 75.2025, 32.1202 ], [ 75.2158, 32.1211 ], [ 75.2177, 32.1034 ], [ 75.2237, 32.0982 ], [ 75.227, 32.1068 ], [ 75.2347, 32.1039 ], [ 75.2292, 32.0933 ], [ 75.2403, 32.0911 ], [ 75.2457, 32.1001 ], [ 75.2622, 32.1021 ], [ 75.2627, 32.1119 ], [ 75.2794, 32.1178 ], [ 75.2834, 32.1319 ], [ 75.2773, 32.137 ], [ 75.2854, 32.1515 ], [ 75.2994, 32.1533 ], [ 75.3068, 32.169 ], [ 75.3224, 32.1795 ], [ 75.3101, 32.1961 ], [ 75.327, 32.2139 ], [ 75.3774, 32.1908 ], [ 75.3785, 32.1834 ], [ 75.4001, 32.1901 ], [ 75.403, 32.178 ], [ 75.4131, 32.177 ], [ 75.4202, 32.1638 ], [ 75.4297, 32.1689 ], [ 75.4423, 32.1668 ], [ 75.4344, 32.1644 ], [ 75.4344, 32.149 ], [ 75.481, 32.1598 ], [ 75.4822, 32.1534 ], [ 75.497, 32.1531 ], [ 75.5059, 32.1452 ], [ 75.5113, 32.1491 ], [ 75.5434, 32.1456 ], [ 75.5526, 32.1331 ], [ 75.5873, 32.141 ], [ 75.5888, 32.119 ], [ 75.5826, 32.1071 ], [ 75.5943, 32.1115 ], [ 75.6008, 32.0931 ], [ 75.5737, 32.0677 ], [ 75.5628, 32.0377 ], [ 75.5349, 32.0305 ], [ 75.5572, 31.9995 ], [ 75.5435, 31.9826 ], [ 75.531, 31.9414 ], [ 75.537, 31.9419 ], [ 75.5594, 31.8878 ], [ 75.5651, 31.8882 ], [ 75.5695, 31.8548 ], [ 75.5478, 31.8487 ], [ 75.5511, 31.826 ], [ 75.5624, 31.8275 ], [ 75.5686, 31.8142 ], [ 75.5672, 31.8003 ], [ 75.5592, 31.7994 ], [ 75.5639, 31.7948 ], [ 75.5591, 31.7822 ], [ 75.5524, 31.7766 ], [ 75.5319, 31.7803 ], [ 75.5408, 31.765 ] ] ] } },
{ "type": "Feature", "properties": { "district": "Hoshiarpur", "did": "punjab:Hoshiarpur", "state_key": "punjab" }, "geometry": { "type": "Polygon", "coordinates": [ [ [ 76.1207, 31.4977 ], [ 76.117, 31.483 ], [ 76.1307, 31.471 ], [ 76.1331, 31.4519 ], [ 76.1453, 31.4341 ], [ 76.1567, 31.4308 ], [ 76.1601, 31.4154 ], [ 76.1683, 31.4104 ], [ 76.1686, 31.3962 ], [ 76.1473, 31.3803 ], [ 76.1469, 31.359 ], [ 76.159, 31.3437 ], [ 76.1788, 31.3405 ], [ 76.1798, 31.3065 ], [ 76.191, 31.3 ], [ 76.214, 31.2994 ], [ 76.2391, 31.3088 ], [ 76.2693, 31.3119 ], [ 76.2756, 31.3004 ], [ 76.2869, 31.3073 ], [ 76.2881, 31.2953 ], [ 76.3097, 31.291 ], [ 76.3079, 31.2777 ], [ 76.3283, 31.2665 ], [ 76.3398, 31.2455 ], [ 76.3494, 31.2414 ], [ 76.3182, 31.2142 ], [ 76.2948, 31.2204 ], [ 76.2772, 31.2352 ], [ 76.2391, 31.2444 ], [ 76.2406, 31.2254 ], [ 76.2265, 31.1986 ], [ 76.2367, 31.2068 ], [ 76.246, 31.1964 ], [ 76.2344, 31.1858 ], [ 76.2121, 31.1854 ], [ 76.2089, 31.1913 ], [ 76.1951, 31.1842 ], [ 76.2056, 31.1671 ], [ 76.2076, 31.159 ], [ 76.2009, 31.1561 ], [ 76.2098, 31.1377 ], [ 76.1921, 31.1332 ], [ 76.156, 31.1408 ], [ 76.1558, 31.1526 ], [ 76.1373, 31.1468 ], [ 76.1298, 31.1693 ], [ 76.1171, 31.1667 ], [ 76.0938, 31.1862 ], [ 76.0854, 31.2033 ], [ 76.0866, 31.2243 ], [ 76.0657, 31.2259 ], [ 76.0654, 31.2188 ], [ 76.0495, 31.2133 ], [ 76.0449, 31.2186 ], [ 76.0547, 31.2263 ], [ 76.0279, 31.2426 ], [ 76.0253, 31.2591 ], [ 76.0031, 31.2442 ], [ 75.9912, 31.261 ], [ 75.9705, 31.2523 ], [ 75.9664, 31.2577 ], [ 75.9539, 31.2533 ], [ 75.9545, 31.2613 ], [ 75.9421, 31.2738 ], [ 75.9338, 31.2742 ], [ 75.9306, 31.2684 ], [ 75.9156, 31.2845 ], [ 75.9105, 31.2787 ], [ 75.8896, 31.2754 ], [ 75.8817, 31.2907 ], [ 75.8645, 31.2819 ], [ 75.8641, 31.2904 ], [ 75.8556, 31.289 ], [ 75.8529, 31.2961 ], [ 75.8671, 31.3108 ], [ 75.871, 31.3248 ], [ 75.8772, 31.3274 ], [ 75.8803, 31.3224 ], [ 75.885, 31.3341 ], [ 75.9047, 31.3367 ], [ 75.9059, 31.345 ], [ 75.8911, 31.3406 ], [ 75.8787, 31.3549 ], [ 75.8569, 31.3499 ], [ 75.8497, 31.3728 ], [ 75.8297, 31.3698 ], [ 75.8336, 31.3623 ], [ 75.8218, 31.357 ], [ 75.8016, 31.374 ], [ 75.786, 31.3687 ], [ 75.7811, 31.3822 ], [ 75.8036, 31.3887 ], [ 75.8056, 31.3989 ], [ 75.8205, 31.4046 ], [ 75.8123, 31.4207 ], [ 75.8156, 31.431 ], [ 75.8057, 31.4352 ], [ 75.7995, 31.4538 ], [ 75.7868, 31.4519 ], [ 75.7786, 31.4716 ], [ 75.7594, 31.4757 ], [ 75.7361, 31.4949 ], [ 75.7332, 31.5171 ], [ 75.7171, 31.5199 ], [ 75.7126, 31.5293 ], [ 75.7026, 31.5291 ], [ 75.7036, 31.5558 ], [ 75.6953, 31.5542 ], [ 75.6816, 31.5743 ], [ 75.6815, 31.5921 ], [ 75.6718, 31.5964 ], [ 75.6688, 31.6082 ], [ 75.6502, 31.6072 ], [ 75.6391, 31.6181 ], [ 75.6391, 31.6103 ], [ 75.6323, 31.6122 ], [ 75.6247, 31.6037 ], [ 75.6039, 31.6113 ], [ 75.5938, 31.6031 ], [ 75.5761, 31.6066 ], [ 75.5735, 31.6175 ], [ 75.5672, 31.6108 ], [ 75.5723, 31.6354 ], [ 75.557, 31.64 ], [ 75.5509, 31.6339 ], [ 75.5429, 31.6476 ], [ 75.5327, 31.6487 ], [ 75.5316, 31.6336 ], [ 75.5248, 31.6328 ], [ 75.52, 31.6404 ], [ 75.498, 31.6422 ], [ 75.4714, 31.6539 ], [ 75.4907, 31.6804 ], [ 75.4947, 31.6987 ], [ 75.5134, 31.7128 ], [ 75.5427, 31.7505 ], [ 75.5374, 31.7506 ], [ 75.5408, 31.765 ], [ 75.5295, 31.7823 ], [ 75.5524, 31.7766 ], [ 75.5639, 31.7948 ], [ 75.5592, 31.7994 ], [ 75.5686, 31.8048 ], [ 75.5624, 31.8275 ], [ 75.5511, 31.826 ], [ 75.5478, 31.8487 ], [ 75.5695, 31.8548 ], [ 75.5691, 31.8747 ], [ 75.54, 31.9259 ], [ 75.537, 31.9419 ], [ 75.531, 31.9414 ], [ 75.5435, 31.9826 ], [ 75.5572, 31.9995 ], [ 75.5349, 32.0305 ], [ 75.5628, 32.0377 ], [ 75.583, 32.0778 ], [ 75.5958, 32.0857 ], [ 75.5948, 32.0695 ], [ 75.6016, 32.0655 ], [ 75.6307, 32.0742 ], [ 75.6629, 32.0757 ], [ 75.6777, 32.0633 ], [ 75.7033, 32.0551 ], [ 75.7239, 32.0326 ], [ 75.7508, 32.0377 ], [ 75.7798, 32.0047 ], [ 75.7997, 31.9938 ], [ 75.8217, 31.9839 ], [ 75.8511, 31.982 ], [ 75.857, 31.9738 ], [ 75.883, 31.9689 ], [ 75.9104, 31.9501 ], [ 75.9712, 31.8285 ], [ 75.987, 31.8131 ], [ 75.9786, 31.813 ], [ 75.969, 31.8239 ], [ 75.9475, 31.813 ], [ 75.9371, 31.8144 ], [ 75.9531, 31.7833 ], [ 75.9602, 31.7811 ], [ 75.9726, 31.7386 ], [ 76.0057, 31.676 ], [ 76.0097, 31.6534 ], [ 76.0196, 31.6489 ], [ 76.0193, 31.6305 ], [ 76.0464, 31.6035 ], [ 76.0559, 31.6055 ], [ 76.0563, 31.5853 ], [ 76.0986, 31.5373 ], [ 76.1065, 31.5099 ], [ 76.1207, 31.4977 ] ] ] } },
{ "type": "Feature", "properties": { "district": "Jalandhar", "did": "punjab:Jalandhar", "state_key": "punjab" }, "geometry": { "type": "Polygon", "coordinates": [ [ [ 75.6868, 31.1961 ], [ 75.6986, 31.1885 ], [ 75.6968, 31.1785 ], [ 75.7079, 31.1652 ], [ 75.7697, 31.16 ], [ 75.7782, 31.1659 ], [ 75.7758, 31.1891 ], [ 75.7868, 31.1984 ], [ 75.8515, 31.1829 ], [ 75.8545, 31.1746 ], [ 75.8627, 31.1739 ], [ 75.8727, 31.1626 ], [ 75.8858, 31.1661 ], [ 75.8839, 31.1484 ], [ 75.8881, 31.1457 ], [ 75.8908, 31.1538 ], [ 75.8981, 31.1553 ], [ 75.9033, 31.1254 ], [ 75.9161, 31.1073 ], [ 75.9127, 31.0993 ], [ 75.9267, 31.0942 ], [ 75.9306, 31.065 ], [ 75.9451, 31.0587 ], [ 75.9472, 31.0302 ], [ 75.9581, 31.0181 ], [ 75.9526, 31.0103 ], [ 75.9212, 31.0116 ], [ 75.9124, 31.0175 ], [ 75.9057, 31.0168 ], [ 75.8985, 31.0048 ], [ 75.8672, 31.0081 ], [ 75.8562, 31.0009 ], [ 75.7926, 30.994 ], [ 75.7713, 31.003 ], [ 75.764, 31.0131 ], [ 75.7444, 31.0124 ], [ 75.7347, 31.0106 ], [ 75.7352, 31.0052 ], [ 75.7153, 31.0044 ], [ 75.7165, 31.0004 ], [ 75.6426, 30.9771 ], [ 75.5943, 30.9686 ], [ 75.5757, 30.9775 ], [ 75.543, 30.9759 ], [ 75.5431, 30.9682 ], [ 75.5371, 30.9661 ], [ 75.5166, 30.9761 ], [ 75.4822, 30.9698 ], [ 75.4741, 30.982 ], [ 75.4624, 30.9763 ], [ 75.4557, 30.9836 ], [ 75.4318, 30.9818 ], [ 75.4204, 30.987 ], [ 75.4089, 30.98 ], [ 75.3976, 30.9967 ], [ 75.3837, 30.9898 ], [ 75.3716, 30.9982 ], [ 75.3674, 30.9913 ], [ 75.3568, 30.9938 ], [ 75.3565, 31.0011 ], [ 75.3418, 30.9885 ], [ 75.3278, 31.0098 ], [ 75.295, 31.0149 ], [ 75.2911, 31.0356 ], [ 75.2816, 31.042 ], [ 75.2713, 31.0366 ], [ 75.268, 31.0435 ], [ 75.257, 31.0433 ], [ 75.2626, 31.0384 ], [ 75.2585, 31.0306 ], [ 75.2294, 31.037 ], [ 75.2249, 31.0295 ], [ 75.2052, 31.0277 ], [ 75.2039, 31.0201 ], [ 75.2014, 31.0261 ], [ 75.21, 31.0403 ], [ 75.2069, 31.054 ], [ 75.1772, 31.053 ], [ 75.1741, 31.06 ], [ 75.1834, 31.0777 ], [ 75.1632, 31.0826 ], [ 75.1626, 31.0895 ], [ 75.1481, 31.084 ], [ 75.1501, 31.0978 ], [ 75.1357, 31.1048 ], [ 75.1385, 31.1086 ], [ 75.1259, 31.1212 ], [ 75.0761, 31.1354 ], [ 75.0819, 31.151 ], [ 75.1056, 31.1507 ], [ 75.1256, 31.1694 ], [ 75.1845, 31.1651 ], [ 75.1895, 31.1771 ], [ 75.2053, 31.185 ], [ 75.2225, 31.1767 ], [ 75.2304, 31.1525 ], [ 75.2545, 31.1539 ], [ 75.2699, 31.1481 ], [ 75.2769, 31.1873 ], [ 75.2849, 31.1853 ], [ 75.295, 31.1915 ], [ 75.3013, 31.2064 ], [ 75.3206, 31.2071 ], [ 75.3447, 31.2319 ], [ 75.3639, 31.2259 ], [ 75.3619, 31.2358 ], [ 75.3679, 31.2397 ], [ 75.3766, 31.2307 ], [ 75.3895, 31.2444 ], [ 75.4179, 31.2497 ], [ 75.4231, 31.2294 ], [ 75.4336, 31.2292 ], [ 75.4399, 31.241 ], [ 75.4609, 31.2355 ], [ 75.4722, 31.2537 ], [ 75.463, 31.2799 ], [ 75.4376, 31.2894 ], [ 75.4429, 31.3063 ], [ 75.4342, 31.3178 ], [ 75.4482, 31.3247 ], [ 75.4686, 31.3248 ], [ 75.4822, 31.3644 ], [ 75.4775, 31.3677 ], [ 75.4611, 31.3609 ], [ 75.4558, 31.372 ], [ 75.4798, 31.3722 ], [ 75.491, 31.3847 ], [ 75.4721, 31.3957 ], [ 75.4605, 31.3813 ], [ 75.4366, 31.385 ], [ 75.4334, 31.3935 ], [ 75.4421, 31.4052 ], [ 75.4316, 31.414 ], [ 75.4369, 31.4257 ], [ 75.4424, 31.4325 ], [ 75.453, 31.4294 ], [ 75.4452, 31.4387 ], [ 75.4503, 31.444 ], [ 75.4579, 31.4374 ], [ 75.4665, 31.4467 ], [ 75.4561, 31.4579 ], [ 75.4523, 31.4697 ], [ 75.4582, 31.4703 ], [ 75.4577, 31.4729 ], [ 75.4447, 31.4731 ], [ 75.4414, 31.4947 ], [ 75.4742, 31.4963 ], [ 75.4801, 31.4845 ], [ 75.489, 31.4844 ], [ 75.4903, 31.4707 ], [ 75.513, 31.4593 ], [ 75.517, 31.4655 ], [ 75.5085, 31.48 ], [ 75.5187, 31.4899 ], [ 75.5196, 31.4998 ], [ 75.5123, 31.5174 ], [ 75.5264, 31.5213 ], [ 75.5309, 31.5124 ], [ 75.5392, 31.5161 ], [ 75.5406, 31.5283 ], [ 75.5224, 31.539 ], [ 75.5247, 31.5437 ], [ 75.5405, 31.5453 ], [ 75.5534, 31.5343 ], [ 75.569, 31.5363 ], [ 75.5771, 31.5422 ], [ 75.5727, 31.5476 ], [ 75.5793, 31.5626 ], [ 75.5959, 31.5551 ], [ 75.6023, 31.5633 ], [ 75.5918, 31.5752 ], [ 75.595, 31.586 ], [ 75.603, 31.5837 ], [ 75.5938, 31.6031 ], [ 75.5978, 31.6097 ], [ 75.6247, 31.6037 ], [ 75.6323, 31.6122 ], [ 75.6391, 31.6103 ], [ 75.6391, 31.6181 ], [ 75.6502, 31.6072 ], [ 75.6714, 31.606 ], [ 75.6718, 31.5964 ], [ 75.6815, 31.5921 ], [ 75.6816, 31.5743 ], [ 75.6953, 31.5542 ], [ 75.7036, 31.5558 ], [ 75.7026, 31.5291 ], [ 75.7126, 31.5293 ], [ 75.7171, 31.5199 ], [ 75.7332, 31.5171 ], [ 75.7361, 31.4949 ], [ 75.7594, 31.4757 ], [ 75.7786, 31.4716 ], [ 75.7898, 31.4487 ], [ 75.7995, 31.4538 ], [ 75.8057, 31.4352 ], [ 75.8156, 31.431 ], [ 75.8123, 31.4207 ], [ 75.8205, 31.4046 ], [ 75.8056, 31.3989 ], [ 75.8036, 31.3887 ], [ 75.7811, 31.3822 ], [ 75.7886, 31.3626 ], [ 75.7645, 31.3516 ], [ 75.7651, 31.3363 ], [ 75.7558, 31.3285 ], [ 75.749, 31.3303 ], [ 75.7395, 31.3214 ], [ 75.7282, 31.3421 ], [ 75.7093, 31.3476 ], [ 75.7002, 31.3441 ], [ 75.7222, 31.3165 ], [ 75.683, 31.3151 ], [ 75.6858, 31.3032 ], [ 75.6969, 31.2981 ], [ 75.7039, 31.2857 ], [ 75.6772, 31.2915 ], [ 75.673, 31.269 ], [ 75.6818, 31.2639 ], [ 75.6827, 31.2535 ], [ 75.6707, 31.25 ], [ 75.6792, 31.2467 ], [ 75.6722, 31.2458 ], [ 75.6704, 31.2377 ], [ 75.6836, 31.2304 ], [ 75.6975, 31.2463 ], [ 75.7093, 31.2348 ], [ 75.7125, 31.2205 ], [ 75.6931, 31.2103 ], [ 75.6868, 31.1961 ] ] ] } },
{ "type": "Feature", "properties": { "district": "Kapurthala", "did": "punjab:Kapurthala", "state_key": "punjab" }, "geometry": { "type": "MultiPolygon", "coordinates": [ [ [ [ 75.3206, 31.2071 ], [ 75.3013, 31.2064 ], [ 75.295, 31.1915 ], [ 75.2849, 31.1853 ], [ 75.2769, 31.1873 ], [ 75.2699, 31.1481 ], [ 75.2545, 31.1539 ], [ 75.2304, 31.1525 ], [ 75.2225, 31.1767 ], [ 75.2053, 31.185 ], [ 75.1895, 31.1771 ], [ 75.1845, 31.1651 ], [ 75.1308, 31.1711 ], [ 75.1032, 31.1501 ], [ 75.0794, 31.1529 ], [ 75.0609, 31.1458 ], [ 75.024, 31.1564 ], [ 75.0139, 31.1451 ], [ 75.0066, 31.1451 ], [ 75.0132, 31.1319 ], [ 75.0099, 31.1202 ], [ 74.9599, 31.1473 ], [ 75.0043, 31.1741 ], [ 75.0479, 31.191 ], [ 75.0598, 31.2106 ], [ 75.0594, 31.2309 ], [ 75.081, 31.2498 ], [ 75.0822, 31.2737 ], [ 75.1039, 31.2797 ], [ 75.0934, 31.2838 ], [ 75.1096, 31.3109 ], [ 75.1068, 31.3168 ], [ 75.1183, 31.3203 ], [ 75.1346, 31.3105 ], [ 75.1478, 31.3201 ], [ 75.146, 31.3367 ], [ 75.1644, 31.3567 ], [ 75.156, 31.3651 ], [ 75.1633, 31.3829 ], [ 75.1683, 31.3791 ], [ 75.1786, 31.3989 ], [ 75.1943, 31.408 ], [ 75.1865, 31.4147 ], [ 75.1917, 31.4331 ], [ 75.2101, 31.4351 ], [ 75.2141, 31.4219 ], [ 75.2245, 31.4219 ], [ 75.235, 31.4593 ], [ 75.2433, 31.4552 ], [ 75.2665, 31.48 ], [ 75.2831, 31.4828 ], [ 75.3276, 31.5425 ], [ 75.3587, 31.5684 ], [ 75.3748, 31.5789 ], [ 75.396, 31.5804 ], [ 75.4125, 31.5982 ], [ 75.4257, 31.6277 ], [ 75.468, 31.6362 ], [ 75.476, 31.6516 ], [ 75.52, 31.6404 ], [ 75.5248, 31.6328 ], [ 75.5323, 31.6351 ], [ 75.5321, 31.6486 ], [ 75.5429, 31.6476 ], [ 75.5509, 31.6339 ], [ 75.557, 31.64 ], [ 75.5723, 31.6354 ], [ 75.5672, 31.6108 ], [ 75.5735, 31.6175 ], [ 75.5761, 31.6066 ], [ 75.5936, 31.6046 ], [ 75.6031, 31.5842 ], [ 75.595, 31.586 ], [ 75.5918, 31.5766 ], [ 75.6023, 31.5633 ], [ 75.5993, 31.5578 ], [ 75.5793, 31.5626 ], [ 75.5727, 31.5476 ], [ 75.5771, 31.5422 ], [ 75.5664, 31.5357 ], [ 75.5534, 31.5343 ], [ 75.5405, 31.5453 ], [ 75.5247, 31.5437 ], [ 75.5224, 31.539 ], [ 75.5406, 31.5283 ], [ 75.5392, 31.5161 ], [ 75.5309, 31.5124 ], [ 75.5264, 31.5213 ], [ 75.5123, 31.5174 ], [ 75.5196, 31.4998 ], [ 75.5187, 31.4899 ], [ 75.5085, 31.48 ], [ 75.517, 31.4655 ], [ 75.513, 31.4593 ], [ 75.4903, 31.4707 ], [ 75.489, 31.4844 ], [ 75.4801, 31.4845 ], [ 75.4742, 31.4963 ], [ 75.4524, 31.4975 ], [ 75.4414, 31.4947 ], [ 75.4399, 31.4891 ], [ 75.4449, 31.4729 ], [ 75.4577, 31.4729 ], [ 75.4523, 31.4697 ], [ 75.4561, 31.4579 ], [ 75.4665, 31.4467 ], [ 75.4579, 31.4374 ], [ 75.4503, 31.444 ], [ 75.4452, 31.4387 ], [ 75.453, 31.4294 ], [ 75.4424, 31.4325 ], [ 75.4369, 31.4257 ], [ 75.4316, 31.414 ], [ 75.4421, 31.4052 ], [ 75.4334, 31.3935 ], [ 75.4366, 31.385 ], [ 75.4605, 31.3813 ], [ 75.4721, 31.3957 ], [ 75.491, 31.3847 ], [ 75.4798, 31.3722 ], [ 75.4558, 31.372 ], [ 75.4611, 31.3609 ], [ 75.4775, 31.3677 ], [ 75.4822, 31.3644 ], [ 75.4686, 31.3248 ], [ 75.4482, 31.3247 ], [ 75.4342, 31.3178 ], [ 75.4429, 31.3063 ], [ 75.4376, 31.2894 ], [ 75.463, 31.2799 ], [ 75.472, 31.251 ], [ 75.4618, 31.2436 ], [ 75.4609, 31.2355 ], [ 75.4376, 31.2405 ], [ 75.4327, 31.2288 ], [ 75.4231, 31.2294 ], [ 75.4179, 31.2497 ], [ 75.3895, 31.2444 ], [ 75.3766, 31.2307 ], [ 75.3679, 31.2397 ], [ 75.3619, 31.2358 ], [ 75.3639, 31.2259 ], [ 75.344, 31.2308 ], [ 75.3206, 31.2071 ] ] ], [ [ [ 75.8218, 31.357 ], [ 75.8336, 31.3623 ], [ 75.8297, 31.3698 ], [ 75.8497, 31.3728 ], [ 75.8569, 31.3499 ], [ 75.8787, 31.3549 ], [ 75.8911, 31.3406 ], [ 75.9059, 31.345 ], [ 75.9047, 31.3367 ], [ 75.885, 31.3341 ], [ 75.8803, 31.3224 ], [ 75.8772, 31.3274 ], [ 75.871, 31.3248 ], [ 75.8529, 31.2951 ], [ 75.856, 31.2888 ], [ 75.8641, 31.2904 ], [ 75.8645, 31.2819 ], [ 75.8822, 31.2904 ], [ 75.8958, 31.2658 ], [ 75.9102, 31.2607 ], [ 75.8688, 31.2455 ], [ 75.8687, 31.2576 ], [ 75.8753, 31.2621 ], [ 75.8705, 31.2729 ], [ 75.8507, 31.2838 ], [ 75.8431, 31.2824 ], [ 75.8397, 31.2726 ], [ 75.8445, 31.2613 ], [ 75.8553, 31.2563 ], [ 75.8572, 31.2366 ], [ 75.798, 31.2161 ], [ 75.788, 31.205 ], [ 75.7917, 31.1991 ], [ 75.7758, 31.1891 ], [ 75.7779, 31.1656 ], [ 75.7697, 31.16 ], [ 75.7051, 31.166 ], [ 75.6951, 31.1832 ], [ 75.6986, 31.1885 ], [ 75.6868, 31.1961 ], [ 75.6931, 31.2103 ], [ 75.7125, 31.2205 ], [ 75.7093, 31.2348 ], [ 75.6985, 31.2463 ], [ 75.6836, 31.2304 ], [ 75.6704, 31.2377 ], [ 75.6722, 31.2458 ], [ 75.6792, 31.2467 ], [ 75.6707, 31.25 ], [ 75.6827, 31.2535 ], [ 75.6818, 31.2639 ], [ 75.673, 31.269 ], [ 75.6772, 31.2915 ], [ 75.7039, 31.2857 ], [ 75.6969, 31.2981 ], [ 75.6858, 31.3032 ], [ 75.683, 31.3151 ], [ 75.7222, 31.3165 ], [ 75.7081, 31.3386 ], [ 75.6997, 31.3416 ], [ 75.7067, 31.3475 ], [ 75.7282, 31.3421 ], [ 75.737, 31.3324 ], [ 75.737, 31.3223 ], [ 75.7503, 31.3308 ], [ 75.7554, 31.3283 ], [ 75.7651, 31.3363 ], [ 75.7651, 31.3521 ], [ 75.8025, 31.3725 ], [ 75.8218, 31.357 ] ] ] ] } },
{ "type": "Feature", "properties": { "district": "Ludhiana", "did": "punjab:Ludhiana", "state_key": "punjab" }, "geometry": { "type": "Polygon", "coordinates": [ [ [ 75.7652, 30.658 ], [ 75.7729, 30.6596 ], [ 75.7806, 30.6412 ], [ 75.7966, 30.6323 ], [ 75.789, 30.6235 ], [ 75.7612, 30.6374 ], [ 75.7383, 30.6317 ], [ 75.7335, 30.6202 ], [ 75.7031, 30.6032 ], [ 75.6829, 30.6061 ], [ 75.674, 30.5959 ], [ 75.6548, 30.5911 ], [ 75.6268, 30.6009 ], [ 75.6038, 30.5942 ], [ 75.5789, 30.5696 ], [ 75.5488, 30.5803 ], [ 75.5327, 30.5676 ], [ 75.529, 30.585 ], [ 75.5187, 30.5872 ], [ 75.507, 30.5726 ], [ 75.5016, 30.5736 ], [ 75.4875, 30.5827 ], [ 75.4958, 30.5982 ], [ 75.4662, 30.6057 ], [ 75.4616, 30.5983 ], [ 75.454, 30.601 ], [ 75.4449, 30.5917 ], [ 75.4339, 30.593 ], [ 75.4309, 30.5839 ], [ 75.4064, 30.5849 ], [ 75.3974, 30.5938 ], [ 75.4012, 30.6187 ], [ 75.3956, 30.625 ], [ 75.3745, 30.6264 ], [ 75.3787, 30.6396 ], [ 75.3697, 30.6487 ], [ 75.382, 30.6691 ], [ 75.3673, 30.6876 ], [ 75.3706, 30.7109 ], [ 75.3782, 30.7088 ], [ 75.3862, 30.7181 ], [ 75.3724, 30.7344 ], [ 75.3961, 30.8087 ], [ 75.3763, 30.8186 ], [ 75.3675, 30.8418 ], [ 75.3755, 30.8585 ], [ 75.3992, 30.873 ], [ 75.4063, 30.8916 ], [ 75.3933, 30.9097 ], [ 75.3781, 30.9124 ], [ 75.3825, 30.9297 ], [ 75.3696, 30.9297 ], [ 75.3723, 30.9413 ], [ 75.3663, 30.9404 ], [ 75.3609, 30.9634 ], [ 75.3677, 30.9718 ], [ 75.3562, 30.9844 ], [ 75.3568, 30.9938 ], [ 75.3674, 30.9913 ], [ 75.3748, 30.9985 ], [ 75.3837, 30.9898 ], [ 75.3976, 30.9967 ], [ 75.4089, 30.98 ], [ 75.4204, 30.987 ], [ 75.4318, 30.9818 ], [ 75.4557, 30.9836 ], [ 75.4624, 30.9763 ], [ 75.4741, 30.982 ], [ 75.4822, 30.9698 ], [ 75.5166, 30.9761 ], [ 75.5371, 30.9661 ], [ 75.5431, 30.9682 ], [ 75.543, 30.9759 ], [ 75.5757, 30.9775 ], [ 75.5943, 30.9686 ], [ 75.6426, 30.9771 ], [ 75.7165, 31.0004 ], [ 75.7153, 31.0044 ], [ 75.7352, 31.0052 ], [ 75.7347, 31.0106 ], [ 75.7444, 31.0124 ], [ 75.764, 31.0131 ], [ 75.7713, 31.003 ], [ 75.7986, 30.9942 ], [ 75.8562, 31.0009 ], [ 75.8672, 31.0081 ], [ 75.8985, 31.0048 ], [ 75.9057, 31.0168 ], [ 75.9526, 31.0103 ], [ 75.9593, 31.0183 ], [ 75.9696, 31.0146 ], [ 75.9709, 31.004 ], [ 75.9878, 31.0039 ], [ 75.9911, 31.0094 ], [ 76.0268, 30.9968 ], [ 76.0627, 31.0002 ], [ 76.1207, 30.993 ], [ 76.1362, 30.9975 ], [ 76.1431, 30.9858 ], [ 76.1688, 30.9894 ], [ 76.1666, 30.9932 ], [ 76.1748, 30.9958 ], [ 76.1805, 30.992 ], [ 76.1879, 30.996 ], [ 76.184, 31.0052 ], [ 76.2046, 31.0 ], [ 76.2134, 31.0044 ], [ 76.2109, 31.0119 ], [ 76.2199, 31.0116 ], [ 76.2245, 31.0026 ], [ 76.241, 31.0023 ], [ 76.2563, 31.0103 ], [ 76.2639, 31.003 ], [ 76.2747, 31.0154 ], [ 76.2894, 31.0046 ], [ 76.2768, 31.0001 ], [ 76.2868, 31.0024 ], [ 76.2966, 30.9884 ], [ 76.3123, 30.988 ], [ 76.3237, 30.9301 ], [ 76.3128, 30.9247 ], [ 76.3197, 30.9143 ], [ 76.3195, 30.8771 ], [ 76.2977, 30.8669 ], [ 76.3111, 30.8423 ], [ 76.2813, 30.8303 ], [ 76.2802, 30.8202 ], [ 76.2891, 30.8081 ], [ 76.2691, 30.7992 ], [ 76.2619, 30.7867 ], [ 76.2724, 30.7757 ], [ 76.2897, 30.7824 ], [ 76.3049, 30.768 ], [ 76.3109, 30.7562 ], [ 76.2809, 30.7463 ], [ 76.284, 30.7379 ], [ 76.2757, 30.7341 ], [ 76.2911, 30.7139 ], [ 76.2978, 30.7171 ], [ 76.3059, 30.7042 ], [ 76.3186, 30.704 ], [ 76.3233, 30.6933 ], [ 76.3033, 30.6784 ], [ 76.2813, 30.6815 ], [ 76.2751, 30.6755 ], [ 76.2431, 30.6795 ], [ 76.236, 30.6899 ], [ 76.188, 30.6677 ], [ 76.1807, 30.6794 ], [ 76.1737, 30.6792 ], [ 76.1692, 30.6618 ], [ 76.152, 30.6551 ], [ 76.1528, 30.6398 ], [ 76.1278, 30.6295 ], [ 76.1279, 30.6228 ], [ 76.1165, 30.6149 ], [ 76.1255, 30.597 ], [ 76.1102, 30.5874 ], [ 76.1146, 30.5798 ], [ 76.108, 30.576 ], [ 76.1077, 30.5621 ], [ 76.098, 30.5604 ], [ 76.0896, 30.568 ], [ 76.0845, 30.5619 ], [ 76.0701, 30.5639 ], [ 76.0678, 30.5823 ], [ 76.0579, 30.5785 ], [ 76.0354, 30.5889 ], [ 76.0279, 30.6153 ], [ 76.0101, 30.6157 ], [ 76.0005, 30.6033 ], [ 75.961, 30.5904 ], [ 75.9531, 30.5745 ], [ 75.9354, 30.5682 ], [ 75.9209, 30.5919 ], [ 75.9293, 30.5972 ], [ 75.9235, 30.6087 ], [ 75.91, 30.6119 ], [ 75.9028, 30.6037 ], [ 75.8879, 30.607 ], [ 75.8882, 30.6204 ], [ 75.8724, 30.6289 ], [ 75.8725, 30.6392 ], [ 75.8981, 30.6475 ], [ 75.8954, 30.6596 ], [ 75.8833, 30.6643 ], [ 75.8793, 30.6762 ], [ 75.8668, 30.6782 ], [ 75.8524, 30.6701 ], [ 75.8379, 30.6799 ], [ 75.8338, 30.6923 ], [ 75.8162, 30.6869 ], [ 75.8223, 30.678 ], [ 75.8152, 30.6641 ], [ 75.7858, 30.6568 ], [ 75.7817, 30.671 ], [ 75.7717, 30.6733 ], [ 75.7631, 30.6635 ], [ 75.7652, 30.658 ] ] ] } },
{ "type": "Feature", "properties": { "district": "Mansa", "did": "punjab:Mansa", "state_key": "punjab" }, "geometry": { "type": "Polygon", "coordinates": [ [ [ 75.4214, 29.7751 ], [ 75.4063, 29.7612 ], [ 75.4048, 29.739 ], [ 75.3964, 29.7395 ], [ 75.3882, 29.7299 ], [ 75.3921, 29.7132 ], [ 75.373, 29.7133 ], [ 75.3708, 29.7045 ], [ 75.3591, 29.7055 ], [ 75.3586, 29.6997 ], [ 75.3457, 29.696 ], [ 75.3602, 29.6626 ], [ 75.3411, 29.6752 ], [ 75.3338, 29.6735 ], [ 75.3166, 29.6306 ], [ 75.2957, 29.625 ], [ 75.2897, 29.6078 ], [ 75.3199, 29.5874 ], [ 75.3113, 29.5801 ], [ 75.3095, 29.5608 ], [ 75.2812, 29.5615 ], [ 75.2733, 29.55 ], [ 75.2354, 29.5421 ], [ 75.2384, 29.5589 ], [ 75.232, 29.5748 ], [ 75.2217, 29.5803 ], [ 75.2354, 29.6031 ], [ 75.2068, 29.6219 ], [ 75.1969, 29.6193 ], [ 75.1831, 29.6284 ], [ 75.1876, 29.6518 ], [ 75.1747, 29.6556 ], [ 75.168, 29.667 ], [ 75.2068, 29.6875 ], [ 75.2078, 29.7012 ], [ 75.1978, 29.7032 ], [ 75.2006, 29.7265 ], [ 75.2103, 29.7388 ], [ 75.2264, 29.7289 ], [ 75.2382, 29.74 ], [ 75.2417, 29.7535 ], [ 75.2248, 29.7799 ], [ 75.2263, 29.7891 ], [ 75.2085, 29.7927 ], [ 75.2107, 29.8324 ], [ 75.1906, 29.8427 ], [ 75.1931, 29.8535 ], [ 75.2176, 29.8619 ], [ 75.2175, 29.883 ], [ 75.1881, 29.8894 ], [ 75.1848, 29.9161 ], [ 75.1717, 29.9285 ], [ 75.1835, 29.9415 ], [ 75.1781, 29.9459 ], [ 75.1828, 29.9702 ], [ 75.1951, 29.9809 ], [ 75.2076, 29.9794 ], [ 75.2166, 29.9676 ], [ 75.2376, 29.9598 ], [ 75.2507, 29.9829 ], [ 75.2731, 29.974 ], [ 75.2811, 29.9793 ], [ 75.2718, 29.9898 ], [ 75.2743, 29.9959 ], [ 75.3012, 30.0206 ], [ 75.289, 30.0224 ], [ 75.2815, 30.0114 ], [ 75.2602, 30.016 ], [ 75.2496, 30.0384 ], [ 75.2648, 30.05 ], [ 75.2703, 30.0484 ], [ 75.2784, 30.0636 ], [ 75.2936, 30.0708 ], [ 75.3202, 30.0613 ], [ 75.3244, 30.0645 ], [ 75.3259, 30.0698 ], [ 75.3064, 30.0774 ], [ 75.2998, 30.0981 ], [ 75.2908, 30.1049 ], [ 75.3447, 30.1312 ], [ 75.3533, 30.1421 ], [ 75.3437, 30.1462 ], [ 75.3445, 30.1595 ], [ 75.3575, 30.1616 ], [ 75.364, 30.176 ], [ 75.3574, 30.1873 ], [ 75.3893, 30.2097 ], [ 75.397, 30.207 ], [ 75.3934, 30.2004 ], [ 75.4163, 30.1863 ], [ 75.4635, 30.1941 ], [ 75.4873, 30.1745 ], [ 75.4915, 30.1549 ], [ 75.5072, 30.1434 ], [ 75.524, 30.1397 ], [ 75.5341, 30.1466 ], [ 75.5488, 30.1376 ], [ 75.5644, 30.1479 ], [ 75.6053, 30.1359 ], [ 75.6254, 30.1427 ], [ 75.6247, 30.1312 ], [ 75.6346, 30.1158 ], [ 75.6549, 30.1148 ], [ 75.6223, 30.0847 ], [ 75.6403, 30.0655 ], [ 75.6385, 30.0289 ], [ 75.649, 30.0234 ], [ 75.6571, 30.0358 ], [ 75.6706, 30.0347 ], [ 75.6742, 30.0401 ], [ 75.68, 30.0378 ], [ 75.674, 30.0317 ], [ 75.6877, 30.0236 ], [ 75.69, 30.0141 ], [ 75.6473, 29.9835 ], [ 75.6523, 29.9802 ], [ 75.6411, 29.9369 ], [ 75.6638, 29.9311 ], [ 75.6754, 29.909 ], [ 75.7055, 29.9186 ], [ 75.7086, 29.9345 ], [ 75.7324, 29.9348 ], [ 75.738, 29.9255 ], [ 75.7569, 29.9155 ], [ 75.7642, 29.9191 ], [ 75.7684, 29.8981 ], [ 75.7588, 29.8875 ], [ 75.7625, 29.8726 ], [ 75.7576, 29.8606 ], [ 75.7758, 29.8522 ], [ 75.7733, 29.8349 ], [ 75.766, 29.8285 ], [ 75.7457, 29.8247 ], [ 75.7378, 29.814 ], [ 75.7207, 29.8135 ], [ 75.7124, 29.7741 ], [ 75.7047, 29.7636 ], [ 75.7091, 29.7558 ], [ 75.7031, 29.7523 ], [ 75.6914, 29.7559 ], [ 75.6772, 29.7766 ], [ 75.6425, 29.7751 ], [ 75.6352, 29.7723 ], [ 75.6345, 29.7553 ], [ 75.6275, 29.7484 ], [ 75.6168, 29.7441 ], [ 75.6053, 29.7519 ], [ 75.58, 29.7391 ], [ 75.5721, 29.7433 ], [ 75.5621, 29.7702 ], [ 75.538, 29.7733 ], [ 75.523, 29.7584 ], [ 75.5189, 29.7756 ], [ 75.5028, 29.7779 ], [ 75.4613, 29.8078 ], [ 75.4529, 29.8018 ], [ 75.4582, 29.7947 ], [ 75.4545, 29.7826 ], [ 75.4214, 29.7751 ] ] ] } },
{ "type": "Feature", "properties": { "district": "Moga", "did": "punjab:Moga", "state_key": "punjab" }, "geometry": { "type": "Polygon", "coordinates": [ [ [ 75.382, 30.6691 ], [ 75.3697, 30.6487 ], [ 75.3787, 30.6396 ], [ 75.3745, 30.6264 ], [ 75.3956, 30.625 ], [ 75.4012, 30.6187 ], [ 75.3974, 30.5938 ], [ 75.4091, 30.5839 ], [ 75.404, 30.5667 ], [ 75.4195, 30.5487 ], [ 75.4006, 30.5285 ], [ 75.3606, 30.5129 ], [ 75.3346, 30.5208 ], [ 75.3309, 30.5332 ], [ 75.3226, 30.5381 ], [ 75.3127, 30.5355 ], [ 75.3118, 30.5284 ], [ 75.3043, 30.5274 ], [ 75.2883, 30.5088 ], [ 75.262, 30.5209 ], [ 75.2276, 30.5076 ], [ 75.212, 30.5164 ], [ 75.2032, 30.5069 ], [ 75.1955, 30.5121 ], [ 75.1817, 30.5101 ], [ 75.1794, 30.5518 ], [ 75.1654, 30.5791 ], [ 75.1543, 30.5767 ], [ 75.1456, 30.5824 ], [ 75.1206, 30.5609 ], [ 75.1308, 30.5377 ], [ 75.1282, 30.5223 ], [ 75.1052, 30.5212 ], [ 75.0847, 30.5319 ], [ 75.062, 30.5015 ], [ 75.0324, 30.5043 ], [ 75.0202, 30.4909 ], [ 75.0043, 30.4914 ], [ 75.0, 30.4864 ], [ 74.9923, 30.4998 ], [ 74.9901, 30.5204 ], [ 74.9971, 30.5331 ], [ 74.9904, 30.5433 ], [ 74.9779, 30.5432 ], [ 74.9447, 30.5718 ], [ 74.9276, 30.5534 ], [ 74.9314, 30.5451 ], [ 74.9263, 30.5391 ], [ 74.9018, 30.5514 ], [ 74.9029, 30.5706 ], [ 74.91, 30.5803 ], [ 74.9555, 30.5936 ], [ 74.9467, 30.6095 ], [ 74.9562, 30.6369 ], [ 74.95, 30.645 ], [ 74.9583, 30.6566 ], [ 74.9557, 30.6771 ], [ 74.922, 30.6793 ], [ 74.9228, 30.6879 ], [ 74.9155, 30.6826 ], [ 74.904, 30.7044 ], [ 74.9109, 30.7267 ], [ 74.9105, 30.7706 ], [ 74.9149, 30.7823 ], [ 74.931, 30.789 ], [ 74.9281, 30.8045 ], [ 74.9473, 30.8288 ], [ 74.941, 30.839 ], [ 74.9479, 30.8572 ], [ 74.9426, 30.8777 ], [ 74.9524, 30.8917 ], [ 74.9964, 30.8886 ], [ 75.0004, 30.8958 ], [ 75.0161, 30.8923 ], [ 75.0304, 30.8968 ], [ 75.0408, 30.9222 ], [ 75.051, 30.9236 ], [ 75.0699, 30.9451 ], [ 75.0785, 30.9464 ], [ 75.0776, 30.9576 ], [ 75.0865, 30.9586 ], [ 75.0938, 30.9754 ], [ 75.103, 30.9721 ], [ 75.0961, 30.9917 ], [ 75.1033, 31.0153 ], [ 75.0955, 31.0255 ], [ 75.0677, 31.0342 ], [ 75.0678, 31.0407 ], [ 75.053, 31.0428 ], [ 75.0473, 31.0519 ], [ 75.0531, 31.0636 ], [ 75.062, 31.0676 ], [ 75.073, 31.0468 ], [ 75.0943, 31.0471 ], [ 75.0965, 31.0587 ], [ 75.0845, 31.0622 ], [ 75.0836, 31.0687 ], [ 75.0946, 31.0713 ], [ 75.104, 31.0663 ], [ 75.1083, 31.0682 ], [ 75.0993, 31.0774 ], [ 75.1093, 31.0752 ], [ 75.1201, 31.0817 ], [ 75.1339, 31.0737 ], [ 75.1458, 31.0857 ], [ 75.1626, 31.0895 ], [ 75.1632, 31.0826 ], [ 75.1834, 31.0777 ], [ 75.1735, 31.0623 ], [ 75.1772, 31.053 ], [ 75.2069, 31.054 ], [ 75.21, 31.0403 ], [ 75.2014, 31.0261 ], [ 75.2039, 31.0201 ], [ 75.2052, 31.0277 ], [ 75.2249, 31.0295 ], [ 75.2294, 31.037 ], [ 75.2585, 31.0306 ], [ 75.2626, 31.0384 ], [ 75.257, 31.0433 ], [ 75.268, 31.0435 ], [ 75.2713, 31.0366 ], [ 75.2816, 31.042 ], [ 75.2911, 31.0356 ], [ 75.295, 31.0149 ], [ 75.3278, 31.0098 ], [ 75.3418, 30.9885 ], [ 75.348, 30.9968 ], [ 75.3586, 30.9996 ], [ 75.3562, 30.9844 ], [ 75.3677, 30.9718 ], [ 75.3609, 30.9634 ], [ 75.3663, 30.9404 ], [ 75.3723, 30.9413 ], [ 75.3696, 30.9297 ], [ 75.3825, 30.9297 ], [ 75.3781, 30.9124 ], [ 75.3933, 30.9097 ], [ 75.4063, 30.8916 ], [ 75.3992, 30.873 ], [ 75.3755, 30.8585 ], [ 75.3675, 30.8418 ], [ 75.3763, 30.8186 ], [ 75.3961, 30.8087 ], [ 75.3724, 30.7344 ], [ 75.3862, 30.7181 ], [ 75.3782, 30.7088 ], [ 75.3706, 30.7109 ], [ 75.3678, 30.6864 ], [ 75.382, 30.6691 ] ] ] } },
{ "type": "Feature", "properties": { "district": "Pathankot", "did": "punjab:Pathankot", "state_key": "punjab" }, "geometry": { "type": "Polygon", "coordinates": [ [ [ 75.7723, 32.2894 ], [ 75.7526, 32.2795 ], [ 75.7132, 32.2722 ], [ 75.6581, 32.2511 ], [ 75.6409, 32.2522 ], [ 75.618, 32.237 ], [ 75.6366, 32.2287 ], [ 75.6366, 32.2198 ], [ 75.6263, 32.216 ], [ 75.6238, 32.19 ], [ 75.6375, 32.187 ], [ 75.6377, 32.1925 ], [ 75.6553, 32.1968 ], [ 75.6619, 32.1929 ], [ 75.6567, 32.1829 ], [ 75.667, 32.1784 ], [ 75.6635, 32.1622 ], [ 75.6727, 32.1592 ], [ 75.66, 32.1367 ], [ 75.6262, 32.1193 ], [ 75.6265, 32.1074 ], [ 75.6097, 32.0934 ], [ 75.5976, 32.0953 ], [ 75.5943, 32.1115 ], [ 75.5826, 32.1071 ], [ 75.5888, 32.119 ], [ 75.5873, 32.141 ], [ 75.5526, 32.1331 ], [ 75.5434, 32.1456 ], [ 75.5113, 32.1491 ], [ 75.5059, 32.1452 ], [ 75.497, 32.1531 ], [ 75.4822, 32.1534 ], [ 75.481, 32.1598 ], [ 75.4344, 32.149 ], [ 75.4344, 32.1644 ], [ 75.4423, 32.1668 ], [ 75.4297, 32.1689 ], [ 75.4202, 32.1638 ], [ 75.4131, 32.177 ], [ 75.403, 32.178 ], [ 75.4001, 32.1901 ], [ 75.3785, 32.1834 ], [ 75.3774, 32.1908 ], [ 75.327, 32.2139 ], [ 75.3314, 32.2196 ], [ 75.3574, 32.2181 ], [ 75.3718, 32.2249 ], [ 75.3708, 32.2576 ], [ 75.3819, 32.269 ], [ 75.3715, 32.2796 ], [ 75.3437, 32.2786 ], [ 75.3502, 32.2899 ], [ 75.3205, 32.2974 ], [ 75.335, 32.3109 ], [ 75.3301, 32.3126 ], [ 75.3377, 32.3218 ], [ 75.3315, 32.3267 ], [ 75.3416, 32.3457 ], [ 75.3631, 32.3329 ], [ 75.3745, 32.3373 ], [ 75.3945, 32.3269 ], [ 75.4105, 32.3286 ], [ 75.43, 32.315 ], [ 75.4481, 32.326 ], [ 75.4678, 32.3246 ], [ 75.4691, 32.3386 ], [ 75.4891, 32.3456 ], [ 75.4949, 32.3411 ], [ 75.4815, 32.3352 ], [ 75.4819, 32.3203 ], [ 75.5115, 32.3086 ], [ 75.5039, 32.2913 ], [ 75.5209, 32.2772 ], [ 75.5322, 32.2778 ], [ 75.5433, 32.3092 ], [ 75.5393, 32.3352 ], [ 75.5598, 32.357 ], [ 75.5953, 32.377 ], [ 75.6346, 32.3799 ], [ 75.6731, 32.3939 ], [ 75.6873, 32.3903 ], [ 75.7113, 32.4116 ], [ 75.7228, 32.4056 ], [ 75.7319, 32.4226 ], [ 75.7277, 32.4317 ], [ 75.7438, 32.4316 ], [ 75.7287, 32.4391 ], [ 75.7298, 32.4532 ], [ 75.749, 32.4541 ], [ 75.7769, 32.4651 ], [ 75.8005, 32.4851 ], [ 75.8199, 32.4918 ], [ 75.8369, 32.5113 ], [ 75.8567, 32.4845 ], [ 75.9028, 32.4523 ], [ 75.9055, 32.4377 ], [ 75.9202, 32.4301 ], [ 75.9167, 32.42 ], [ 75.9216, 32.4102 ], [ 75.938, 32.3975 ], [ 75.9328, 32.3915 ], [ 75.9228, 32.3914 ], [ 75.92, 32.3968 ], [ 75.8727, 32.3952 ], [ 75.8524, 32.3795 ], [ 75.8438, 32.3553 ], [ 75.8345, 32.3573 ], [ 75.8275, 32.3502 ], [ 75.8116, 32.3489 ], [ 75.8075, 32.3407 ], [ 75.8148, 32.3302 ], [ 75.8016, 32.3284 ], [ 75.7809, 32.3089 ], [ 75.7723, 32.2894 ] ] ] } },
{ "type": "Feature", "properties": { "district": "Patiala", "did": "punjab:Patiala", "state_key": "punjab" }, "geometry": { "type": "MultiPolygon", "coordinates": [ [ [ [ 75.9679, 29.916 ], [ 75.9793, 29.9043 ], [ 75.9674, 29.8904 ], [ 75.9551, 29.8901 ], [ 75.9293, 29.9081 ], [ 75.948, 29.9212 ], [ 75.9663, 29.9126 ], [ 75.9661, 29.9281 ], [ 75.97, 29.9319 ], [ 75.9679, 29.916 ] ] ], [ [ [ 76.2132, 30.0221 ], [ 76.232, 30.0152 ], [ 76.2256, 30.0077 ], [ 76.2093, 30.0041 ], [ 76.2107, 29.9882 ], [ 76.2023, 29.9888 ], [ 76.2057, 29.9743 ], [ 76.1981, 29.9683 ], [ 76.2131, 29.9451 ], [ 76.2102, 29.9396 ], [ 76.1838, 29.9483 ], [ 76.172, 29.9263 ], [ 76.1878, 29.9206 ], [ 76.1857, 29.8924 ], [ 76.1935, 29.8856 ], [ 76.2098, 29.8859 ], [ 76.2108, 29.8913 ], [ 76.2174, 29.884 ], [ 76.2294, 29.8856 ], [ 76.2468, 29.876 ], [ 76.2438, 29.8524 ], [ 76.2222, 29.8487 ], [ 76.2206, 29.8378 ], [ 76.1978, 29.8448 ], [ 76.1849, 29.8227 ], [ 76.1737, 29.8179 ], [ 76.1455, 29.8191 ], [ 76.1224, 29.7912 ], [ 76.1202, 29.8008 ], [ 76.1051, 29.8118 ], [ 76.1192, 29.8349 ], [ 76.1225, 29.8576 ], [ 76.1111, 29.8595 ], [ 76.0998, 29.8472 ], [ 76.0904, 29.8511 ], [ 76.0753, 29.8414 ], [ 76.0649, 29.8417 ], [ 76.0528, 29.8598 ], [ 76.055, 29.8705 ], [ 76.0481, 29.8693 ], [ 76.0436, 29.8761 ], [ 76.0393, 29.8729 ], [ 76.033, 29.8824 ], [ 76.0199, 29.8689 ], [ 76.0119, 29.8905 ], [ 75.983, 29.9068 ], [ 75.9897, 29.9457 ], [ 76.0035, 29.9448 ], [ 76.0264, 29.9598 ], [ 76.0207, 29.9662 ], [ 76.0268, 29.9724 ], [ 76.0068, 29.9833 ], [ 76.015, 30.0 ], [ 76.0321, 30.0106 ], [ 76.0267, 30.0129 ], [ 76.0286, 30.0203 ], [ 76.0342, 30.0186 ], [ 76.042, 30.0274 ], [ 76.0376, 30.0379 ], [ 76.0415, 30.0481 ], [ 76.0518, 30.0495 ], [ 76.0436, 30.0524 ], [ 76.0569, 30.0665 ], [ 76.0665, 30.0612 ], [ 76.0659, 30.0551 ], [ 76.0708, 30.0598 ], [ 76.0873, 30.0546 ], [ 76.0811, 30.0638 ], [ 76.1047, 30.1036 ], [ 76.0967, 30.1163 ], [ 76.0787, 30.1111 ], [ 76.0836, 30.1197 ], [ 76.0718, 30.1243 ], [ 76.079, 30.136 ], [ 76.0623, 30.1443 ], [ 76.0737, 30.1519 ], [ 76.0572, 30.1648 ], [ 76.0493, 30.1867 ], [ 76.0685, 30.2062 ], [ 76.0625, 30.211 ], [ 76.0777, 30.225 ], [ 76.0812, 30.2201 ], [ 76.1083, 30.2209 ], [ 76.1227, 30.2375 ], [ 76.1321, 30.2401 ], [ 76.1379, 30.2332 ], [ 76.1535, 30.248 ], [ 76.1662, 30.2399 ], [ 76.183, 30.2569 ], [ 76.1769, 30.2632 ], [ 76.1827, 30.2748 ], [ 76.1941, 30.2723 ], [ 76.2035, 30.283 ], [ 76.1979, 30.2957 ], [ 76.1755, 30.3129 ], [ 76.1669, 30.3316 ], [ 76.1383, 30.3125 ], [ 76.1114, 30.3215 ], [ 76.088, 30.3099 ], [ 76.068, 30.3168 ], [ 76.0478, 30.3389 ], [ 76.0171, 30.3283 ], [ 75.9866, 30.3405 ], [ 75.9893, 30.3687 ], [ 75.9923, 30.372 ], [ 75.9968, 30.3649 ], [ 76.0105, 30.364 ], [ 76.0141, 30.3818 ], [ 76.0235, 30.3783 ], [ 76.0234, 30.3904 ], [ 76.036, 30.4021 ], [ 76.0316, 30.4088 ], [ 76.0528, 30.4272 ], [ 76.0495, 30.4356 ], [ 76.0712, 30.4531 ], [ 76.0744, 30.4491 ], [ 76.0879, 30.458 ], [ 76.0634, 30.4887 ], [ 76.081, 30.5021 ], [ 76.0859, 30.5371 ], [ 76.0919, 30.5398 ], [ 76.1083, 30.5293 ], [ 76.1199, 30.5454 ], [ 76.1363, 30.5235 ], [ 76.1543, 30.5444 ], [ 76.1657, 30.5351 ], [ 76.1731, 30.5471 ], [ 76.1831, 30.5414 ], [ 76.2294, 30.5701 ], [ 76.2379, 30.5666 ], [ 76.2373, 30.5502 ], [ 76.2445, 30.5497 ], [ 76.2563, 30.5672 ], [ 76.2752, 30.5598 ], [ 76.2836, 30.5449 ], [ 76.3144, 30.5479 ], [ 76.3283, 30.5402 ], [ 76.3232, 30.5287 ], [ 76.3329, 30.5034 ], [ 76.3297, 30.4937 ], [ 76.3351, 30.4947 ], [ 76.3337, 30.488 ], [ 76.3454, 30.4799 ], [ 76.3521, 30.4606 ], [ 76.373, 30.4729 ], [ 76.3824, 30.4717 ], [ 76.3971, 30.452 ], [ 76.4074, 30.4483 ], [ 76.4176, 30.4645 ], [ 76.4496, 30.4489 ], [ 76.4598, 30.4597 ], [ 76.4694, 30.4548 ], [ 76.4714, 30.4572 ], [ 76.4649, 30.4668 ], [ 76.4704, 30.4741 ], [ 76.4874, 30.4647 ], [ 76.4989, 30.4633 ], [ 76.5028, 30.4696 ], [ 76.4912, 30.4999 ], [ 76.4966, 30.5079 ], [ 76.491, 30.5193 ], [ 76.5026, 30.5273 ], [ 76.4995, 30.5483 ], [ 76.5078, 30.5663 ], [ 76.5184, 30.5689 ], [ 76.5383, 30.5576 ], [ 76.5631, 30.5679 ], [ 76.5727, 30.5654 ], [ 76.5957, 30.5944 ], [ 76.604, 30.5919 ], [ 76.6133, 30.6086 ], [ 76.6304, 30.6142 ], [ 76.6428, 30.6278 ], [ 76.6523, 30.6257 ], [ 76.6583, 30.6105 ], [ 76.6658, 30.611 ], [ 76.6685, 30.5933 ], [ 76.6629, 30.5831 ], [ 76.6894, 30.5936 ], [ 76.6836, 30.5791 ], [ 76.6924, 30.5703 ], [ 76.7055, 30.5749 ], [ 76.7034, 30.587 ], [ 76.7188, 30.5898 ], [ 76.7351, 30.5717 ], [ 76.7636, 30.6059 ], [ 76.7731, 30.6104 ], [ 76.7857, 30.6033 ], [ 76.788, 30.5973 ], [ 76.7725, 30.5831 ], [ 76.7756, 30.5742 ], [ 76.762, 30.5595 ], [ 76.7692, 30.5519 ], [ 76.7592, 30.5577 ], [ 76.7507, 30.5523 ], [ 76.7542, 30.5331 ], [ 76.787, 30.5189 ], [ 76.7691, 30.5035 ], [ 76.7654, 30.4754 ], [ 76.753, 30.4698 ], [ 76.7585, 30.4511 ], [ 76.7464, 30.4431 ], [ 76.7482, 30.4288 ], [ 76.7351, 30.4192 ], [ 76.7398, 30.4111 ], [ 76.7282, 30.4004 ], [ 76.7141, 30.4017 ], [ 76.7176, 30.38 ], [ 76.7312, 30.3797 ], [ 76.7199, 30.3633 ], [ 76.7379, 30.3704 ], [ 76.7461, 30.3672 ], [ 76.7498, 30.3531 ], [ 76.7326, 30.3483 ], [ 76.7298, 30.3388 ], [ 76.7223, 30.3332 ], [ 76.7164, 30.336 ], [ 76.711, 30.3258 ], [ 76.7, 30.3281 ], [ 76.6956, 30.3216 ], [ 76.688, 30.3269 ], [ 76.6808, 30.3031 ], [ 76.6749, 30.2994 ], [ 76.6654, 30.3059 ], [ 76.6389, 30.2844 ], [ 76.6354, 30.2896 ], [ 76.6234, 30.2646 ], [ 76.6144, 30.2725 ], [ 76.6011, 30.2703 ], [ 76.5929, 30.2617 ], [ 76.5838, 30.2702 ], [ 76.5751, 30.2619 ], [ 76.5596, 30.2648 ], [ 76.5536, 30.2301 ], [ 76.5431, 30.2284 ], [ 76.5608, 30.2289 ], [ 76.5915, 30.2558 ], [ 76.6037, 30.2519 ], [ 76.6029, 30.2413 ], [ 76.6275, 30.2272 ], [ 76.6155, 30.2117 ], [ 76.6543, 30.2035 ], [ 76.6506, 30.1931 ], [ 76.6568, 30.1861 ], [ 76.6393, 30.1702 ], [ 76.6355, 30.1845 ], [ 76.6456, 30.1881 ], [ 76.6394, 30.1944 ], [ 76.6142, 30.2044 ], [ 76.6073, 30.1918 ], [ 76.6234, 30.1802 ], [ 76.6437, 30.1502 ], [ 76.6235, 30.1402 ], [ 76.5989, 30.1121 ], [ 76.5865, 30.1107 ], [ 76.5605, 30.0934 ], [ 76.5445, 30.0747 ], [ 76.5269, 30.077 ], [ 76.5083, 30.0703 ], [ 76.5104, 30.0823 ], [ 76.5021, 30.0919 ], [ 76.4625, 30.101 ], [ 76.458, 30.1318 ], [ 76.4385, 30.1331 ], [ 76.4398, 30.1437 ], [ 76.4285, 30.1509 ], [ 76.4406, 30.1658 ], [ 76.4304, 30.178 ], [ 76.4343, 30.1831 ], [ 76.4227, 30.1922 ], [ 76.4064, 30.1903 ], [ 76.3872, 30.1706 ], [ 76.4101, 30.145 ], [ 76.3911, 30.1348 ], [ 76.4001, 30.1167 ], [ 76.3889, 30.1132 ], [ 76.3622, 30.1201 ], [ 76.3669, 30.1242 ], [ 76.3505, 30.1468 ], [ 76.3335, 30.1382 ], [ 76.3421, 30.1263 ], [ 76.3602, 30.1202 ], [ 76.3442, 30.1008 ], [ 76.3218, 30.0951 ], [ 76.2966, 30.1144 ], [ 76.2853, 30.1062 ], [ 76.2537, 30.1216 ], [ 76.2556, 30.1261 ], [ 76.244, 30.1282 ], [ 76.2325, 30.1398 ], [ 76.2344, 30.1449 ], [ 76.219, 30.1477 ], [ 76.2079, 30.1571 ], [ 76.2077, 30.1443 ], [ 76.2243, 30.1271 ], [ 76.2159, 30.1237 ], [ 76.2024, 30.136 ], [ 76.1964, 30.1235 ], [ 76.2171, 30.1228 ], [ 76.2168, 30.11 ], [ 76.2238, 30.1116 ], [ 76.2421, 30.1005 ], [ 76.2517, 30.1075 ], [ 76.2653, 30.0988 ], [ 76.2601, 30.0874 ], [ 76.2497, 30.0869 ], [ 76.2262, 30.0587 ], [ 76.2224, 30.0367 ], [ 76.2132, 30.0221 ] ], [ [ 76.0567, 30.0565 ], [ 76.061, 30.0493 ], [ 76.0624, 30.0508 ], [ 76.0567, 30.0565 ] ], [ [ 76.0657, 30.0324 ], [ 76.0632, 30.0315 ], [ 76.0655, 30.0286 ], [ 76.0657, 30.0324 ] ] ] ] } },
{ "type": "Feature", "properties": { "district": "Rupnagar", "did": "punjab:Rupnagar", "state_key": "punjab" }, "geometry": { "type": "Polygon", "coordinates": [ [ [ 76.5698, 30.8513 ], [ 76.5821, 30.8591 ], [ 76.584, 30.8517 ], [ 76.5529, 30.8381 ], [ 76.5649, 30.8184 ], [ 76.5595, 30.8149 ], [ 76.562, 30.7999 ], [ 76.5557, 30.7964 ], [ 76.5587, 30.7858 ], [ 76.5407, 30.7802 ], [ 76.5246, 30.7585 ], [ 76.5065, 30.7493 ], [ 76.4927, 30.746 ], [ 76.4833, 30.7507 ], [ 76.4697, 30.7455 ], [ 76.4637, 30.7547 ], [ 76.4595, 30.75 ], [ 76.4442, 30.7595 ], [ 76.4429, 30.797 ], [ 76.4341, 30.7992 ], [ 76.4326, 30.8192 ], [ 76.4085, 30.8196 ], [ 76.4025, 30.8306 ], [ 76.4112, 30.8399 ], [ 76.4069, 30.847 ], [ 76.3849, 30.849 ], [ 76.3821, 30.8603 ], [ 76.368, 30.8722 ], [ 76.3486, 30.8655 ], [ 76.3486, 30.8738 ], [ 76.3375, 30.875 ], [ 76.334, 30.8696 ], [ 76.3279, 30.8788 ], [ 76.3192, 30.8775 ], [ 76.3197, 30.9143 ], [ 76.3128, 30.9247 ], [ 76.3235, 30.9323 ], [ 76.3137, 30.9852 ], [ 76.3059, 30.9922 ], [ 76.3268, 30.9943 ], [ 76.3251, 30.9792 ], [ 76.345, 30.9806 ], [ 76.3428, 30.9749 ], [ 76.3588, 30.969 ], [ 76.3692, 30.9747 ], [ 76.4384, 30.972 ], [ 76.4795, 30.9795 ], [ 76.4936, 30.9754 ], [ 76.4942, 30.9794 ], [ 76.51, 30.9799 ], [ 76.5187, 30.9954 ], [ 76.467, 31.0316 ], [ 76.4573, 31.0542 ], [ 76.4258, 31.0958 ], [ 76.4324, 31.1058 ], [ 76.4292, 31.1162 ], [ 76.3834, 31.1534 ], [ 76.355, 31.2061 ], [ 76.3376, 31.2231 ], [ 76.3286, 31.2241 ], [ 76.3494, 31.2414 ], [ 76.3398, 31.2455 ], [ 76.3283, 31.2665 ], [ 76.3079, 31.2777 ], [ 76.3097, 31.291 ], [ 76.2962, 31.2908 ], [ 76.2869, 31.2981 ], [ 76.2904, 31.3092 ], [ 76.3224, 31.3216 ], [ 76.3077, 31.3424 ], [ 76.3356, 31.3495 ], [ 76.3375, 31.3398 ], [ 76.3532, 31.345 ], [ 76.3423, 31.355 ], [ 76.3416, 31.3788 ], [ 76.3298, 31.379 ], [ 76.3311, 31.4016 ], [ 76.343, 31.3986 ], [ 76.3459, 31.4031 ], [ 76.3523, 31.3983 ], [ 76.3673, 31.4044 ], [ 76.3748, 31.4382 ], [ 76.3896, 31.4168 ], [ 76.3875, 31.4094 ], [ 76.3971, 31.4079 ], [ 76.4033, 31.3967 ], [ 76.3927, 31.3891 ], [ 76.4241, 31.3493 ], [ 76.4323, 31.3266 ], [ 76.4635, 31.302 ], [ 76.4404, 31.2879 ], [ 76.44, 31.2787 ], [ 76.4594, 31.2862 ], [ 76.4791, 31.3087 ], [ 76.4967, 31.2853 ], [ 76.4976, 31.2699 ], [ 76.5064, 31.2677 ], [ 76.5217, 31.2803 ], [ 76.5274, 31.2772 ], [ 76.5306, 31.2711 ], [ 76.5238, 31.2581 ], [ 76.5393, 31.261 ], [ 76.5429, 31.2824 ], [ 76.5513, 31.2787 ], [ 76.5436, 31.2589 ], [ 76.5492, 31.2528 ], [ 76.56, 31.2528 ], [ 76.5751, 31.2702 ], [ 76.5877, 31.2742 ], [ 76.6119, 31.2491 ], [ 76.5885, 31.2229 ], [ 76.5926, 31.2113 ], [ 76.6277, 31.2262 ], [ 76.6417, 31.223 ], [ 76.6346, 31.2178 ], [ 76.6454, 31.2091 ], [ 76.6178, 31.1929 ], [ 76.6098, 31.181 ], [ 76.5968, 31.178 ], [ 76.6072, 31.1742 ], [ 76.6023, 31.153 ], [ 76.6123, 31.148 ], [ 76.602, 31.1235 ], [ 76.6132, 31.1223 ], [ 76.6166, 31.1161 ], [ 76.6362, 31.1165 ], [ 76.6386, 31.108 ], [ 76.6232, 31.0796 ], [ 76.6166, 31.0777 ], [ 76.623, 31.0546 ], [ 76.611, 31.0458 ], [ 76.6168, 31.0305 ], [ 76.629, 31.0236 ], [ 76.625, 30.9986 ], [ 76.6644, 30.9818 ], [ 76.6739, 30.9687 ], [ 76.7081, 30.9705 ], [ 76.7371, 30.9496 ], [ 76.7314, 30.9339 ], [ 76.7173, 30.9288 ], [ 76.7, 30.9318 ], [ 76.6799, 30.9143 ], [ 76.6631, 30.915 ], [ 76.6068, 30.8905 ], [ 76.6092, 30.883 ], [ 76.5971, 30.8735 ], [ 76.6033, 30.8582 ], [ 76.5904, 30.8512 ], [ 76.5862, 30.8595 ], [ 76.5733, 30.8594 ], [ 76.5781, 30.8692 ], [ 76.5674, 30.8653 ], [ 76.5698, 30.8513 ] ] ] } },
{ "type": "Feature", "properties": { "district": "Sangrur", "did": "punjab:Sangrur", "state_key": "punjab" }, "geometry": { "type": "MultiPolygon", "coordinates": [ [ [ [ 76.0119, 29.8905 ], [ 76.0199, 29.8689 ], [ 76.033, 29.8824 ], [ 76.0393, 29.8729 ], [ 76.0436, 29.8761 ], [ 76.0481, 29.8693 ], [ 76.055, 29.8705 ], [ 76.0528, 29.8598 ], [ 76.0649, 29.8417 ], [ 76.0753, 29.8414 ], [ 76.0904, 29.8511 ], [ 76.0998, 29.8472 ], [ 76.1111, 29.8595 ], [ 76.1225, 29.8576 ], [ 76.1104, 29.8182 ], [ 76.085, 29.8007 ], [ 76.0826, 29.7812 ], [ 76.0568, 29.7654 ], [ 76.0438, 29.7427 ], [ 76.0318, 29.7468 ], [ 76.0268, 29.7563 ], [ 76.0168, 29.743 ], [ 75.9949, 29.7393 ], [ 75.9844, 29.7271 ], [ 75.9387, 29.7307 ], [ 75.9063, 29.7533 ], [ 75.8988, 29.7462 ], [ 75.8703, 29.7493 ], [ 75.8667, 29.7665 ], [ 75.8514, 29.7727 ], [ 75.8529, 29.778 ], [ 75.837, 29.7942 ], [ 75.8352, 29.8143 ], [ 75.8259, 29.8145 ], [ 75.8158, 29.8042 ], [ 75.8057, 29.8047 ], [ 75.7888, 29.8111 ], [ 75.7788, 29.8223 ], [ 75.7569, 29.8051 ], [ 75.7436, 29.8091 ], [ 75.7378, 29.814 ], [ 75.7457, 29.8247 ], [ 75.7648, 29.8277 ], [ 75.7733, 29.8349 ], [ 75.7756, 29.8532 ], [ 75.7575, 29.8614 ], [ 75.7625, 29.8726 ], [ 75.7588, 29.8875 ], [ 75.7684, 29.8981 ], [ 75.7663, 29.9173 ], [ 75.7569, 29.9155 ], [ 75.7442, 29.9219 ], [ 75.7324, 29.9348 ], [ 75.7086, 29.9345 ], [ 75.7055, 29.9186 ], [ 75.6754, 29.909 ], [ 75.6638, 29.9311 ], [ 75.6411, 29.9369 ], [ 75.6523, 29.9802 ], [ 75.6473, 29.9835 ], [ 75.6641, 29.999 ], [ 75.6882, 30.0084 ], [ 75.6877, 30.0235 ], [ 75.674, 30.0317 ], [ 75.68, 30.0378 ], [ 75.6742, 30.0401 ], [ 75.6706, 30.0347 ], [ 75.6571, 30.0358 ], [ 75.649, 30.0234 ], [ 75.6384, 30.0292 ], [ 75.6403, 30.0655 ], [ 75.6223, 30.0847 ], [ 75.6548, 30.115 ], [ 75.6346, 30.1158 ], [ 75.6247, 30.1312 ], [ 75.6254, 30.1427 ], [ 75.6053, 30.1359 ], [ 75.5771, 30.144 ], [ 75.576, 30.156 ], [ 75.5556, 30.1772 ], [ 75.5581, 30.2019 ], [ 75.5684, 30.2024 ], [ 75.5852, 30.2159 ], [ 75.5834, 30.2279 ], [ 75.6132, 30.2171 ], [ 75.6488, 30.2381 ], [ 75.681, 30.24 ], [ 75.6917, 30.2301 ], [ 75.688, 30.24 ], [ 75.6979, 30.2419 ], [ 75.7004, 30.2531 ], [ 75.7188, 30.2602 ], [ 75.7222, 30.273 ], [ 75.73, 30.2728 ], [ 75.7163, 30.2833 ], [ 75.672, 30.2897 ], [ 75.6555, 30.3101 ], [ 75.6582, 30.3165 ], [ 75.65, 30.331 ], [ 75.654, 30.3372 ], [ 75.6675, 30.3347 ], [ 75.684, 30.3514 ], [ 75.677, 30.3567 ], [ 75.6773, 30.3789 ], [ 75.6659, 30.3879 ], [ 75.6699, 30.4201 ], [ 75.6464, 30.4407 ], [ 75.6536, 30.4481 ], [ 75.6629, 30.4467 ], [ 75.6722, 30.4575 ], [ 75.6754, 30.4725 ], [ 75.6648, 30.4732 ], [ 75.658, 30.4808 ], [ 75.6588, 30.4956 ], [ 75.671, 30.499 ], [ 75.6803, 30.5104 ], [ 75.677, 30.5211 ], [ 75.6584, 30.5298 ], [ 75.6522, 30.543 ], [ 75.6653, 30.5527 ], [ 75.659, 30.5626 ], [ 75.685, 30.59 ], [ 75.677, 30.5976 ], [ 75.6829, 30.6061 ], [ 75.7049, 30.6039 ], [ 75.7335, 30.6202 ], [ 75.7383, 30.6317 ], [ 75.7607, 30.6374 ], [ 75.7824, 30.6244 ], [ 75.7956, 30.6283 ], [ 75.7748, 30.6484 ], [ 75.7729, 30.6596 ], [ 75.7638, 30.6597 ], [ 75.764, 30.6688 ], [ 75.7815, 30.6711 ], [ 75.7859, 30.6568 ], [ 75.8152, 30.6641 ], [ 75.8223, 30.678 ], [ 75.8162, 30.6869 ], [ 75.8218, 30.6907 ], [ 75.8338, 30.6923 ], [ 75.8379, 30.6799 ], [ 75.8539, 30.6694 ], [ 75.8668, 30.6782 ], [ 75.8809, 30.6756 ], [ 75.8816, 30.6663 ], [ 75.8954, 30.6596 ], [ 75.8981, 30.6475 ], [ 75.8725, 30.6392 ], [ 75.8724, 30.6289 ], [ 75.8882, 30.6204 ], [ 75.8879, 30.607 ], [ 75.9028, 30.6037 ], [ 75.91, 30.6119 ], [ 75.9235, 30.6087 ], [ 75.9293, 30.5972 ], [ 75.9209, 30.5919 ], [ 75.9354, 30.5682 ], [ 75.9531, 30.5745 ], [ 75.961, 30.5904 ], [ 76.0005, 30.6033 ], [ 76.0101, 30.6157 ], [ 76.0279, 30.6153 ], [ 76.0354, 30.5889 ], [ 76.0579, 30.5785 ], [ 76.0662, 30.5834 ], [ 76.0654, 30.5689 ], [ 76.0845, 30.5619 ], [ 76.0758, 30.5465 ], [ 76.089, 30.5339 ], [ 76.0808, 30.5203 ], [ 76.081, 30.5021 ], [ 76.0634, 30.4887 ], [ 76.0879, 30.458 ], [ 76.0744, 30.4491 ], [ 76.0712, 30.4531 ], [ 76.0495, 30.4356 ], [ 76.0528, 30.4272 ], [ 76.0316, 30.4088 ], [ 76.036, 30.4021 ], [ 76.0234, 30.3904 ], [ 76.0235, 30.3783 ], [ 76.0141, 30.3818 ], [ 76.0105, 30.364 ], [ 75.9968, 30.3649 ], [ 75.9923, 30.372 ], [ 75.9893, 30.3687 ], [ 75.988, 30.3378 ], [ 76.0171, 30.3283 ], [ 76.0478, 30.3389 ], [ 76.068, 30.3168 ], [ 76.088, 30.3099 ], [ 76.1114, 30.3215 ], [ 76.1383, 30.3125 ], [ 76.1669, 30.3316 ], [ 76.1755, 30.3129 ], [ 76.1979, 30.2957 ], [ 76.2035, 30.2842 ], [ 76.1954, 30.2729 ], [ 76.1827, 30.2748 ], [ 76.1769, 30.2632 ], [ 76.183, 30.2569 ], [ 76.1662, 30.2399 ], [ 76.1535, 30.248 ], [ 76.1379, 30.2332 ], [ 76.1321, 30.2401 ], [ 76.1227, 30.2375 ], [ 76.1083, 30.2209 ], [ 76.0812, 30.2201 ], [ 76.0777, 30.225 ], [ 76.0625, 30.211 ], [ 76.0685, 30.2062 ], [ 76.0493, 30.1867 ], [ 76.0572, 30.1648 ], [ 76.0737, 30.1519 ], [ 76.0623, 30.1443 ], [ 76.079, 30.136 ], [ 76.0718, 30.1243 ], [ 76.0836, 30.1197 ], [ 76.0787, 30.1111 ], [ 76.0967, 30.1163 ], [ 76.1047, 30.1036 ], [ 76.0811, 30.0638 ], [ 76.0873, 30.0546 ], [ 76.0708, 30.0598 ], [ 76.0659, 30.0551 ], [ 76.0665, 30.0612 ], [ 76.0569, 30.0665 ], [ 76.0436, 30.0524 ], [ 76.0518, 30.0495 ], [ 76.0415, 30.0481 ], [ 76.0376, 30.0379 ], [ 76.042, 30.0274 ], [ 76.0342, 30.0186 ], [ 76.0286, 30.0203 ], [ 76.0267, 30.0129 ], [ 76.0321, 30.0106 ], [ 76.015, 30.0 ], [ 76.0068, 29.9833 ], [ 76.0268, 29.9724 ], [ 76.0207, 29.9662 ], [ 76.0264, 29.9598 ], [ 76.0035, 29.9448 ], [ 75.9897, 29.9457 ], [ 75.9848, 29.9362 ], [ 75.9899, 29.9226 ], [ 75.9864, 29.9026 ], [ 76.0119, 29.8905 ] ], [ [ 75.9603, 29.8894 ], [ 75.9741, 29.895 ], [ 75.9793, 29.9043 ], [ 75.9679, 29.916 ], [ 75.97, 29.9319 ], [ 75.9664, 29.9126 ], [ 75.948, 29.9212 ], [ 75.9296, 29.9087 ], [ 75.9603, 29.8894 ] ] ], [ [ [ 76.0632, 30.0315 ], [ 76.0657, 30.0324 ], [ 76.0673, 30.0295 ], [ 76.0632, 30.0315 ] ] ], [ [ [ 76.0625, 30.0558 ], [ 76.0613, 30.0493 ], [ 76.0564, 30.0525 ], [ 76.0625, 30.0558 ] ] ] ] } },
{ "type": "Feature", "properties": { "district": "Sas Nagar (sahibzada Ajit Singh Nagar)", "did": "punjab:Sas Nagar (sahibzada Ajit Singh Nagar)", "state_key": "punjab" }, "geometry": { "type": "Polygon", "coordinates": [ [ [ 76.8088, 30.6673 ], [ 76.8274, 30.6821 ], [ 76.8326, 30.6631 ], [ 76.8458, 30.6686 ], [ 76.845, 30.659 ], [ 76.853, 30.6572 ], [ 76.8764, 30.6805 ], [ 76.8712, 30.6421 ], [ 76.8851, 30.6453 ], [ 76.8965, 30.6358 ], [ 76.8956, 30.6289 ], [ 76.9101, 30.6261 ], [ 76.9135, 30.6114 ], [ 76.926, 30.6101 ], [ 76.9202, 30.5932 ], [ 76.9097, 30.5919 ], [ 76.9198, 30.5852 ], [ 76.909, 30.5647 ], [ 76.9175, 30.5591 ], [ 76.9162, 30.5537 ], [ 76.9049, 30.543 ], [ 76.8865, 30.5498 ], [ 76.8961, 30.5381 ], [ 76.9125, 30.534 ], [ 76.9156, 30.5257 ], [ 76.932, 30.5222 ], [ 76.9312, 30.5004 ], [ 76.9189, 30.4894 ], [ 76.9108, 30.4943 ], [ 76.899, 30.4888 ], [ 76.9138, 30.4677 ], [ 76.8976, 30.4371 ], [ 76.905, 30.4341 ], [ 76.9123, 30.4429 ], [ 76.9064, 30.4336 ], [ 76.9165, 30.4262 ], [ 76.9124, 30.4205 ], [ 76.9194, 30.4074 ], [ 76.9124, 30.4006 ], [ 76.9327, 30.4017 ], [ 76.9414, 30.3936 ], [ 76.9169, 30.3649 ], [ 76.8983, 30.3588 ], [ 76.8903, 30.3694 ], [ 76.898, 30.3821 ], [ 76.8807, 30.3939 ], [ 76.8834, 30.4086 ], [ 76.8561, 30.4176 ], [ 76.8468, 30.4381 ], [ 76.8218, 30.4127 ], [ 76.8093, 30.4176 ], [ 76.787, 30.4162 ], [ 76.7743, 30.4264 ], [ 76.7849, 30.4354 ], [ 76.7743, 30.4433 ], [ 76.7656, 30.4325 ], [ 76.7482, 30.4288 ], [ 76.7464, 30.4431 ], [ 76.7585, 30.4511 ], [ 76.753, 30.4698 ], [ 76.7654, 30.4754 ], [ 76.7691, 30.5035 ], [ 76.787, 30.5189 ], [ 76.7542, 30.5331 ], [ 76.7507, 30.5523 ], [ 76.7592, 30.5577 ], [ 76.7692, 30.5519 ], [ 76.762, 30.5595 ], [ 76.7756, 30.5742 ], [ 76.7725, 30.5831 ], [ 76.788, 30.5973 ], [ 76.7857, 30.6033 ], [ 76.7731, 30.6104 ], [ 76.7636, 30.6059 ], [ 76.7351, 30.5717 ], [ 76.7188, 30.5898 ], [ 76.7034, 30.587 ], [ 76.7039, 30.5736 ], [ 76.6876, 30.5718 ], [ 76.6836, 30.5791 ], [ 76.6894, 30.5936 ], [ 76.6629, 30.5831 ], [ 76.6685, 30.5933 ], [ 76.6658, 30.611 ], [ 76.6583, 30.6105 ], [ 76.6523, 30.6257 ], [ 76.6414, 30.6275 ], [ 76.6333, 30.6189 ], [ 76.6259, 30.6449 ], [ 76.6199, 30.6419 ], [ 76.6034, 30.6551 ], [ 76.5985, 30.6521 ], [ 76.5875, 30.6672 ], [ 76.5761, 30.6653 ], [ 76.5661, 30.6863 ], [ 76.5541, 30.6904 ], [ 76.5513, 30.7087 ], [ 76.5345, 30.7101 ], [ 76.5314, 30.7245 ], [ 76.5215, 30.733 ], [ 76.5318, 30.7409 ], [ 76.5221, 30.757 ], [ 76.5407, 30.7802 ], [ 76.5587, 30.7858 ], [ 76.5557, 30.7964 ], [ 76.562, 30.7999 ], [ 76.5595, 30.8149 ], [ 76.5649, 30.8184 ], [ 76.5529, 30.8381 ], [ 76.584, 30.8517 ], [ 76.5821, 30.8591 ], [ 76.5698, 30.8513 ], [ 76.5667, 30.8668 ], [ 76.5781, 30.8692 ], [ 76.5733, 30.8594 ], [ 76.5862, 30.8595 ], [ 76.5904, 30.8512 ], [ 76.6033, 30.8582 ], [ 76.5971, 30.8735 ], [ 76.6092, 30.883 ], [ 76.6068, 30.8905 ], [ 76.6631, 30.915 ], [ 76.6799, 30.9143 ], [ 76.7004, 30.9319 ], [ 76.7173, 30.9288 ], [ 76.7366, 30.9384 ], [ 76.7485, 30.9267 ], [ 76.7565, 30.9282 ], [ 76.7663, 30.9211 ], [ 76.7841, 30.8783 ], [ 76.8147, 30.8524 ], [ 76.814, 30.843 ], [ 76.823, 30.8448 ], [ 76.8467, 30.8339 ], [ 76.8453, 30.8072 ], [ 76.857, 30.7947 ], [ 76.8418, 30.7745 ], [ 76.8375, 30.7541 ], [ 76.8264, 30.7633 ], [ 76.8156, 30.7527 ], [ 76.8054, 30.765 ], [ 76.8196, 30.7737 ], [ 76.8135, 30.7802 ], [ 76.7917, 30.7687 ], [ 76.7835, 30.7706 ], [ 76.7828, 30.7892 ], [ 76.7715, 30.7952 ], [ 76.7517, 30.7842 ], [ 76.7438, 30.7699 ], [ 76.7108, 30.761 ], [ 76.7052, 30.7429 ], [ 76.7311, 30.7236 ], [ 76.73, 30.7068 ], [ 76.7391, 30.7057 ], [ 76.7393, 30.6929 ], [ 76.7472, 30.6955 ], [ 76.7478, 30.6875 ], [ 76.7643, 30.6864 ], [ 76.7769, 30.6703 ], [ 76.7902, 30.6756 ], [ 76.7969, 30.6674 ], [ 76.8088, 30.6673 ] ] ] } },
{ "type": "Feature", "properties": { "district": "Shahid Bhagat Singh Nagar", "did": "punjab:Shahid Bhagat Singh Nagar", "state_key": "punjab" }, "geometry": { "type": "Polygon", "coordinates": [ [ [ 76.2097, 31.1371 ], [ 76.2009, 31.1561 ], [ 76.2076, 31.1594 ], [ 76.1951, 31.1842 ], [ 76.2089, 31.1913 ], [ 76.2121, 31.1854 ], [ 76.2344, 31.1858 ], [ 76.246, 31.1964 ], [ 76.2367, 31.2068 ], [ 76.2265, 31.1986 ], [ 76.2406, 31.2254 ], [ 76.2391, 31.2444 ], [ 76.2772, 31.2352 ], [ 76.2948, 31.2204 ], [ 76.3182, 31.2142 ], [ 76.3347, 31.2248 ], [ 76.355, 31.2061 ], [ 76.3834, 31.1534 ], [ 76.4292, 31.1162 ], [ 76.4324, 31.1058 ], [ 76.4258, 31.0958 ], [ 76.4573, 31.0542 ], [ 76.467, 31.0316 ], [ 76.5187, 30.9954 ], [ 76.5121, 30.9823 ], [ 76.4936, 30.9754 ], [ 76.4795, 30.9795 ], [ 76.4384, 30.972 ], [ 76.3692, 30.9747 ], [ 76.3582, 30.9691 ], [ 76.3428, 30.9749 ], [ 76.345, 30.9806 ], [ 76.3251, 30.9792 ], [ 76.3268, 30.9943 ], [ 76.2966, 30.9884 ], [ 76.2927, 30.9991 ], [ 76.2768, 31.0001 ], [ 76.2894, 31.0046 ], [ 76.2747, 31.0154 ], [ 76.2639, 31.003 ], [ 76.2563, 31.0103 ], [ 76.241, 31.0023 ], [ 76.2245, 31.0026 ], [ 76.2199, 31.0116 ], [ 76.2109, 31.0119 ], [ 76.2134, 31.0044 ], [ 76.2046, 31.0 ], [ 76.184, 31.0052 ], [ 76.1879, 30.996 ], [ 76.1805, 30.992 ], [ 76.1748, 30.9958 ], [ 76.1666, 30.9932 ], [ 76.1688, 30.9894 ], [ 76.1431, 30.9858 ], [ 76.1362, 30.9975 ], [ 76.1207, 30.993 ], [ 76.0627, 31.0002 ], [ 76.0268, 30.9968 ], [ 75.9911, 31.0094 ], [ 75.9878, 31.0039 ], [ 75.9709, 31.004 ], [ 75.9691, 31.0151 ], [ 75.9512, 31.0216 ], [ 75.9451, 31.0587 ], [ 75.9306, 31.065 ], [ 75.9267, 31.0942 ], [ 75.9127, 31.0993 ], [ 75.9161, 31.1073 ], [ 75.9033, 31.1254 ], [ 75.8981, 31.1553 ], [ 75.8857, 31.1457 ], [ 75.8858, 31.1661 ], [ 75.8727, 31.1626 ], [ 75.8627, 31.1739 ], [ 75.8545, 31.1746 ], [ 75.8515, 31.1829 ], [ 75.8142, 31.1881 ], [ 75.7882, 31.1984 ], [ 75.788, 31.205 ], [ 75.7981, 31.2162 ], [ 75.8548, 31.2333 ], [ 75.8553, 31.2563 ], [ 75.8433, 31.2628 ], [ 75.8431, 31.2824 ], [ 75.8507, 31.2838 ], [ 75.8705, 31.2729 ], [ 75.8753, 31.2621 ], [ 75.8687, 31.2576 ], [ 75.8688, 31.2455 ], [ 75.8749, 31.244 ], [ 75.9097, 31.26 ], [ 75.8958, 31.2658 ], [ 75.8924, 31.276 ], [ 75.9156, 31.2845 ], [ 75.9306, 31.2684 ], [ 75.9338, 31.2742 ], [ 75.9421, 31.2738 ], [ 75.9545, 31.2613 ], [ 75.9539, 31.2533 ], [ 75.9664, 31.2577 ], [ 75.9705, 31.2523 ], [ 75.9912, 31.261 ], [ 76.0074, 31.2444 ], [ 76.0253, 31.2591 ], [ 76.0279, 31.2426 ], [ 76.0547, 31.2263 ], [ 76.0449, 31.2186 ], [ 76.0495, 31.2133 ], [ 76.0654, 31.2188 ], [ 76.0657, 31.2259 ], [ 76.0866, 31.2243 ], [ 76.0854, 31.2033 ], [ 76.0938, 31.1862 ], [ 76.1171, 31.1667 ], [ 76.1298, 31.1693 ], [ 76.1373, 31.1468 ], [ 76.1558, 31.1526 ], [ 76.156, 31.1408 ], [ 76.1703, 31.1342 ], [ 76.2097, 31.1371 ] ] ] } },
{ "type": "Feature", "properties": { "district": "Sri Muktsar Sahib", "did": "punjab:Sri Muktsar Sahib", "state_key": "punjab" }, "geometry": { "type": "Polygon", "coordinates": [ [ [ 74.684, 30.1105 ], [ 74.6738, 30.0899 ], [ 74.6766, 30.0812 ], [ 74.6828, 30.0721 ], [ 74.7048, 30.0651 ], [ 74.6941, 30.0492 ], [ 74.6942, 30.0337 ], [ 74.7171, 30.0129 ], [ 74.7008, 29.9871 ], [ 74.7069, 29.977 ], [ 74.6944, 29.9678 ], [ 74.6821, 29.9435 ], [ 74.6515, 29.9263 ], [ 74.6468, 29.9113 ], [ 74.6544, 29.9057 ], [ 74.6303, 29.905 ], [ 74.5973, 29.9128 ], [ 74.5799, 29.9257 ], [ 74.559, 29.9273 ], [ 74.5316, 29.9497 ], [ 74.5272, 29.9429 ], [ 74.4482, 29.9472 ], [ 74.4321, 29.9675 ], [ 74.422, 29.9979 ], [ 74.4596, 30.0064 ], [ 74.4611, 30.0142 ], [ 74.4514, 30.0298 ], [ 74.4081, 30.0282 ], [ 74.4141, 30.0358 ], [ 74.3927, 30.0566 ], [ 74.3889, 30.0746 ], [ 74.3656, 30.0874 ], [ 74.3718, 30.1078 ], [ 74.3819, 30.1117 ], [ 74.4129, 30.0975 ], [ 74.3813, 30.1308 ], [ 74.3747, 30.1535 ], [ 74.3357, 30.1638 ], [ 74.358, 30.2407 ], [ 74.3235, 30.2449 ], [ 74.2862, 30.2333 ], [ 74.2637, 30.2465 ], [ 74.283, 30.2748 ], [ 74.2976, 30.2652 ], [ 74.3031, 30.3083 ], [ 74.3254, 30.3293 ], [ 74.3077, 30.3701 ], [ 74.3145, 30.3867 ], [ 74.3534, 30.3821 ], [ 74.3584, 30.3959 ], [ 74.3509, 30.4054 ], [ 74.2443, 30.4277 ], [ 74.2712, 30.4278 ], [ 74.3065, 30.4462 ], [ 74.3276, 30.4453 ], [ 74.3438, 30.4635 ], [ 74.3462, 30.4844 ], [ 74.3626, 30.4803 ], [ 74.3754, 30.4843 ], [ 74.3837, 30.5 ], [ 74.373, 30.5125 ], [ 74.3988, 30.5268 ], [ 74.4011, 30.5353 ], [ 74.375, 30.5487 ], [ 74.3798, 30.5575 ], [ 74.3671, 30.5861 ], [ 74.3979, 30.597 ], [ 74.4195, 30.597 ], [ 74.4138, 30.6122 ], [ 74.4403, 30.6261 ], [ 74.4618, 30.6083 ], [ 74.4642, 30.6155 ], [ 74.458, 30.6204 ], [ 74.494, 30.6372 ], [ 74.482, 30.6405 ], [ 74.4764, 30.6552 ], [ 74.4834, 30.6639 ], [ 74.4971, 30.663 ], [ 74.5046, 30.6693 ], [ 74.5728, 30.663 ], [ 74.5892, 30.6579 ], [ 74.6138, 30.6367 ], [ 74.6189, 30.6393 ], [ 74.6239, 30.6182 ], [ 74.6363, 30.6158 ], [ 74.6434, 30.5973 ], [ 74.6588, 30.593 ], [ 74.6687, 30.5789 ], [ 74.7092, 30.5583 ], [ 74.7019, 30.5404 ], [ 74.6855, 30.5272 ], [ 74.6884, 30.5181 ], [ 74.7138, 30.5121 ], [ 74.7375, 30.4928 ], [ 74.7607, 30.4933 ], [ 74.7629, 30.4838 ], [ 74.7414, 30.473 ], [ 74.7294, 30.457 ], [ 74.7593, 30.4228 ], [ 74.753, 30.394 ], [ 74.7576, 30.39 ], [ 74.7698, 30.3973 ], [ 74.8051, 30.3971 ], [ 74.8072, 30.4011 ], [ 74.8217, 30.3928 ], [ 74.7963, 30.3555 ], [ 74.7926, 30.3368 ], [ 74.7239, 30.3659 ], [ 74.6991, 30.356 ], [ 74.7854, 30.3366 ], [ 74.7623, 30.3204 ], [ 74.7463, 30.3208 ], [ 74.7241, 30.3087 ], [ 74.7521, 30.2871 ], [ 74.7425, 30.2783 ], [ 74.7344, 30.2788 ], [ 74.7181, 30.2483 ], [ 74.7255, 30.2299 ], [ 74.713, 30.2134 ], [ 74.712, 30.1966 ], [ 74.7345, 30.1923 ], [ 74.735, 30.1753 ], [ 74.7029, 30.1601 ], [ 74.6907, 30.1618 ], [ 74.6868, 30.168 ], [ 74.6526, 30.1611 ], [ 74.6297, 30.1306 ], [ 74.6499, 30.1103 ], [ 74.684, 30.1105 ] ] ] } },
{ "type": "Feature", "properties": { "district": "Tarn Taran", "did": "punjab:Tarn Taran", "state_key": "punjab" }, "geometry": { "type": "Polygon", "coordinates": [ [ [ 74.9492, 31.1523 ], [ 74.918, 31.1621 ], [ 74.9019, 31.1493 ], [ 74.8855, 31.1555 ], [ 74.8441, 31.1325 ], [ 74.8096, 31.1346 ], [ 74.8066, 31.1398 ], [ 74.7995, 31.128 ], [ 74.8006, 31.115 ], [ 74.7892, 31.13 ], [ 74.7657, 31.1255 ], [ 74.7554, 31.1162 ], [ 74.7417, 31.1186 ], [ 74.7415, 31.1039 ], [ 74.7207, 31.1016 ], [ 74.7079, 31.072 ], [ 74.6959, 31.0742 ], [ 74.6906, 31.0815 ], [ 74.7024, 31.0917 ], [ 74.6891, 31.128 ], [ 74.667, 31.1243 ], [ 74.6592, 31.134 ], [ 74.6362, 31.1183 ], [ 74.6309, 31.1327 ], [ 74.6031, 31.1336 ], [ 74.5965, 31.1276 ], [ 74.61, 31.1117 ], [ 74.6107, 31.0993 ], [ 74.5994, 31.0931 ], [ 74.6008, 31.088 ], [ 74.5891, 31.0925 ], [ 74.5888, 31.0878 ], [ 74.5713, 31.0814 ], [ 74.5515, 31.0864 ], [ 74.5484, 31.1219 ], [ 74.5104, 31.1319 ], [ 74.5152, 31.1521 ], [ 74.5108, 31.1812 ], [ 74.5195, 31.1839 ], [ 74.526, 31.2118 ], [ 74.517, 31.2279 ], [ 74.5192, 31.2336 ], [ 74.5282, 31.24 ], [ 74.5327, 31.2497 ], [ 74.5206, 31.2689 ], [ 74.542, 31.3038 ], [ 74.5263, 31.312 ], [ 74.5348, 31.3135 ], [ 74.5374, 31.3307 ], [ 74.5489, 31.3348 ], [ 74.5518, 31.3646 ], [ 74.5846, 31.3804 ], [ 74.5966, 31.4162 ], [ 74.6089, 31.4237 ], [ 74.6193, 31.42 ], [ 74.6224, 31.4301 ], [ 74.6426, 31.4161 ], [ 74.6546, 31.426 ], [ 74.6386, 31.4444 ], [ 74.6521, 31.4573 ], [ 74.6361, 31.4776 ], [ 74.6275, 31.4769 ], [ 74.6293, 31.4839 ], [ 74.6365, 31.4848 ], [ 74.6252, 31.486 ], [ 74.6224, 31.4819 ], [ 74.6109, 31.499 ], [ 74.6284, 31.5159 ], [ 74.6268, 31.5254 ], [ 74.6493, 31.5404 ], [ 74.6696, 31.5326 ], [ 74.68, 31.5502 ], [ 74.7069, 31.5394 ], [ 74.7118, 31.5503 ], [ 74.7296, 31.5633 ], [ 74.7539, 31.5583 ], [ 74.7529, 31.5657 ], [ 74.7733, 31.5595 ], [ 74.7939, 31.5708 ], [ 74.8049, 31.5581 ], [ 74.819, 31.5565 ], [ 74.8171, 31.5444 ], [ 74.823, 31.5366 ], [ 74.8307, 31.5389 ], [ 74.8446, 31.531 ], [ 74.878, 31.5377 ], [ 74.8891, 31.5544 ], [ 74.899, 31.5528 ], [ 74.9013, 31.5237 ], [ 74.9168, 31.5276 ], [ 74.9374, 31.5235 ], [ 74.9383, 31.5094 ], [ 74.9526, 31.4967 ], [ 74.9651, 31.5141 ], [ 74.9773, 31.5127 ], [ 74.9729, 31.5183 ], [ 74.982, 31.5267 ], [ 74.9936, 31.5043 ], [ 75.0066, 31.5246 ], [ 75.0182, 31.5235 ], [ 75.0314, 31.5324 ], [ 75.03, 31.5267 ], [ 75.0416, 31.5252 ], [ 75.0478, 31.5171 ], [ 75.0705, 31.5287 ], [ 75.0833, 31.5208 ], [ 75.1084, 31.5237 ], [ 75.1102, 31.5119 ], [ 75.1246, 31.4952 ], [ 75.1386, 31.5087 ], [ 75.1626, 31.512 ], [ 75.1679, 31.5246 ], [ 75.1789, 31.5293 ], [ 75.1913, 31.5205 ], [ 75.1842, 31.5073 ], [ 75.1951, 31.5007 ], [ 75.2009, 31.5044 ], [ 75.2283, 31.4913 ], [ 75.2334, 31.4989 ], [ 75.2505, 31.5024 ], [ 75.2799, 31.4817 ], [ 75.2646, 31.4787 ], [ 75.2433, 31.4552 ], [ 75.235, 31.4593 ], [ 75.2245, 31.4219 ], [ 75.2141, 31.4219 ], [ 75.2101, 31.4351 ], [ 75.1917, 31.4331 ], [ 75.1865, 31.4147 ], [ 75.1943, 31.408 ], [ 75.1786, 31.3989 ], [ 75.1683, 31.3791 ], [ 75.1633, 31.3829 ], [ 75.156, 31.3651 ], [ 75.1644, 31.3567 ], [ 75.146, 31.3367 ], [ 75.1478, 31.3201 ], [ 75.1346, 31.3105 ], [ 75.1183, 31.3203 ], [ 75.1068, 31.3168 ], [ 75.1096, 31.3109 ], [ 75.0934, 31.2838 ], [ 75.1039, 31.2797 ], [ 75.0822, 31.2737 ], [ 75.081, 31.2498 ], [ 75.0594, 31.2309 ], [ 75.0598, 31.2106 ], [ 75.0479, 31.191 ], [ 75.0043, 31.1741 ], [ 74.9821, 31.1589 ], [ 74.9492, 31.1523 ] ] ] } }
]
}
