{
"type": "FeatureCollection",
"crs": { "type": "name", "properties": { "name": "urn:ogc:def:crs:OGC:1.3:CRS84" } },
"xy_coordinate_resolution": 0.0001,
"features": [
{ "type": "Feature", "properties": { "district": "Karaikal", "did": "puducherry:Karaikal", "state_key": "puducherry" }, "geometry": { "type": "MultiPolygon", "coordinates": [ [ [ [ 79.8061, 10.8796 ], [ 79.8098, 10.8804 ], [ 79.81, 10.8784 ], [ 79.8061, 10.8796 ] ] ], [ [ [ 79.8279, 10.9981 ], [ 79.8294, 11.0021 ], [ 79.8401, 11.0016 ], [ 79.8394, 10.9958 ], [ 79.8515, 10.9939 ], [ 79.8538, 10.9832 ], [ 79.8507, 10.8278 ], [ 79.8311, 10.8274 ], [ 79.8281, 10.8497 ], [ 79.8211, 10.8456 ], [ 79.8079, 10.8556 ], [ 79.8075, 10.8654 ], [ 79.8117, 10.8597 ], [ 79.8249, 10.8648 ], [ 79.8224, 10.8742 ], [ 79.8111, 10.8756 ], [ 79.8113, 10.8803 ], [ 79.8286, 10.8838 ], [ 79.8043, 10.8911 ], [ 79.7947, 10.8875 ], [ 79.7904, 10.8949 ], [ 79.7837, 10.8885 ], [ 79.7826, 10.8953 ], [ 79.7939, 10.8987 ], [ 79.7914, 10.9048 ], [ 79.7954, 10.9027 ], [ 79.7893, 10.9084 ], [ 79.7774, 10.9089 ], [ 79.777, 10.8966 ], [ 79.7563, 10.8918 ], [ 79.7636, 10.8997 ], [ 79.757, 10.8965 ], [ 79.763, 10.9136 ], [ 79.7434, 10.9148 ], [ 79.7431, 10.925 ], [ 79.7247, 10.9297 ], [ 79.7296, 10.9363 ], [ 79.7233, 10.9352 ], [ 79.7241, 10.9413 ], [ 79.7372, 10.9491 ], [ 79.7367, 10.9574 ], [ 79.7327, 10.9514 ], [ 79.72, 10.9526 ], [ 79.7237, 10.9698 ], [ 79.7457, 10.9657 ], [ 79.7461, 10.9563 ], [ 79.764, 10.9598 ], [ 79.7528, 10.9769 ], [ 79.7586, 10.9835 ], [ 79.7474, 10.9883 ], [ 79.7472, 11.0029 ], [ 79.7865, 10.9972 ], [ 79.7864, 10.9896 ], [ 79.7978, 10.9825 ], [ 79.805, 10.9984 ], [ 79.8279, 10.9981 ] ], [ [ 79.7623, 10.9034 ], [ 79.7622, 10.9015 ], [ 79.7679, 10.9018 ], [ 79.7641, 10.9122 ], [ 79.7623, 10.9034 ] ], [ [ 79.7669, 10.9002 ], [ 79.7694, 10.9 ], [ 79.7704, 10.9014 ], [ 79.7662, 10.9006 ], [ 79.7666, 10.8986 ], [ 79.7669, 10.9002 ] ] ], [ [ [ 79.7395, 10.9214 ], [ 79.7397, 10.9198 ], [ 79.7389, 10.9199 ], [ 79.7395, 10.9214 ] ] ], [ [ [ 79.7225, 10.9383 ], [ 79.7223, 10.9352 ], [ 79.7205, 10.9362 ], [ 79.7225, 10.9383 ] ] ], [ [ [ 79.7197, 10.9548 ], [ 79.7183, 10.9548 ], [ 79.7184, 10.9559 ], [ 79.7197, 10.9548 ] ] ] ] } },
{ "type": "Feature", "properties": { "district": "Mahe", "did": "puducherry:Mahe", "state_key": "puducherry" }, "geometry": { "type": "MultiPolygon", "coordinates": [ [ [ [ 75.5362, 11.6935 ], [ 75.529, 11.7013 ], [ 75.5357, 11.7097 ], [ 75.5442, 11.7045 ], [ 75.5362, 11.6935 ] ] ], [ [ [ 75.5464, 11.7563 ], [ 75.5421, 11.7372 ], [ 75.5556, 11.7276 ], [ 75.5553, 11.7215 ], [ 75.5478, 11.7154 ], [ 75.5365, 11.7193 ], [ 75.531, 11.7083 ], [ 75.5266, 11.7261 ], [ 75.5415, 11.7389 ], [ 75.5312, 11.7587 ], [ 75.5384, 11.7625 ], [ 75.5464, 11.7563 ] ] ] ] } },
{ "type": "Feature", "properties": { "district": "Puducherry", "did": "puducherry:Puducherry", "state_key": "puducherry" }, "geometry": { "type": "MultiPolygon", "coordinates": [ [ [ [ 79.6897, 11.8021 ], [ 79.6814, 11.7962 ], [ 79.6746, 11.8035 ], [ 79.6759, 11.8143 ], [ 79.6857, 11.8125 ], [ 79.6897, 11.8021 ] ] ], [ [ [ 79.7042, 11.8135 ], [ 79.693, 11.8137 ], [ 79.6946, 11.823 ], [ 79.7042, 11.8135 ] ] ], [ [ [ 79.6618, 11.8394 ], [ 79.6624, 11.8258 ], [ 79.6713, 11.8236 ], [ 79.6713, 11.8149 ], [ 79.648, 11.8154 ], [ 79.6411, 11.8228 ], [ 79.6473, 11.8442 ], [ 79.6618, 11.8394 ] ] ], [ [ [ 79.6991, 11.8613 ], [ 79.696, 11.8604 ], [ 79.6972, 11.8741 ], [ 79.6991, 11.8613 ] ] ], [ [ [ 79.7537, 11.8497 ], [ 79.7431, 11.8483 ], [ 79.7397, 11.8646 ], [ 79.7211, 11.8625 ], [ 79.7171, 11.8549 ], [ 79.7083, 11.8691 ], [ 79.71, 11.8892 ], [ 79.674, 11.8807 ], [ 79.6738, 11.8916 ], [ 79.6868, 11.8889 ], [ 79.6872, 11.8945 ], [ 79.6954, 11.8948 ], [ 79.6962, 11.9192 ], [ 79.7187, 11.919 ], [ 79.718, 11.9134 ], [ 79.7066, 11.9136 ], [ 79.7053, 11.8939 ], [ 79.7112, 11.8907 ], [ 79.7289, 11.8902 ], [ 79.7313, 11.9032 ], [ 79.7407, 11.9054 ], [ 79.7175, 11.929 ], [ 79.7209, 11.9449 ], [ 79.7097, 11.95 ], [ 79.7112, 11.9331 ], [ 79.6917, 11.9513 ], [ 79.6957, 11.9639 ], [ 79.698, 11.9605 ], [ 79.7026, 11.967 ], [ 79.715, 11.9676 ], [ 79.7093, 11.9758 ], [ 79.7124, 11.9866 ], [ 79.7159, 11.9848 ], [ 79.7206, 11.9927 ], [ 79.7334, 11.9933 ], [ 79.7465, 12.0077 ], [ 79.7624, 12.0027 ], [ 79.7604, 11.9892 ], [ 79.7419, 11.9777 ], [ 79.7265, 11.9858 ], [ 79.7235, 11.977 ], [ 79.7245, 11.9712 ], [ 79.7445, 11.965 ], [ 79.7503, 11.9199 ], [ 79.7622, 11.9285 ], [ 79.7599, 11.9436 ], [ 79.7715, 11.9439 ], [ 79.7847, 11.9599 ], [ 79.8051, 11.9533 ], [ 79.8126, 11.9779 ], [ 79.8185, 11.9779 ], [ 79.8289, 11.9583 ], [ 79.8406, 11.9558 ], [ 79.8078, 11.8366 ], [ 79.8022, 11.8545 ], [ 79.7843, 11.8559 ], [ 79.7759, 11.8384 ], [ 79.7694, 11.838 ], [ 79.7622, 11.8484 ], [ 79.7709, 11.8613 ], [ 79.7701, 11.8746 ], [ 79.7574, 11.8761 ], [ 79.7537, 11.8497 ] ], [ [ 79.7797, 11.8779 ], [ 79.7783, 11.8632 ], [ 79.7852, 11.8628 ], [ 79.7924, 11.8768 ], [ 79.7965, 11.8999 ], [ 79.7877, 11.8968 ], [ 79.7788, 11.9046 ], [ 79.7698, 11.9028 ], [ 79.7734, 11.8752 ], [ 79.7797, 11.8779 ] ] ], [ [ [ 79.6484, 11.8804 ], [ 79.6486, 11.8705 ], [ 79.6627, 11.8673 ], [ 79.6528, 11.8505 ], [ 79.6263, 11.8547 ], [ 79.6285, 11.8698 ], [ 79.6192, 11.8702 ], [ 79.6195, 11.8627 ], [ 79.602, 11.8579 ], [ 79.5994, 11.883 ], [ 79.6082, 11.8769 ], [ 79.6212, 11.8906 ], [ 79.6298, 11.8887 ], [ 79.6299, 11.8813 ], [ 79.6347, 11.8858 ], [ 79.6484, 11.8804 ] ] ], [ [ [ 79.6847, 11.9534 ], [ 79.6766, 11.9485 ], [ 79.6546, 11.9535 ], [ 79.6622, 11.9692 ], [ 79.6767, 11.9681 ], [ 79.6865, 11.9733 ], [ 79.6847, 11.9534 ] ] ], [ [ [ 79.651, 12.0218 ], [ 79.636, 11.996 ], [ 79.6415, 11.9916 ], [ 79.6364, 11.9778 ], [ 79.6485, 11.9676 ], [ 79.6426, 11.9421 ], [ 79.6575, 11.9481 ], [ 79.6607, 11.9372 ], [ 79.6693, 11.9375 ], [ 79.6707, 11.9316 ], [ 79.6627, 11.9131 ], [ 79.6321, 11.9013 ], [ 79.6253, 11.903 ], [ 79.628, 11.9206 ], [ 79.6185, 11.9261 ], [ 79.6189, 11.9433 ], [ 79.6284, 11.9451 ], [ 79.6288, 11.9596 ], [ 79.6275, 11.9681 ], [ 79.6186, 11.97 ], [ 79.6244, 11.9818 ], [ 79.6172, 11.9896 ], [ 79.6236, 11.9893 ], [ 79.6263, 12.0004 ], [ 79.6192, 12.0014 ], [ 79.6207, 12.0135 ], [ 79.629, 12.0188 ], [ 79.6251, 12.0313 ], [ 79.651, 12.0218 ] ] ], [ [ [ 79.7042, 12.0295 ], [ 79.703, 12.0082 ], [ 79.7196, 11.9922 ], [ 79.6855, 11.9916 ], [ 79.6809, 11.9834 ], [ 79.6739, 11.9951 ], [ 79.6609, 11.9892 ], [ 79.6598, 12.0106 ], [ 79.6713, 12.0101 ], [ 79.6755, 12.0214 ], [ 79.6834, 12.0216 ], [ 79.6915, 12.0347 ], [ 79.7042, 12.0295 ] ] ], [ [ [ 79.7644, 11.8337 ], [ 79.7678, 11.8227 ], [ 79.7802, 11.8318 ], [ 79.7975, 11.8246 ], [ 79.8007, 11.8306 ], [ 79.7936, 11.8323 ], [ 79.7983, 11.8387 ], [ 79.8071, 11.8335 ], [ 79.7959, 11.7857 ], [ 79.7844, 11.7873 ], [ 79.7805, 11.7811 ], [ 79.7719, 11.7822 ], [ 79.7659, 11.7918 ], [ 79.7551, 11.7752 ], [ 79.7129, 11.7908 ], [ 79.7139, 11.7963 ], [ 79.7228, 11.7965 ], [ 79.7245, 11.8104 ], [ 79.7357, 11.8093 ], [ 79.7294, 11.837 ], [ 79.7382, 11.8369 ], [ 79.7386, 11.8435 ], [ 79.7644, 11.8337 ] ] ], [ [ [ 79.7929, 11.8835 ], [ 79.7912, 11.8839 ], [ 79.7916, 11.885 ], [ 79.7929, 11.8835 ] ] ], [ [ [ 79.7907, 11.8945 ], [ 79.789, 11.895 ], [ 79.7893, 11.8958 ], [ 79.7907, 11.8945 ] ] ], [ [ [ 79.8057, 12.0245 ], [ 79.8019, 12.0171 ], [ 79.7891, 12.0182 ], [ 79.7888, 12.0264 ], [ 79.8057, 12.0245 ] ] ], [ [ [ 79.8409, 12.0132 ], [ 79.8498, 12.0513 ], [ 79.8736, 12.042 ], [ 79.8568, 12.0061 ], [ 79.8409, 12.0132 ] ] ] ] } },
{ "type": "Feature", "properties": { "district": "Yanam", "did": "puducherry:Yanam", "state_key": "puducherry" }, "geometry": { "type": "Polygon", "coordinates": [ [ [ 82.2969, 16.7531 ], [ 82.3055, 16.7525 ], [ 82.3106, 16.735 ], [ 82.3026, 16.7183 ], [ 82.2725, 16.7027 ], [ 82.2544, 16.7036 ], [ 82.2233, 16.7219 ], [ 82.2014, 16.7205 ], [ 82.1824, 16.7371 ], [ 82.1966, 16.7392 ], [ 82.2255, 16.7637 ], [ 82.2296, 16.7624 ], [ 82.2188, 16.74 ], [ 82.2282, 16.7304 ], [ 82.2885, 16.7349 ], [ 82.2969, 16.7531 ] ] ] } }
]
}
