{
"type": "FeatureCollection",
"crs": { "type": "name", "properties": { "name": "urn:ogc:def:crs:OGC:1.3:CRS84" } },
"xy_coordinate_resolution": 0.0001,
"features": [
{ "type": "Feature", "properties": { "district": "Kargil", "did": "ladakh:Kargil", "state_key": "ladakh" }, "geometry": { "type": "Polygon", "coordinates": [ [ [ 76.4202, 34.7209 ], [ 76.4451, 34.6857 ], [ 76.4489, 34.6583 ], [ 76.4728, 34.6337 ], [ 76.4701, 34.6259 ], [ 76.5255, 34.5942 ], [ 76.5305, 34.5739 ], [ 76.5612, 34.5704 ], [ 76.5762, 34.5582 ], [ 76.5986, 34.5602 ], [ 76.6225, 34.535 ], [ 76.6268, 34.5146 ], [ 76.6223, 34.5058 ], [ 76.6584, 34.4818 ], [ 76.6466, 34.449 ], [ 76.6279, 34.437 ], [ 76.6034, 34.403 ], [ 76.6247, 34.3794 ], [ 76.657, 34.3692 ], [ 76.7224, 34.3272 ], [ 76.702, 34.3071 ], [ 76.6967, 34.2788 ], [ 76.7009, 34.258 ], [ 76.6904, 34.242 ], [ 76.6748, 34.2398 ], [ 76.6779, 34.2333 ], [ 76.6708, 34.2226 ], [ 76.6816, 34.1805 ], [ 76.6608, 34.1478 ], [ 76.6716, 34.1289 ], [ 76.6728, 34.1046 ], [ 76.6872, 34.082 ], [ 76.6823, 34.076 ], [ 76.6724, 34.0772 ], [ 76.6695, 34.068 ], [ 76.6603, 34.0637 ], [ 76.6246, 34.0593 ], [ 76.6102, 34.0668 ], [ 76.5912, 34.0589 ], [ 76.5902, 34.0509 ], [ 76.5793, 34.0473 ], [ 76.5886, 34.0204 ], [ 76.5827, 34.0085 ], [ 76.5694, 34.0022 ], [ 76.5554, 34.0063 ], [ 76.5493, 33.9942 ], [ 76.5411, 33.9974 ], [ 76.5418, 33.9857 ], [ 76.5309, 33.9805 ], [ 76.5253, 33.9673 ], [ 76.5372, 33.9536 ], [ 76.5316, 33.9402 ], [ 76.5418, 33.9278 ], [ 76.5099, 33.8893 ], [ 76.5242, 33.8863 ], [ 76.5304, 33.8784 ], [ 76.5166, 33.8634 ], [ 76.5255, 33.8574 ], [ 76.5278, 33.8465 ], [ 76.5637, 33.8392 ], [ 76.5677, 33.8264 ], [ 76.5948, 33.8271 ], [ 76.6234, 33.8559 ], [ 76.6544, 33.8617 ], [ 76.672, 33.8409 ], [ 76.7065, 33.8232 ], [ 76.7181, 33.8015 ], [ 76.7288, 33.7958 ], [ 76.7757, 33.808 ], [ 76.795, 33.7954 ], [ 76.8286, 33.7938 ], [ 76.8596, 33.7743 ], [ 76.8736, 33.7727 ], [ 76.8895, 33.781 ], [ 76.9137, 33.7588 ], [ 76.9011, 33.7419 ], [ 76.9223, 33.735 ], [ 76.9407, 33.7164 ], [ 76.9657, 33.7115 ], [ 76.9854, 33.7241 ], [ 77.0192, 33.7044 ], [ 77.0537, 33.709 ], [ 77.1005, 33.672 ], [ 77.1204, 33.6765 ], [ 77.1291, 33.6854 ], [ 77.1492, 33.6797 ], [ 77.1631, 33.6642 ], [ 77.1756, 33.6629 ], [ 77.1835, 33.6495 ], [ 77.2068, 33.6396 ], [ 77.208, 33.6224 ], [ 77.238, 33.6022 ], [ 77.2331, 33.5908 ], [ 77.2558, 33.5292 ], [ 77.2842, 33.5091 ], [ 77.2822, 33.5015 ], [ 77.2985, 33.4878 ], [ 77.3372, 33.4931 ], [ 77.3611, 33.4767 ], [ 77.3971, 33.493 ], [ 77.44, 33.4952 ], [ 77.48, 33.4204 ], [ 77.5223, 33.4075 ], [ 77.5138, 33.3684 ], [ 77.5249, 33.3651 ], [ 77.5257, 33.3589 ], [ 77.5474, 33.3599 ], [ 77.5575, 33.3535 ], [ 77.5609, 33.3358 ], [ 77.5345, 33.3246 ], [ 77.5076, 33.324 ], [ 77.4946, 33.3136 ], [ 77.4992, 33.3012 ], [ 77.4759, 33.2762 ], [ 77.4936, 33.2596 ], [ 77.4924, 33.2464 ], [ 77.5206, 33.2199 ], [ 77.5247, 33.1946 ], [ 77.5375, 33.1809 ], [ 77.5379, 33.1582 ], [ 77.4905, 33.1846 ], [ 77.4834, 33.1938 ], [ 77.4538, 33.2062 ], [ 77.4186, 33.1985 ], [ 77.4025, 33.1721 ], [ 77.4102, 33.1648 ], [ 77.4092, 33.1443 ], [ 77.4177, 33.1362 ], [ 77.4112, 33.1274 ], [ 77.4156, 33.1012 ], [ 77.4079, 33.0865 ], [ 77.3636, 33.0803 ], [ 77.3391, 33.0873 ], [ 77.3358, 33.05 ], [ 77.3243, 33.0424 ], [ 77.3157, 33.0454 ], [ 77.3137, 33.0348 ], [ 77.2916, 33.0389 ], [ 77.2765, 32.9947 ], [ 77.2871, 32.9779 ], [ 77.2868, 32.9567 ], [ 77.3017, 32.9381 ], [ 77.3183, 32.8944 ], [ 77.3038, 32.8828 ], [ 77.2957, 32.8856 ], [ 77.2781, 32.8785 ], [ 77.2627, 32.8641 ], [ 77.2543, 32.8639 ], [ 77.2376, 32.8802 ], [ 77.243, 32.8922 ], [ 77.2029, 32.9065 ], [ 77.188, 32.9287 ], [ 77.1704, 32.9107 ], [ 77.1557, 32.9116 ], [ 77.1639, 32.9182 ], [ 77.1645, 32.9365 ], [ 77.1595, 32.9383 ], [ 77.1611, 32.9527 ], [ 77.1487, 32.9562 ], [ 77.1505, 32.9782 ], [ 77.116, 32.9847 ], [ 77.1108, 32.9751 ], [ 77.0865, 32.9724 ], [ 77.0802, 32.983 ], [ 77.0474, 32.9986 ], [ 77.0316, 32.9897 ], [ 77.0095, 32.9887 ], [ 76.9923, 33.0018 ], [ 76.9713, 33.0003 ], [ 76.9597, 33.0153 ], [ 76.9287, 33.0317 ], [ 76.9052, 33.0795 ], [ 76.9087, 33.0946 ], [ 76.8977, 33.0987 ], [ 76.8851, 33.1214 ], [ 76.8705, 33.1134 ], [ 76.8551, 33.1144 ], [ 76.8492, 33.1204 ], [ 76.8529, 33.1257 ], [ 76.843, 33.1303 ], [ 76.844, 33.1378 ], [ 76.83, 33.1428 ], [ 76.8167, 33.1603 ], [ 76.8135, 33.1772 ], [ 76.8224, 33.1851 ], [ 76.8174, 33.1941 ], [ 76.8345, 33.2048 ], [ 76.8256, 33.2157 ], [ 76.8432, 33.2467 ], [ 76.8307, 33.2492 ], [ 76.8201, 33.2358 ], [ 76.7992, 33.2562 ], [ 76.7565, 33.2485 ], [ 76.7371, 33.2611 ], [ 76.7385, 33.2687 ], [ 76.7277, 33.2835 ], [ 76.7321, 33.2993 ], [ 76.7177, 33.329 ], [ 76.6965, 33.3278 ], [ 76.671, 33.3418 ], [ 76.6724, 33.3492 ], [ 76.6586, 33.3576 ], [ 76.6515, 33.3834 ], [ 76.6321, 33.4092 ], [ 76.637, 33.4155 ], [ 76.629, 33.4349 ], [ 76.6164, 33.4399 ], [ 76.5934, 33.4258 ], [ 76.5818, 33.4258 ], [ 76.5695, 33.4662 ], [ 76.5496, 33.4641 ], [ 76.5229, 33.4934 ], [ 76.5078, 33.4996 ], [ 76.5021, 33.516 ], [ 76.4592, 33.5339 ], [ 76.4647, 33.5452 ], [ 76.4507, 33.5625 ], [ 76.4439, 33.5606 ], [ 76.4351, 33.5417 ], [ 76.4152, 33.5391 ], [ 76.3799, 33.5529 ], [ 76.3748, 33.5659 ], [ 76.3807, 33.577 ], [ 76.3665, 33.5858 ], [ 76.3587, 33.6037 ], [ 76.3362, 33.6105 ], [ 76.3222, 33.6023 ], [ 76.3077, 33.6096 ], [ 76.2996, 33.5982 ], [ 76.3098, 33.5715 ], [ 76.2596, 33.565 ], [ 76.2457, 33.5455 ], [ 76.225, 33.5476 ], [ 76.2054, 33.5692 ], [ 76.2252, 33.5773 ], [ 76.2314, 33.5869 ], [ 76.2242, 33.6003 ], [ 76.2403, 33.6048 ], [ 76.2294, 33.6298 ], [ 76.2705, 33.6433 ], [ 76.2847, 33.6618 ], [ 76.2662, 33.6795 ], [ 76.2632, 33.7121 ], [ 76.2712, 33.7307 ], [ 76.2655, 33.7464 ], [ 76.2471, 33.7585 ], [ 76.2126, 33.7612 ], [ 76.2108, 33.7712 ], [ 76.2004, 33.7756 ], [ 76.1987, 33.7872 ], [ 76.1847, 33.8002 ], [ 76.1614, 33.8019 ], [ 76.166, 33.8193 ], [ 76.1569, 33.83 ], [ 76.16, 33.8369 ], [ 76.1367, 33.8786 ], [ 76.123, 33.889 ], [ 76.0326, 33.9197 ], [ 76.0495, 33.9339 ], [ 76.0244, 33.9821 ], [ 76.018, 33.9751 ], [ 75.9782, 33.9722 ], [ 75.9665, 33.9545 ], [ 75.9085, 33.9689 ], [ 75.8525, 33.9623 ], [ 75.8444, 33.9542 ], [ 75.8307, 33.9587 ], [ 75.8196, 33.9722 ], [ 75.8431, 34.0048 ], [ 75.8183, 34.0075 ], [ 75.7969, 34.0304 ], [ 75.7692, 34.0413 ], [ 75.7685, 34.0549 ], [ 75.737, 34.0589 ], [ 75.7425, 34.0733 ], [ 75.7188, 34.1033 ], [ 75.6874, 34.116 ], [ 75.6912, 34.1276 ], [ 75.6832, 34.1324 ], [ 75.6857, 34.1422 ], [ 75.6679, 34.1443 ], [ 75.6845, 34.1668 ], [ 75.6898, 34.1961 ], [ 75.6805, 34.201 ], [ 75.6624, 34.1991 ], [ 75.6481, 34.212 ], [ 75.6046, 34.1952 ], [ 75.5934, 34.1977 ], [ 75.5799, 34.214 ], [ 75.5553, 34.2114 ], [ 75.5297, 34.2268 ], [ 75.4954, 34.2324 ], [ 75.4959, 34.241 ], [ 75.4824, 34.2551 ], [ 75.4822, 34.2716 ], [ 75.4749, 34.2776 ], [ 75.4592, 34.2794 ], [ 75.4536, 34.2859 ], [ 75.4395, 34.2795 ], [ 75.4046, 34.2839 ], [ 75.3889, 34.3055 ], [ 75.3961, 34.3167 ], [ 75.376, 34.3423 ], [ 75.3858, 34.3499 ], [ 75.3833, 34.367 ], [ 75.4525, 34.3928 ], [ 75.4822, 34.4215 ], [ 75.4987, 34.4695 ], [ 75.5355, 34.503 ], [ 75.5576, 34.5139 ], [ 75.795, 34.514 ], [ 75.8081, 34.5266 ], [ 75.8302, 34.5277 ], [ 75.8486, 34.5441 ], [ 75.8786, 34.5515 ], [ 75.8888, 34.5613 ], [ 75.9236, 34.6331 ], [ 75.9438, 34.6835 ], [ 75.9487, 34.7169 ], [ 75.9722, 34.7367 ], [ 75.9848, 34.7363 ], [ 76.0483, 34.6999 ], [ 76.0998, 34.6875 ], [ 76.1193, 34.6841 ], [ 76.1968, 34.6967 ], [ 76.2303, 34.6824 ], [ 76.2764, 34.7066 ], [ 76.3032, 34.7076 ], [ 76.36, 34.7335 ], [ 76.4482, 34.7518 ], [ 76.4194, 34.7374 ], [ 76.4202, 34.7209 ] ] ] } },
{ "type": "Feature", "properties": { "district": "Leh", "did": "ladakh:Leh", "state_key": "ladakh" }, "geometry": { "type": "Polygon", "coordinates": [ [ [ 74.7264, 37.0385 ], [ 74.7494, 37.0194 ], [ 74.7691, 37.0412 ], [ 74.8389, 37.0358 ], [ 74.8348, 37.0053 ], [ 74.9156, 36.9203 ], [ 74.954, 36.9546 ], [ 75.0157, 36.9907 ], [ 75.0371, 36.989 ], [ 75.0552, 36.9743 ], [ 75.0913, 36.9611 ], [ 75.1092, 36.9619 ], [ 75.153, 36.9882 ], [ 75.1969, 37.0424 ], [ 75.211, 37.05 ], [ 75.3208, 37.0643 ], [ 75.3413, 37.0608 ], [ 75.3544, 36.9885 ], [ 75.3689, 36.9752 ], [ 75.4037, 36.9822 ], [ 75.4184, 36.9724 ], [ 75.4249, 36.9524 ], [ 75.4069, 36.908 ], [ 75.4088, 36.9038 ], [ 75.4297, 36.905 ], [ 75.4498, 36.8889 ], [ 75.4633, 36.8303 ], [ 75.488, 36.8164 ], [ 75.6127, 36.7753 ], [ 75.6628, 36.7217 ], [ 75.7444, 36.6077 ], [ 75.807, 36.5634 ], [ 75.8524, 36.5583 ], [ 75.8908, 36.5328 ], [ 75.945, 36.5116 ], [ 76.0712, 36.4842 ], [ 76.1117, 36.4597 ], [ 76.164, 36.4065 ], [ 76.2007, 36.397 ], [ 76.2665, 36.3588 ], [ 76.3539, 36.3694 ], [ 76.4375, 36.3104 ], [ 76.4485, 36.272 ], [ 76.4368, 36.2578 ], [ 76.4482, 36.2463 ], [ 76.4683, 36.2403 ], [ 76.481, 36.2197 ], [ 76.5493, 36.2022 ], [ 76.5654, 36.1862 ], [ 76.5941, 36.1783 ], [ 76.6169, 36.178 ], [ 76.6447, 36.1977 ], [ 76.6559, 36.1922 ], [ 76.7111, 36.1401 ], [ 76.7201, 36.0977 ], [ 76.7522, 36.08 ], [ 76.7838, 36.0719 ], [ 76.8137, 36.0406 ], [ 76.8104, 36.0229 ], [ 76.7877, 36.0167 ], [ 76.759, 35.9803 ], [ 76.7363, 35.9663 ], [ 76.7321, 35.9546 ], [ 76.783, 35.9052 ], [ 76.7988, 35.8796 ], [ 76.8075, 35.8497 ], [ 76.8235, 35.8415 ], [ 76.8611, 35.836 ], [ 76.8874, 35.8126 ], [ 76.9356, 35.789 ], [ 76.9824, 35.7876 ], [ 77.001, 35.7756 ], [ 77.0452, 35.7773 ], [ 77.0911, 35.795 ], [ 77.1157, 35.7981 ], [ 77.127, 35.7943 ], [ 77.135, 35.78 ], [ 77.1522, 35.7686 ], [ 77.1764, 35.7681 ], [ 77.169, 35.7405 ], [ 77.1797, 35.7302 ], [ 77.213, 35.7333 ], [ 77.2419, 35.7085 ], [ 77.2583, 35.7043 ], [ 77.2764, 35.7084 ], [ 77.2874, 35.7226 ], [ 77.2991, 35.708 ], [ 77.3211, 35.701 ], [ 77.3355, 35.7198 ], [ 77.3659, 35.7152 ], [ 77.4018, 35.6815 ], [ 77.4028, 35.6635 ], [ 77.4116, 35.6563 ], [ 77.4379, 35.6561 ], [ 77.4401, 35.6021 ], [ 77.4466, 35.5939 ], [ 77.4719, 35.5843 ], [ 77.4756, 35.5714 ], [ 77.4652, 35.55 ], [ 77.4828, 35.5296 ], [ 77.4734, 35.5177 ], [ 77.4305, 35.5137 ], [ 77.3887, 35.5394 ], [ 77.362, 35.5432 ], [ 77.332, 35.5303 ], [ 77.3301, 35.5257 ], [ 77.3455, 35.5192 ], [ 77.3547, 35.4958 ], [ 77.3852, 35.4739 ], [ 77.4437, 35.4595 ], [ 77.4743, 35.465 ], [ 77.4961, 35.4778 ], [ 77.6286, 35.465 ], [ 77.6531, 35.4812 ], [ 77.6734, 35.4659 ], [ 77.6852, 35.4668 ], [ 77.6858, 35.4722 ], [ 77.7288, 35.4773 ], [ 77.7262, 35.5128 ], [ 77.7359, 35.5211 ], [ 77.7674, 35.4954 ], [ 77.7863, 35.488 ], [ 77.8292, 35.5051 ], [ 77.838, 35.4919 ], [ 77.8626, 35.4762 ], [ 77.8695, 35.4727 ], [ 77.8861, 35.4774 ], [ 77.8938, 35.4673 ], [ 77.9121, 35.4611 ], [ 77.921, 35.4879 ], [ 77.9293, 35.4903 ], [ 77.9773, 35.4489 ], [ 77.9853, 35.4483 ], [ 77.986, 35.4548 ], [ 77.9393, 35.5069 ], [ 77.9375, 35.5172 ], [ 77.9679, 35.5718 ], [ 77.9538, 35.6016 ], [ 77.9578, 35.6049 ], [ 78.0014, 35.5824 ], [ 78.0556, 35.5818 ], [ 78.0844, 35.552 ], [ 78.1058, 35.5534 ], [ 78.1368, 35.5366 ], [ 78.1649, 35.5517 ], [ 78.1596, 35.5815 ], [ 78.1734, 35.6056 ], [ 78.1698, 35.625 ], [ 78.1974, 35.6228 ], [ 78.1959, 35.6349 ], [ 78.2077, 35.6478 ], [ 78.212, 35.666 ], [ 78.2559, 35.6458 ], [ 78.2656, 35.6474 ], [ 78.2845, 35.6645 ], [ 78.2772, 35.677 ], [ 78.277, 35.7184 ], [ 78.2979, 35.7281 ], [ 78.338, 35.7189 ], [ 78.4039, 35.7358 ], [ 78.4159, 35.763 ], [ 78.4427, 35.7836 ], [ 78.5125, 35.772 ], [ 78.5342, 35.7625 ], [ 78.61, 35.8121 ], [ 78.6464, 35.8211 ], [ 78.6652, 35.8363 ], [ 78.6733, 35.8542 ], [ 78.7862, 35.8689 ], [ 78.82, 35.8565 ], [ 78.8391, 35.8561 ], [ 78.9251, 35.8675 ], [ 78.9692, 35.8902 ], [ 78.9824, 35.8897 ], [ 79.0322, 35.8477 ], [ 79.1424, 35.8348 ], [ 79.1647, 35.8382 ], [ 79.2128, 35.8779 ], [ 79.2045, 35.9277 ], [ 79.2131, 35.9545 ], [ 79.2309, 35.9722 ], [ 79.2517, 35.9848 ], [ 79.358, 35.9917 ], [ 79.4009, 35.9928 ], [ 79.4104, 35.986 ], [ 79.4303, 35.9081 ], [ 79.4402, 35.8941 ], [ 79.5362, 35.8796 ], [ 79.6193, 35.8453 ], [ 79.6823, 35.8325 ], [ 79.7284, 35.814 ], [ 79.7511, 35.7969 ], [ 79.899, 35.7751 ], [ 79.9383, 35.8099 ], [ 79.9677, 35.8252 ], [ 80.0157, 35.8262 ], [ 80.0426, 35.8027 ], [ 80.0775, 35.7257 ], [ 80.1005, 35.7062 ], [ 80.1289, 35.6567 ], [ 80.2131, 35.6387 ], [ 80.2686, 35.6154 ], [ 80.3117, 35.588 ], [ 80.3179, 35.5646 ], [ 80.3146, 35.5361 ], [ 80.3268, 35.5289 ], [ 80.3451, 35.4612 ], [ 80.3398, 35.4497 ], [ 80.2985, 35.417 ], [ 80.2975, 35.3529 ], [ 80.2512, 35.248 ], [ 80.2427, 35.208 ], [ 80.185, 35.1306 ], [ 80.1869, 35.008 ], [ 80.1272, 34.8725 ], [ 80.075, 34.8054 ], [ 80.0653, 34.6929 ], [ 79.9737, 34.6768 ], [ 79.9447, 34.6609 ], [ 79.9216, 34.6727 ], [ 79.8783, 34.6749 ], [ 79.8751, 34.6679 ], [ 79.8582, 34.6665 ], [ 79.8294, 34.6355 ], [ 79.7766, 34.6104 ], [ 79.7755, 34.6021 ], [ 79.7944, 34.5805 ], [ 79.7688, 34.5523 ], [ 79.7698, 34.5378 ], [ 79.821, 34.5145 ], [ 79.8161, 34.4831 ], [ 79.7914, 34.4668 ], [ 79.7538, 34.4672 ], [ 79.7444, 34.4621 ], [ 79.7259, 34.4698 ], [ 79.6818, 34.4708 ], [ 79.6534, 34.4806 ], [ 79.6148, 34.4793 ], [ 79.5984, 34.4868 ], [ 79.5222, 34.4636 ], [ 79.5316, 34.4088 ], [ 79.5667, 34.4056 ], [ 79.5689, 34.4006 ], [ 79.5614, 34.3815 ], [ 79.5685, 34.3202 ], [ 79.597, 34.278 ], [ 79.5921, 34.2358 ], [ 79.571, 34.2125 ], [ 79.5401, 34.1913 ], [ 79.5324, 34.1992 ], [ 79.5131, 34.2009 ], [ 79.4937, 34.1847 ], [ 79.496, 34.1244 ], [ 79.466, 34.0941 ], [ 79.4211, 34.0759 ], [ 79.4145, 34.0417 ], [ 79.4429, 34.0212 ], [ 79.4374, 34.0126 ], [ 79.4155, 33.999 ], [ 79.3737, 34.0268 ], [ 79.2829, 34.0276 ], [ 79.2321, 34.0471 ], [ 79.206, 34.0404 ], [ 79.1729, 34.0583 ], [ 79.148, 34.0551 ], [ 79.1467, 34.033 ], [ 79.1382, 34.0175 ], [ 79.1127, 34.0089 ], [ 79.0804, 34.01 ], [ 79.0248, 34.0328 ], [ 79.0011, 34.0336 ], [ 78.9532, 34.0131 ], [ 78.9256, 33.9825 ], [ 78.9183, 33.9639 ], [ 78.9453, 33.9262 ], [ 79.0132, 33.7829 ], [ 79.0304, 33.7881 ], [ 79.0605, 33.7758 ], [ 79.0641, 33.7647 ], [ 79.038, 33.7454 ], [ 79.0161, 33.7023 ], [ 79.022, 33.6861 ], [ 79.0463, 33.6738 ], [ 79.078, 33.6861 ], [ 79.1002, 33.6163 ], [ 79.0954, 33.6125 ], [ 79.0308, 33.6242 ], [ 78.9642, 33.6137 ], [ 78.9095, 33.6292 ], [ 78.9029, 33.622 ], [ 78.9145, 33.606 ], [ 78.9063, 33.5737 ], [ 78.9232, 33.5602 ], [ 78.9438, 33.5261 ], [ 78.9275, 33.4867 ], [ 78.9271, 33.4543 ], [ 78.9554, 33.3816 ], [ 78.9718, 33.364 ], [ 78.9784, 33.3364 ], [ 79.016, 33.3283 ], [ 79.1077, 33.2891 ], [ 79.2237, 33.2963 ], [ 79.3001, 33.2733 ], [ 79.3556, 33.2821 ], [ 79.4461, 33.2577 ], [ 79.4518, 33.235 ], [ 79.443, 33.2004 ], [ 79.4228, 33.165 ], [ 79.3732, 33.1064 ], [ 79.3682, 33.0834 ], [ 79.3871, 33.0421 ], [ 79.3803, 33.0277 ], [ 79.3567, 33.016 ], [ 79.3249, 33.0122 ], [ 79.3534, 32.9839 ], [ 79.3682, 32.9825 ], [ 79.369, 32.9662 ], [ 79.3976, 32.9618 ], [ 79.4461, 32.9118 ], [ 79.4655, 32.88 ], [ 79.5177, 32.8266 ], [ 79.5381, 32.7864 ], [ 79.5571, 32.7677 ], [ 79.5881, 32.7661 ], [ 79.6119, 32.735 ], [ 79.6096, 32.7232 ], [ 79.5723, 32.6876 ], [ 79.5672, 32.6701 ], [ 79.5375, 32.6596 ], [ 79.5253, 32.6307 ], [ 79.4747, 32.574 ], [ 79.4515, 32.5587 ], [ 79.4293, 32.5235 ], [ 79.3966, 32.5175 ], [ 79.3845, 32.5228 ], [ 79.373, 32.5605 ], [ 79.3395, 32.5701 ], [ 79.325, 32.5846 ], [ 79.3053, 32.5858 ], [ 79.2598, 32.5227 ], [ 79.2302, 32.5133 ], [ 79.1821, 32.4738 ], [ 79.125, 32.465 ], [ 79.1214, 32.4581 ], [ 79.1352, 32.4323 ], [ 79.1298, 32.4172 ], [ 79.1134, 32.4108 ], [ 79.0937, 32.3771 ], [ 79.0454, 32.3874 ], [ 79.0035, 32.3749 ], [ 78.9712, 32.3357 ], [ 78.9467, 32.3613 ], [ 78.8599, 32.4102 ], [ 78.8394, 32.4336 ], [ 78.8224, 32.4339 ], [ 78.8067, 32.4442 ], [ 78.7748, 32.5054 ], [ 78.7592, 32.5678 ], [ 78.7824, 32.5958 ], [ 78.7755, 32.621 ], [ 78.7622, 32.6288 ], [ 78.7433, 32.655 ], [ 78.7507, 32.6928 ], [ 78.7406, 32.6912 ], [ 78.7087, 32.6561 ], [ 78.6803, 32.6556 ], [ 78.6484, 32.6439 ], [ 78.6053, 32.5911 ], [ 78.5655, 32.6148 ], [ 78.5243, 32.6081 ], [ 78.5034, 32.587 ], [ 78.4513, 32.5776 ], [ 78.4277, 32.5634 ], [ 78.4099, 32.524 ], [ 78.3995, 32.5246 ], [ 78.3942, 32.5148 ], [ 78.3651, 32.4994 ], [ 78.3665, 32.4854 ], [ 78.3497, 32.4775 ], [ 78.349, 32.4643 ], [ 78.3284, 32.465 ], [ 78.3258, 32.4596 ], [ 78.3337, 32.4481 ], [ 78.3208, 32.444 ], [ 78.2847, 32.4689 ], [ 78.2913, 32.4753 ], [ 78.2858, 32.4824 ], [ 78.2925, 32.499 ], [ 78.3067, 32.5115 ], [ 78.3134, 32.5656 ], [ 78.3433, 32.5781 ], [ 78.3506, 32.589 ], [ 78.3786, 32.5979 ], [ 78.3908, 32.6149 ], [ 78.4097, 32.6231 ], [ 78.3916, 32.6334 ], [ 78.3814, 32.6541 ], [ 78.3871, 32.6773 ], [ 78.4007, 32.6942 ], [ 78.3854, 32.7196 ], [ 78.388, 32.7567 ], [ 78.3649, 32.7533 ], [ 78.3571, 32.7577 ], [ 78.3129, 32.7398 ], [ 78.3059, 32.7325 ], [ 78.3147, 32.7174 ], [ 78.306, 32.7071 ], [ 78.2932, 32.7003 ], [ 78.2605, 32.7029 ], [ 78.2459, 32.6716 ], [ 78.219, 32.6646 ], [ 78.1758, 32.681 ], [ 78.1424, 32.6818 ], [ 78.1472, 32.654 ], [ 78.1271, 32.6522 ], [ 78.1105, 32.6628 ], [ 78.0926, 32.6478 ], [ 78.0989, 32.6304 ], [ 78.0875, 32.6247 ], [ 78.0747, 32.6309 ], [ 78.0609, 32.6264 ], [ 78.047, 32.6453 ], [ 78.0252, 32.6272 ], [ 78.029, 32.6235 ], [ 78.0159, 32.6196 ], [ 77.9706, 32.6464 ], [ 77.9709, 32.655 ], [ 77.9474, 32.6609 ], [ 77.9346, 32.6811 ], [ 77.9186, 32.6905 ], [ 77.9249, 32.7172 ], [ 77.9344, 32.7259 ], [ 77.9263, 32.7348 ], [ 77.9341, 32.7565 ], [ 77.9257, 32.772 ], [ 77.9037, 32.7719 ], [ 77.8842, 32.7875 ], [ 77.8879, 32.7987 ], [ 77.8692, 32.827 ], [ 77.839, 32.842 ], [ 77.8261, 32.8362 ], [ 77.8159, 32.8483 ], [ 77.7919, 32.8559 ], [ 77.781, 32.8658 ], [ 77.7895, 32.8906 ], [ 77.8067, 32.8956 ], [ 77.8106, 32.907 ], [ 77.7509, 32.9546 ], [ 77.741, 32.969 ], [ 77.731, 32.9746 ], [ 77.7196, 32.9687 ], [ 77.7131, 32.9825 ], [ 77.6975, 32.9794 ], [ 77.6825, 32.9888 ], [ 77.6741, 32.9612 ], [ 77.656, 32.9589 ], [ 77.6432, 32.9465 ], [ 77.6031, 32.9429 ], [ 77.5944, 32.9259 ], [ 77.5637, 32.9123 ], [ 77.5385, 32.8861 ], [ 77.5126, 32.8774 ], [ 77.5015, 32.8856 ], [ 77.4692, 32.8587 ], [ 77.4521, 32.8641 ], [ 77.4448, 32.8799 ], [ 77.428, 32.8756 ], [ 77.4134, 32.8841 ], [ 77.4045, 32.8827 ], [ 77.3746, 32.8549 ], [ 77.3799, 32.8445 ], [ 77.3729, 32.8232 ], [ 77.3386, 32.8169 ], [ 77.327, 32.8315 ], [ 77.3234, 32.8504 ], [ 77.3009, 32.8499 ], [ 77.274, 32.8739 ], [ 77.2957, 32.8856 ], [ 77.3038, 32.8828 ], [ 77.3183, 32.8944 ], [ 77.3017, 32.9381 ], [ 77.2868, 32.9567 ], [ 77.2871, 32.9779 ], [ 77.2765, 32.9947 ], [ 77.2916, 33.0389 ], [ 77.3137, 33.0348 ], [ 77.3157, 33.0454 ], [ 77.3243, 33.0424 ], [ 77.3358, 33.05 ], [ 77.3391, 33.0873 ], [ 77.3636, 33.0803 ], [ 77.4079, 33.0865 ], [ 77.4156, 33.1012 ], [ 77.4112, 33.1274 ], [ 77.4177, 33.1362 ], [ 77.4092, 33.1443 ], [ 77.4102, 33.1648 ], [ 77.4025, 33.1721 ], [ 77.4192, 33.1991 ], [ 77.4502, 33.2068 ], [ 77.4678, 33.2015 ], [ 77.5379, 33.1582 ], [ 77.5375, 33.1809 ], [ 77.5247, 33.1946 ], [ 77.5206, 33.2199 ], [ 77.4924, 33.2464 ], [ 77.4936, 33.2596 ], [ 77.4759, 33.2762 ], [ 77.4992, 33.3012 ], [ 77.4946, 33.3136 ], [ 77.5076, 33.324 ], [ 77.5345, 33.3246 ], [ 77.5609, 33.3358 ], [ 77.5575, 33.3535 ], [ 77.5474, 33.3599 ], [ 77.5257, 33.3589 ], [ 77.5249, 33.3651 ], [ 77.5138, 33.3684 ], [ 77.5223, 33.4075 ], [ 77.48, 33.4204 ], [ 77.44, 33.4952 ], [ 77.3971, 33.493 ], [ 77.3611, 33.4767 ], [ 77.3372, 33.4931 ], [ 77.2985, 33.4878 ], [ 77.2822, 33.5015 ], [ 77.2842, 33.5091 ], [ 77.2558, 33.5292 ], [ 77.2331, 33.5908 ], [ 77.238, 33.6022 ], [ 77.208, 33.6224 ], [ 77.2068, 33.6396 ], [ 77.1835, 33.6495 ], [ 77.1756, 33.6629 ], [ 77.1631, 33.6642 ], [ 77.1492, 33.6797 ], [ 77.1291, 33.6854 ], [ 77.1204, 33.6765 ], [ 77.1005, 33.672 ], [ 77.0537, 33.709 ], [ 77.0192, 33.7044 ], [ 76.9854, 33.7241 ], [ 76.9657, 33.7115 ], [ 76.9407, 33.7164 ], [ 76.9223, 33.735 ], [ 76.9011, 33.7419 ], [ 76.9137, 33.7588 ], [ 76.8895, 33.781 ], [ 76.8736, 33.7727 ], [ 76.8596, 33.7743 ], [ 76.8286, 33.7938 ], [ 76.795, 33.7954 ], [ 76.7757, 33.808 ], [ 76.7288, 33.7958 ], [ 76.7181, 33.8015 ], [ 76.7065, 33.8232 ], [ 76.672, 33.8409 ], [ 76.6544, 33.8617 ], [ 76.6234, 33.8559 ], [ 76.5948, 33.8271 ], [ 76.5677, 33.8264 ], [ 76.5637, 33.8392 ], [ 76.5278, 33.8465 ], [ 76.5255, 33.8574 ], [ 76.5166, 33.8634 ], [ 76.5304, 33.8784 ], [ 76.5242, 33.8863 ], [ 76.5099, 33.8893 ], [ 76.5418, 33.9278 ], [ 76.5316, 33.9402 ], [ 76.5372, 33.9536 ], [ 76.5253, 33.9673 ], [ 76.5309, 33.9805 ], [ 76.5418, 33.9857 ], [ 76.5411, 33.9974 ], [ 76.5493, 33.9942 ], [ 76.5554, 34.0063 ], [ 76.5694, 34.0022 ], [ 76.5827, 34.0085 ], [ 76.5886, 34.0204 ], [ 76.5793, 34.0473 ], [ 76.5902, 34.0509 ], [ 76.5912, 34.0589 ], [ 76.6102, 34.0668 ], [ 76.6246, 34.0593 ], [ 76.6603, 34.0637 ], [ 76.6695, 34.068 ], [ 76.6724, 34.0772 ], [ 76.6823, 34.076 ], [ 76.6872, 34.082 ], [ 76.6728, 34.1046 ], [ 76.6716, 34.1289 ], [ 76.6608, 34.1478 ], [ 76.6816, 34.1805 ], [ 76.6708, 34.2226 ], [ 76.6779, 34.2333 ], [ 76.6748, 34.2398 ], [ 76.6904, 34.242 ], [ 76.7009, 34.258 ], [ 76.6967, 34.2788 ], [ 76.702, 34.3071 ], [ 76.7224, 34.3272 ], [ 76.657, 34.3692 ], [ 76.6247, 34.3794 ], [ 76.6034, 34.403 ], [ 76.6279, 34.437 ], [ 76.6466, 34.449 ], [ 76.6584, 34.4818 ], [ 76.6223, 34.5058 ], [ 76.6268, 34.5146 ], [ 76.6225, 34.535 ], [ 76.5986, 34.5602 ], [ 76.5762, 34.5582 ], [ 76.5612, 34.5704 ], [ 76.5305, 34.5739 ], [ 76.5255, 34.5942 ], [ 76.4701, 34.6259 ], [ 76.4728, 34.6337 ], [ 76.4489, 34.6583 ], [ 76.4451, 34.6857 ], [ 76.4202, 34.7209 ], [ 76.4194, 34.7374 ], [ 76.4482, 34.7518 ], [ 76.36, 34.7335 ], [ 76.3032, 34.7076 ], [ 76.2764, 34.7066 ], [ 76.2303, 34.6824 ], [ 76.1968, 34.6967 ], [ 76.1193, 34.6841 ], [ 76.0998, 34.6875 ], [ 76.0483, 34.6999 ], [ 75.9848, 34.7363 ], [ 75.9722, 34.7367 ], [ 75.9487, 34.7169 ], [ 75.9438, 34.6835 ], [ 75.9236, 34.6331 ], [ 75.8888, 34.5613 ], [ 75.8786, 34.5515 ], [ 75.8486, 34.5441 ], [ 75.8302, 34.5277 ], [ 75.8081, 34.5266 ], [ 75.795, 34.514 ], [ 75.5576, 34.5139 ], [ 75.5098, 34.4834 ], [ 75.49, 34.4546 ], [ 75.4822, 34.4215 ], [ 75.4525, 34.3928 ], [ 75.3833, 34.367 ], [ 75.3734, 34.3715 ], [ 75.3771, 34.3871 ], [ 75.367, 34.391 ], [ 75.3723, 34.4126 ], [ 75.3351, 34.4293 ], [ 75.3275, 34.4398 ], [ 75.3332, 34.443 ], [ 75.3305, 34.4503 ], [ 75.3532, 34.4688 ], [ 75.3429, 34.4894 ], [ 75.3529, 34.5176 ], [ 75.3661, 34.5214 ], [ 75.3656, 34.5381 ], [ 75.3442, 34.563 ], [ 75.3285, 34.5688 ], [ 75.3199, 34.5648 ], [ 75.2864, 34.5954 ], [ 75.2534, 34.6041 ], [ 75.2566, 34.6215 ], [ 75.2415, 34.6378 ], [ 75.2206, 34.6338 ], [ 75.206, 34.6438 ], [ 75.2182, 34.6516 ], [ 75.2045, 34.6535 ], [ 75.2079, 34.6654 ], [ 75.2321, 34.6908 ], [ 75.2583, 34.6976 ], [ 75.2543, 34.7217 ], [ 75.2636, 34.7446 ], [ 75.2509, 34.7499 ], [ 75.2563, 34.7739 ], [ 75.2232, 34.8175 ], [ 75.1442, 34.8503 ], [ 75.142, 34.875 ], [ 75.1013, 34.9191 ], [ 75.0716, 34.9192 ], [ 75.0641, 34.9052 ], [ 75.064, 34.8471 ], [ 75.0571, 34.8423 ], [ 75.0163, 34.8483 ], [ 74.9298, 34.787 ], [ 74.9186, 34.7851 ], [ 74.8871, 34.8223 ], [ 74.8722, 34.8302 ], [ 74.861, 34.8283 ], [ 74.8397, 34.8407 ], [ 74.8233, 34.8374 ], [ 74.7985, 34.8521 ], [ 74.7878, 34.8525 ], [ 74.7769, 34.8408 ], [ 74.7502, 34.845 ], [ 74.7403, 34.8484 ], [ 74.7294, 34.8632 ], [ 74.7167, 34.8665 ], [ 74.7115, 34.8809 ], [ 74.6842, 34.8788 ], [ 74.6625, 34.9068 ], [ 74.6464, 34.9036 ], [ 74.6042, 34.9248 ], [ 74.577, 34.9139 ], [ 74.5705, 34.9756 ], [ 74.585, 34.9979 ], [ 74.5851, 35.0181 ], [ 74.5784, 35.0243 ], [ 74.5605, 35.026 ], [ 74.5307, 35.0462 ], [ 74.5301, 35.0601 ], [ 74.5398, 35.075 ], [ 74.4994, 35.1156 ], [ 74.4387, 35.1301 ], [ 74.4153, 35.1117 ], [ 74.382, 35.0678 ], [ 74.3052, 35.0676 ], [ 74.2927, 35.0645 ], [ 74.2882, 35.0477 ], [ 74.2652, 35.0409 ], [ 74.2451, 35.0521 ], [ 74.2402, 35.0791 ], [ 74.2199, 35.0753 ], [ 74.2151, 35.0937 ], [ 74.1561, 35.0909 ], [ 74.1337, 35.1046 ], [ 74.1279, 35.1161 ], [ 74.1059, 35.1257 ], [ 74.1136, 35.1377 ], [ 74.1123, 35.1485 ], [ 74.0958, 35.1407 ], [ 74.0721, 35.1532 ], [ 74.0634, 35.147 ], [ 74.0338, 35.1469 ], [ 74.0048, 35.1677 ], [ 74.0028, 35.1836 ], [ 73.9777, 35.1806 ], [ 73.9568, 35.168 ], [ 73.9245, 35.2039 ], [ 73.897, 35.2117 ], [ 73.8612, 35.2071 ], [ 73.8454, 35.2246 ], [ 73.8083, 35.2395 ], [ 73.7705, 35.236 ], [ 73.7294, 35.2097 ], [ 73.708, 35.2225 ], [ 73.7191, 35.2425 ], [ 73.725, 35.273 ], [ 73.6948, 35.3184 ], [ 73.6939, 35.3594 ], [ 73.6983, 35.3757 ], [ 73.727, 35.419 ], [ 73.792, 35.4542 ], [ 73.7785, 35.5229 ], [ 73.7296, 35.5295 ], [ 73.7213, 35.5492 ], [ 73.6588, 35.5476 ], [ 73.6284, 35.569 ], [ 73.6093, 35.5582 ], [ 73.5616, 35.5464 ], [ 73.5279, 35.5673 ], [ 73.5015, 35.5576 ], [ 73.4774, 35.5719 ], [ 73.3981, 35.5571 ], [ 73.3635, 35.5972 ], [ 73.2997, 35.6112 ], [ 73.2687, 35.6244 ], [ 73.2126, 35.6689 ], [ 73.1943, 35.6737 ], [ 73.1329, 35.7108 ], [ 73.1264, 35.721 ], [ 73.1265, 35.7762 ], [ 73.1372, 35.8192 ], [ 73.1487, 35.8312 ], [ 73.0839, 35.8775 ], [ 73.0682, 35.8777 ], [ 73.058, 35.8627 ], [ 73.0288, 35.8471 ], [ 72.9871, 35.8598 ], [ 72.9184, 35.8391 ], [ 72.8924, 35.8445 ], [ 72.8911, 35.8737 ], [ 72.8393, 35.8671 ], [ 72.8192, 35.8817 ], [ 72.8082, 35.8591 ], [ 72.7891, 35.8577 ], [ 72.7843, 35.8415 ], [ 72.7614, 35.8323 ], [ 72.7266, 35.8531 ], [ 72.6844, 35.8225 ], [ 72.6497, 35.8389 ], [ 72.6281, 35.8579 ], [ 72.6188, 35.8534 ], [ 72.6099, 35.8616 ], [ 72.5851, 35.8594 ], [ 72.5582, 35.8977 ], [ 72.543, 35.8945 ], [ 72.5185, 35.9055 ], [ 72.5131, 35.9387 ], [ 72.5349, 35.9506 ], [ 72.5424, 35.9695 ], [ 72.5387, 35.9851 ], [ 72.56, 35.987 ], [ 72.5593, 35.9936 ], [ 72.5809, 36.0133 ], [ 72.5846, 36.0251 ], [ 72.5688, 36.0446 ], [ 72.5357, 36.0473 ], [ 72.5167, 36.0673 ], [ 72.5276, 36.1102 ], [ 72.5404, 36.1277 ], [ 72.5617, 36.1399 ], [ 72.5507, 36.15 ], [ 72.5491, 36.1646 ], [ 72.5359, 36.1733 ], [ 72.5505, 36.1985 ], [ 72.5473, 36.2054 ], [ 72.5739, 36.2238 ], [ 72.5727, 36.2391 ], [ 72.5847, 36.2569 ], [ 72.6117, 36.2695 ], [ 72.6622, 36.2581 ], [ 72.6848, 36.2439 ], [ 72.6742, 36.2622 ], [ 72.6806, 36.271 ], [ 72.7112, 36.2763 ], [ 72.7311, 36.2983 ], [ 72.7592, 36.2986 ], [ 72.7739, 36.3159 ], [ 72.8033, 36.3308 ], [ 72.8086, 36.351 ], [ 72.8161, 36.3564 ], [ 72.8401, 36.3673 ], [ 72.8537, 36.3663 ], [ 72.851, 36.3724 ], [ 72.8755, 36.3946 ], [ 72.8701, 36.4075 ], [ 72.8758, 36.4169 ], [ 72.8597, 36.4356 ], [ 72.8866, 36.4443 ], [ 72.9081, 36.4609 ], [ 72.9236, 36.4535 ], [ 72.9461, 36.4662 ], [ 72.9734, 36.4538 ], [ 72.9794, 36.4573 ], [ 72.9879, 36.4693 ], [ 72.9742, 36.4754 ], [ 72.9747, 36.4943 ], [ 72.9828, 36.5015 ], [ 72.9779, 36.5115 ], [ 73.0519, 36.533 ], [ 73.0525, 36.5487 ], [ 73.078, 36.5692 ], [ 73.0795, 36.5856 ], [ 73.0972, 36.606 ], [ 73.0963, 36.6135 ], [ 73.0741, 36.6288 ], [ 73.0798, 36.6388 ], [ 73.0804, 36.67 ], [ 73.0707, 36.6798 ], [ 73.0676, 36.7006 ], [ 73.0952, 36.6834 ], [ 73.1164, 36.6842 ], [ 73.1625, 36.7076 ], [ 73.1707, 36.724 ], [ 73.1866, 36.7103 ], [ 73.1867, 36.7012 ], [ 73.2014, 36.6955 ], [ 73.2288, 36.7015 ], [ 73.238, 36.7115 ], [ 73.2461, 36.7054 ], [ 73.2941, 36.7042 ], [ 73.3108, 36.7143 ], [ 73.3478, 36.7164 ], [ 73.3516, 36.735 ], [ 73.3944, 36.7301 ], [ 73.4214, 36.743 ], [ 73.4339, 36.731 ], [ 73.462, 36.735 ], [ 73.4793, 36.7195 ], [ 73.4976, 36.7131 ], [ 73.5098, 36.7219 ], [ 73.5199, 36.7103 ], [ 73.5498, 36.7161 ], [ 73.5543, 36.7096 ], [ 73.5793, 36.7224 ], [ 73.5927, 36.6928 ], [ 73.6216, 36.6903 ], [ 73.638, 36.6979 ], [ 73.6831, 36.6866 ], [ 73.6922, 36.6891 ], [ 73.7099, 36.7123 ], [ 73.7748, 36.7021 ], [ 73.7956, 36.7188 ], [ 73.8487, 36.7024 ], [ 73.8718, 36.7014 ], [ 73.8787, 36.7071 ], [ 73.8736, 36.7206 ], [ 73.8853, 36.7299 ], [ 73.8822, 36.7485 ], [ 73.868, 36.7663 ], [ 73.837, 36.7951 ], [ 73.8148, 36.789 ], [ 73.8015, 36.7942 ], [ 73.7976, 36.8182 ], [ 73.7588, 36.8162 ], [ 73.7491, 36.8274 ], [ 73.7055, 36.8378 ], [ 73.7062, 36.858 ], [ 73.667, 36.8809 ], [ 73.6711, 36.9117 ], [ 73.6972, 36.9143 ], [ 73.7287, 36.898 ], [ 73.7513, 36.9097 ], [ 73.7736, 36.8963 ], [ 73.7941, 36.9002 ], [ 73.8007, 36.8875 ], [ 73.8102, 36.8886 ], [ 73.8204, 36.9031 ], [ 73.8593, 36.8973 ], [ 73.893, 36.8755 ], [ 73.9149, 36.883 ], [ 73.9615, 36.8393 ], [ 73.982, 36.8296 ], [ 74.0084, 36.8338 ], [ 74.0465, 36.8108 ], [ 74.0855, 36.8415 ], [ 74.1163, 36.8357 ], [ 74.1335, 36.8479 ], [ 74.1442, 36.8909 ], [ 74.1558, 36.9105 ], [ 74.2211, 36.9027 ], [ 74.249, 36.8936 ], [ 74.3148, 36.9273 ], [ 74.3508, 36.9601 ], [ 74.4082, 36.9816 ], [ 74.4264, 36.9957 ], [ 74.523, 36.9951 ], [ 74.5343, 36.9832 ], [ 74.5403, 36.9633 ], [ 74.5641, 36.9579 ], [ 74.5804, 37.021 ], [ 74.5779, 37.0458 ], [ 74.5681, 37.0518 ], [ 74.6338, 37.0637 ], [ 74.6901, 37.0881 ], [ 74.7074, 37.0873 ], [ 74.7119, 37.0638 ], [ 74.7264, 37.0385 ] ] ] } }
]
}
