{
"type": "FeatureCollection",
"crs": { "type": "name", "properties": { "name": "urn:ogc:def:crs:OGC:1.3:CRS84" } },
"xy_coordinate_resolution": 0.0001,
"features": [
{ "type": "Feature", "properties": { "district": "Bilaspur", "did": "himachal_pradesh:Bilaspur", "state_key": "himachal_pradesh" }, "geometry": { "type": "Polygon", "coordinates": [ [ [ 76.8954, 31.3153 ], [ 76.9161, 31.315 ], [ 76.9192, 31.3046 ], [ 76.9277, 31.3041 ], [ 76.9132, 31.2834 ], [ 76.8917, 31.2742 ], [ 76.8948, 31.2653 ], [ 76.8724, 31.262 ], [ 76.8659, 31.2455 ], [ 76.8759, 31.2317 ], [ 76.8761, 31.2186 ], [ 76.8556, 31.2193 ], [ 76.8397, 31.2311 ], [ 76.8237, 31.2231 ], [ 76.8176, 31.2287 ], [ 76.7997, 31.222 ], [ 76.793, 31.2263 ], [ 76.7786, 31.2153 ], [ 76.7756, 31.2243 ], [ 76.7578, 31.2265 ], [ 76.7325, 31.2406 ], [ 76.7204, 31.2283 ], [ 76.686, 31.2129 ], [ 76.6454, 31.2091 ], [ 76.6346, 31.2178 ], [ 76.6417, 31.223 ], [ 76.6277, 31.2262 ], [ 76.5926, 31.2113 ], [ 76.5885, 31.2229 ], [ 76.6118, 31.2496 ], [ 76.5835, 31.2762 ], [ 76.5606, 31.2531 ], [ 76.5492, 31.2528 ], [ 76.5436, 31.2589 ], [ 76.5513, 31.2787 ], [ 76.5429, 31.2824 ], [ 76.5393, 31.261 ], [ 76.5238, 31.2581 ], [ 76.5306, 31.2711 ], [ 76.5274, 31.2772 ], [ 76.5217, 31.2803 ], [ 76.5064, 31.2677 ], [ 76.4976, 31.2699 ], [ 76.4967, 31.2853 ], [ 76.4791, 31.3087 ], [ 76.4594, 31.2862 ], [ 76.44, 31.2787 ], [ 76.4404, 31.2879 ], [ 76.4635, 31.302 ], [ 76.4323, 31.3266 ], [ 76.4241, 31.3493 ], [ 76.3927, 31.3891 ], [ 76.404, 31.3942 ], [ 76.3936, 31.4241 ], [ 76.4005, 31.4263 ], [ 76.4255, 31.4078 ], [ 76.4636, 31.4223 ], [ 76.4725, 31.4201 ], [ 76.47, 31.4376 ], [ 76.4794, 31.4418 ], [ 76.4625, 31.4438 ], [ 76.472, 31.4552 ], [ 76.4506, 31.4819 ], [ 76.4624, 31.4857 ], [ 76.4796, 31.4693 ], [ 76.4954, 31.4693 ], [ 76.5102, 31.4603 ], [ 76.5158, 31.47 ], [ 76.5312, 31.4634 ], [ 76.5355, 31.4517 ], [ 76.5566, 31.4397 ], [ 76.5621, 31.4286 ], [ 76.573, 31.4313 ], [ 76.5804, 31.421 ], [ 76.5929, 31.4232 ], [ 76.6146, 31.4164 ], [ 76.6122, 31.43 ], [ 76.6258, 31.4425 ], [ 76.6074, 31.4775 ], [ 76.6186, 31.5158 ], [ 76.6181, 31.5318 ], [ 76.6126, 31.5316 ], [ 76.6187, 31.5403 ], [ 76.6137, 31.5469 ], [ 76.6199, 31.5747 ], [ 76.6334, 31.574 ], [ 76.647, 31.5841 ], [ 76.6619, 31.5775 ], [ 76.6805, 31.5828 ], [ 76.6813, 31.5907 ], [ 76.7103, 31.5956 ], [ 76.7308, 31.5809 ], [ 76.7268, 31.5633 ], [ 76.7352, 31.5609 ], [ 76.7275, 31.5525 ], [ 76.7317, 31.5418 ], [ 76.7226, 31.5404 ], [ 76.735, 31.5345 ], [ 76.739, 31.5221 ], [ 76.7307, 31.5165 ], [ 76.7664, 31.5178 ], [ 76.7875, 31.4979 ], [ 76.782, 31.4798 ], [ 76.7956, 31.4749 ], [ 76.802, 31.4538 ], [ 76.7984, 31.4471 ], [ 76.7922, 31.4506 ], [ 76.8031, 31.4401 ], [ 76.8016, 31.4214 ], [ 76.8197, 31.4175 ], [ 76.8348, 31.4218 ], [ 76.8553, 31.4106 ], [ 76.8759, 31.4134 ], [ 76.8814, 31.3843 ], [ 76.8682, 31.3847 ], [ 76.8637, 31.3781 ], [ 76.8765, 31.362 ], [ 76.8733, 31.3467 ], [ 76.8828, 31.3356 ], [ 76.8754, 31.3302 ], [ 76.8954, 31.3153 ] ] ] } },
{ "type": "Feature", "properties": { "district": "Chamba", "did": "himachal_pradesh:Chamba", "state_key": "himachal_pradesh" }, "geometry": { "type": "Polygon", "coordinates": [ [ [ 76.1985, 32.3679 ], [ 76.1673, 32.3542 ], [ 76.1755, 32.3402 ], [ 76.1609, 32.3159 ], [ 76.162, 32.2997 ], [ 76.1697, 32.2898 ], [ 76.1671, 32.2841 ], [ 76.1868, 32.2717 ], [ 76.1904, 32.2618 ], [ 76.1838, 32.2579 ], [ 76.1855, 32.2282 ], [ 76.1804, 32.2227 ], [ 76.1702, 32.2236 ], [ 76.1702, 32.2368 ], [ 76.1439, 32.2235 ], [ 76.1235, 32.2307 ], [ 76.124, 32.256 ], [ 76.1042, 32.2605 ], [ 76.0922, 32.2705 ], [ 76.0456, 32.264 ], [ 76.0283, 32.2715 ], [ 76.0315, 32.2751 ], [ 76.0163, 32.2916 ], [ 76.0257, 32.3183 ], [ 76.0169, 32.3182 ], [ 76.0146, 32.3239 ], [ 76.0226, 32.3342 ], [ 75.989, 32.3804 ], [ 75.9712, 32.3929 ], [ 75.9311, 32.3994 ], [ 75.9167, 32.4195 ], [ 75.9202, 32.4301 ], [ 75.9055, 32.4377 ], [ 75.9028, 32.4523 ], [ 75.8808, 32.4642 ], [ 75.8534, 32.4875 ], [ 75.8401, 32.5094 ], [ 75.8304, 32.5128 ], [ 75.8388, 32.5137 ], [ 75.8383, 32.5223 ], [ 75.8538, 32.5277 ], [ 75.8549, 32.5369 ], [ 75.8726, 32.5486 ], [ 75.8661, 32.5625 ], [ 75.8777, 32.5691 ], [ 75.8782, 32.586 ], [ 75.8991, 32.5921 ], [ 75.9059, 32.6076 ], [ 75.9164, 32.6144 ], [ 75.9186, 32.6331 ], [ 75.9242, 32.6367 ], [ 75.9304, 32.6311 ], [ 75.9342, 32.6448 ], [ 75.915, 32.6436 ], [ 75.915, 32.6531 ], [ 75.9063, 32.6581 ], [ 75.8931, 32.6486 ], [ 75.8858, 32.6522 ], [ 75.8988, 32.6732 ], [ 75.8974, 32.6975 ], [ 75.9183, 32.7272 ], [ 75.9217, 32.7472 ], [ 75.8858, 32.7822 ], [ 75.8791, 32.8112 ], [ 75.865, 32.8134 ], [ 75.8527, 32.8344 ], [ 75.8186, 32.8527 ], [ 75.7963, 32.8843 ], [ 75.8126, 32.8931 ], [ 75.8326, 32.924 ], [ 75.8452, 32.9285 ], [ 75.873, 32.9238 ], [ 75.9189, 32.9058 ], [ 75.9283, 32.8898 ], [ 75.9501, 32.8728 ], [ 75.9812, 32.8951 ], [ 76.0272, 32.9157 ], [ 76.0388, 32.9358 ], [ 76.0613, 32.9409 ], [ 76.0683, 32.9519 ], [ 76.083, 32.9552 ], [ 76.0822, 32.9616 ], [ 76.0942, 32.9652 ], [ 76.1063, 32.9869 ], [ 76.1072, 33.0061 ], [ 76.1603, 33.0066 ], [ 76.1801, 33.0205 ], [ 76.2035, 33.016 ], [ 76.2207, 33.0229 ], [ 76.2428, 33.0208 ], [ 76.2554, 33.034 ], [ 76.2729, 33.0371 ], [ 76.2763, 33.0511 ], [ 76.2904, 33.0598 ], [ 76.2828, 33.0768 ], [ 76.2859, 33.1024 ], [ 76.3052, 33.1196 ], [ 76.3685, 33.1535 ], [ 76.4039, 33.1858 ], [ 76.4806, 33.1789 ], [ 76.5093, 33.1958 ], [ 76.5472, 33.1986 ], [ 76.5616, 33.2095 ], [ 76.5959, 33.2059 ], [ 76.5986, 33.1903 ], [ 76.6111, 33.1873 ], [ 76.6126, 33.1734 ], [ 76.6394, 33.1617 ], [ 76.6646, 33.1713 ], [ 76.6996, 33.1732 ], [ 76.7093, 33.1807 ], [ 76.7483, 33.1794 ], [ 76.743, 33.1568 ], [ 76.7488, 33.1396 ], [ 76.7392, 33.1195 ], [ 76.7363, 33.0826 ], [ 76.7517, 33.0416 ], [ 76.7598, 33.0345 ], [ 76.7615, 33.0184 ], [ 76.7764, 33.017 ], [ 76.7659, 32.9927 ], [ 76.7819, 32.9686 ], [ 76.7816, 32.9532 ], [ 76.7693, 32.9353 ], [ 76.7554, 32.9248 ], [ 76.728, 32.9292 ], [ 76.7129, 32.9175 ], [ 76.7072, 32.8839 ], [ 76.6748, 32.8462 ], [ 76.6572, 32.843 ], [ 76.6456, 32.854 ], [ 76.6156, 32.8477 ], [ 76.6069, 32.8514 ], [ 76.5865, 32.8407 ], [ 76.5737, 32.8239 ], [ 76.4912, 32.802 ], [ 76.4698, 32.8063 ], [ 76.4741, 32.821 ], [ 76.4531, 32.8499 ], [ 76.4396, 32.8559 ], [ 76.4299, 32.8452 ], [ 76.4143, 32.8432 ], [ 76.3923, 32.8252 ], [ 76.3788, 32.8218 ], [ 76.3729, 32.8134 ], [ 76.3743, 32.7977 ], [ 76.3869, 32.7828 ], [ 76.3995, 32.7286 ], [ 76.4285, 32.7087 ], [ 76.4301, 32.697 ], [ 76.4229, 32.6884 ], [ 76.4441, 32.6743 ], [ 76.4416, 32.658 ], [ 76.4669, 32.6523 ], [ 76.5211, 32.6671 ], [ 76.5283, 32.6565 ], [ 76.5494, 32.6564 ], [ 76.5923, 32.6368 ], [ 76.603, 32.6221 ], [ 76.5981, 32.6151 ], [ 76.6024, 32.6047 ], [ 76.6321, 32.6054 ], [ 76.6225, 32.5816 ], [ 76.6268, 32.5746 ], [ 76.6499, 32.5826 ], [ 76.6723, 32.564 ], [ 76.6899, 32.5651 ], [ 76.6977, 32.5456 ], [ 76.7125, 32.5386 ], [ 76.7509, 32.5559 ], [ 76.7651, 32.5454 ], [ 76.7922, 32.547 ], [ 76.7972, 32.5316 ], [ 76.8263, 32.5379 ], [ 76.8272, 32.5303 ], [ 76.842, 32.5243 ], [ 76.8654, 32.5335 ], [ 76.8774, 32.513 ], [ 76.8578, 32.4911 ], [ 76.8571, 32.4793 ], [ 76.8664, 32.4627 ], [ 76.8265, 32.4384 ], [ 76.801, 32.4075 ], [ 76.7832, 32.4025 ], [ 76.7863, 32.3721 ], [ 76.7767, 32.3614 ], [ 76.7514, 32.358 ], [ 76.7706, 32.3401 ], [ 76.785, 32.3141 ], [ 76.7695, 32.3072 ], [ 76.7775, 32.2979 ], [ 76.77, 32.2824 ], [ 76.7789, 32.2624 ], [ 76.7664, 32.2502 ], [ 76.7752, 32.2459 ], [ 76.7637, 32.2086 ], [ 76.7352, 32.1861 ], [ 76.7084, 32.1999 ], [ 76.6946, 32.1964 ], [ 76.6785, 32.1764 ], [ 76.6654, 32.1758 ], [ 76.6121, 32.1965 ], [ 76.5865, 32.2228 ], [ 76.527, 32.227 ], [ 76.5187, 32.2341 ], [ 76.4996, 32.2325 ], [ 76.4845, 32.2502 ], [ 76.4629, 32.2474 ], [ 76.4444, 32.2636 ], [ 76.4283, 32.2605 ], [ 76.4183, 32.2777 ], [ 76.3908, 32.2868 ], [ 76.3745, 32.3 ], [ 76.3573, 32.3252 ], [ 76.3411, 32.3235 ], [ 76.3096, 32.34 ], [ 76.2947, 32.3373 ], [ 76.2821, 32.3708 ], [ 76.2721, 32.3765 ], [ 76.2624, 32.3737 ], [ 76.2566, 32.3942 ], [ 76.2213, 32.3927 ], [ 76.1985, 32.3679 ] ] ] } },
{ "type": "Feature", "properties": { "district": "Hamirpur", "did": "himachal_pradesh:Hamirpur", "state_key": "himachal_pradesh" }, "geometry": { "type": "Polygon", "coordinates": [ [ [ 76.6186, 31.5158 ], [ 76.6074, 31.4775 ], [ 76.6258, 31.4425 ], [ 76.6122, 31.43 ], [ 76.6146, 31.4164 ], [ 76.5929, 31.4232 ], [ 76.5804, 31.421 ], [ 76.573, 31.4313 ], [ 76.5621, 31.4286 ], [ 76.5566, 31.4397 ], [ 76.5355, 31.4517 ], [ 76.5312, 31.4634 ], [ 76.5162, 31.47 ], [ 76.5102, 31.4603 ], [ 76.4954, 31.4693 ], [ 76.4786, 31.47 ], [ 76.4411, 31.5137 ], [ 76.4388, 31.5352 ], [ 76.3946, 31.6194 ], [ 76.3644, 31.6423 ], [ 76.3209, 31.7052 ], [ 76.3114, 31.7245 ], [ 76.319, 31.7314 ], [ 76.3047, 31.7604 ], [ 76.31, 31.7682 ], [ 76.2995, 31.7802 ], [ 76.3251, 31.7782 ], [ 76.3548, 31.792 ], [ 76.3651, 31.7807 ], [ 76.3629, 31.7757 ], [ 76.3707, 31.7727 ], [ 76.3964, 31.7947 ], [ 76.4126, 31.7828 ], [ 76.4127, 31.7945 ], [ 76.436, 31.7947 ], [ 76.4408, 31.8116 ], [ 76.4442, 31.7998 ], [ 76.4638, 31.8048 ], [ 76.4544, 31.8099 ], [ 76.457, 31.8178 ], [ 76.4675, 31.8084 ], [ 76.475, 31.8092 ], [ 76.4667, 31.8284 ], [ 76.4783, 31.8268 ], [ 76.5013, 31.8408 ], [ 76.5198, 31.8427 ], [ 76.5257, 31.8592 ], [ 76.5561, 31.8864 ], [ 76.5909, 31.893 ], [ 76.6245, 31.8859 ], [ 76.6392, 31.8736 ], [ 76.6277, 31.841 ], [ 76.6307, 31.8219 ], [ 76.6204, 31.7984 ], [ 76.6336, 31.7529 ], [ 76.6403, 31.7451 ], [ 76.6722, 31.7353 ], [ 76.6707, 31.72 ], [ 76.6906, 31.6974 ], [ 76.6871, 31.6862 ], [ 76.6971, 31.6742 ], [ 76.7239, 31.6655 ], [ 76.7146, 31.6282 ], [ 76.7297, 31.5825 ], [ 76.7053, 31.5957 ], [ 76.6813, 31.5907 ], [ 76.6805, 31.5828 ], [ 76.6599, 31.5771 ], [ 76.651, 31.5842 ], [ 76.6386, 31.5826 ], [ 76.6334, 31.574 ], [ 76.6199, 31.5747 ], [ 76.615, 31.5445 ], [ 76.6186, 31.5158 ] ] ] } },
{ "type": "Feature", "properties": { "district": "Kangra", "did": "himachal_pradesh:Kangra", "state_key": "himachal_pradesh" }, "geometry": { "type": "Polygon", "coordinates": [ [ [ 76.31, 31.7682 ], [ 76.3054, 31.7566 ], [ 76.3189, 31.7306 ], [ 76.3081, 31.7233 ], [ 76.297, 31.6913 ], [ 76.2839, 31.6847 ], [ 76.273, 31.7035 ], [ 76.2422, 31.724 ], [ 76.1982, 31.7721 ], [ 76.1815, 31.7639 ], [ 76.1843, 31.7791 ], [ 76.1476, 31.8003 ], [ 76.1244, 31.8013 ], [ 76.1102, 31.7954 ], [ 76.1135, 31.8013 ], [ 76.1035, 31.8078 ], [ 76.1081, 31.8224 ], [ 76.0875, 31.8208 ], [ 76.0802, 31.8309 ], [ 76.0861, 31.8324 ], [ 76.081, 31.8342 ], [ 76.0829, 31.8408 ], [ 76.0677, 31.8398 ], [ 76.0314, 31.8651 ], [ 76.0144, 31.8664 ], [ 75.9928, 31.8501 ], [ 75.9712, 31.8497 ], [ 75.96, 31.8569 ], [ 75.9156, 31.931 ], [ 75.9104, 31.9501 ], [ 75.883, 31.9689 ], [ 75.8588, 31.9729 ], [ 75.8511, 31.982 ], [ 75.8113, 31.9879 ], [ 75.7798, 32.0047 ], [ 75.7508, 32.0377 ], [ 75.7239, 32.0326 ], [ 75.7033, 32.0551 ], [ 75.6777, 32.0633 ], [ 75.6629, 32.0757 ], [ 75.6307, 32.0742 ], [ 75.6016, 32.0655 ], [ 75.5953, 32.069 ], [ 75.6002, 32.0924 ], [ 75.6198, 32.0974 ], [ 75.6257, 32.1187 ], [ 75.66, 32.1367 ], [ 75.6727, 32.1592 ], [ 75.6635, 32.1622 ], [ 75.667, 32.1784 ], [ 75.6567, 32.1829 ], [ 75.6619, 32.1929 ], [ 75.6553, 32.1968 ], [ 75.6377, 32.1925 ], [ 75.6375, 32.187 ], [ 75.6238, 32.19 ], [ 75.6263, 32.216 ], [ 75.6373, 32.2227 ], [ 75.6356, 32.2317 ], [ 75.6185, 32.2376 ], [ 75.6409, 32.2522 ], [ 75.6581, 32.2511 ], [ 75.7723, 32.2894 ], [ 75.7817, 32.3101 ], [ 75.8016, 32.3284 ], [ 75.8148, 32.3302 ], [ 75.8075, 32.3407 ], [ 75.8112, 32.3485 ], [ 75.8275, 32.3502 ], [ 75.8345, 32.3573 ], [ 75.8438, 32.3553 ], [ 75.8524, 32.3795 ], [ 75.8736, 32.3957 ], [ 75.92, 32.3968 ], [ 75.9236, 32.3912 ], [ 75.9365, 32.3974 ], [ 75.9712, 32.3929 ], [ 75.9883, 32.3812 ], [ 76.0135, 32.3485 ], [ 76.0227, 32.334 ], [ 76.0153, 32.3212 ], [ 76.0257, 32.3183 ], [ 76.0163, 32.2908 ], [ 76.0312, 32.2688 ], [ 76.0441, 32.2686 ], [ 76.0456, 32.264 ], [ 76.0922, 32.2705 ], [ 76.1042, 32.2605 ], [ 76.124, 32.256 ], [ 76.1235, 32.2307 ], [ 76.1439, 32.2235 ], [ 76.1702, 32.2368 ], [ 76.1702, 32.2236 ], [ 76.1804, 32.2227 ], [ 76.1855, 32.2282 ], [ 76.1838, 32.2579 ], [ 76.1904, 32.2618 ], [ 76.1868, 32.2717 ], [ 76.1671, 32.2841 ], [ 76.1697, 32.2898 ], [ 76.162, 32.2997 ], [ 76.1609, 32.3159 ], [ 76.1755, 32.3402 ], [ 76.1673, 32.3542 ], [ 76.1985, 32.3679 ], [ 76.2155, 32.3813 ], [ 76.2219, 32.3949 ], [ 76.2484, 32.3955 ], [ 76.2566, 32.3942 ], [ 76.2624, 32.3737 ], [ 76.2721, 32.3765 ], [ 76.2821, 32.3708 ], [ 76.2947, 32.3373 ], [ 76.3096, 32.34 ], [ 76.3411, 32.3235 ], [ 76.3573, 32.3252 ], [ 76.3745, 32.3 ], [ 76.3908, 32.2868 ], [ 76.4183, 32.2777 ], [ 76.4283, 32.2605 ], [ 76.4444, 32.2636 ], [ 76.4629, 32.2474 ], [ 76.4845, 32.2502 ], [ 76.4996, 32.2325 ], [ 76.5187, 32.2341 ], [ 76.527, 32.227 ], [ 76.5865, 32.2228 ], [ 76.6245, 32.1902 ], [ 76.654, 32.1841 ], [ 76.6662, 32.1755 ], [ 76.6785, 32.1764 ], [ 76.6947, 32.1965 ], [ 76.7084, 32.1998 ], [ 76.7352, 32.1861 ], [ 76.7637, 32.2086 ], [ 76.7752, 32.2459 ], [ 76.7664, 32.2502 ], [ 76.7789, 32.2624 ], [ 76.77, 32.2824 ], [ 76.7775, 32.2979 ], [ 76.7695, 32.3072 ], [ 76.785, 32.3141 ], [ 76.7706, 32.3401 ], [ 76.7514, 32.358 ], [ 76.7767, 32.3614 ], [ 76.7863, 32.3721 ], [ 76.7832, 32.4025 ], [ 76.801, 32.4075 ], [ 76.8265, 32.4384 ], [ 76.8659, 32.4634 ], [ 76.9115, 32.4643 ], [ 76.8989, 32.4479 ], [ 76.9169, 32.4352 ], [ 76.9084, 32.4172 ], [ 76.9297, 32.417 ], [ 76.9471, 32.4264 ], [ 76.9472, 32.4027 ], [ 76.9801, 32.4035 ], [ 77.0549, 32.4333 ], [ 77.0648, 32.418 ], [ 77.0777, 32.4181 ], [ 77.0758, 32.4007 ], [ 77.0481, 32.3659 ], [ 77.0414, 32.3422 ], [ 77.0698, 32.3346 ], [ 77.062, 32.3143 ], [ 77.0403, 32.301 ], [ 77.0273, 32.2723 ], [ 77.0293, 32.2465 ], [ 77.0444, 32.2344 ], [ 77.0488, 32.2177 ], [ 77.0378, 32.206 ], [ 77.0216, 32.2062 ], [ 76.9977, 32.1936 ], [ 76.979, 32.1323 ], [ 76.9857, 32.1119 ], [ 76.9423, 32.1134 ], [ 76.9348, 32.0927 ], [ 76.9421, 32.067 ], [ 76.9314, 32.0607 ], [ 76.8575, 32.0506 ], [ 76.842, 32.039 ], [ 76.8022, 32.0634 ], [ 76.8015, 32.073 ], [ 76.7867, 32.0726 ], [ 76.7652, 32.0607 ], [ 76.731, 32.027 ], [ 76.7055, 32.0365 ], [ 76.7049, 32.0472 ], [ 76.6919, 32.0518 ], [ 76.6752, 32.0475 ], [ 76.6605, 32.0285 ], [ 76.6623, 32.0144 ], [ 76.6875, 31.9723 ], [ 76.6881, 31.9441 ], [ 76.6959, 31.9338 ], [ 76.673, 31.9053 ], [ 76.6809, 31.8973 ], [ 76.6758, 31.8979 ], [ 76.6728, 31.8828 ], [ 76.6801, 31.8707 ], [ 76.6556, 31.8684 ], [ 76.6014, 31.8929 ], [ 76.5572, 31.8867 ], [ 76.5257, 31.8592 ], [ 76.5198, 31.8427 ], [ 76.5013, 31.8408 ], [ 76.4783, 31.8268 ], [ 76.4667, 31.8284 ], [ 76.475, 31.8092 ], [ 76.4675, 31.8084 ], [ 76.457, 31.8178 ], [ 76.4544, 31.8099 ], [ 76.4638, 31.8048 ], [ 76.4442, 31.7998 ], [ 76.4408, 31.8116 ], [ 76.4351, 31.7941 ], [ 76.4118, 31.7938 ], [ 76.4129, 31.783 ], [ 76.3964, 31.7947 ], [ 76.3707, 31.7727 ], [ 76.3629, 31.7757 ], [ 76.3651, 31.7807 ], [ 76.3548, 31.792 ], [ 76.3251, 31.7782 ], [ 76.3, 31.7803 ], [ 76.31, 31.7682 ] ] ] } },
{ "type": "Feature", "properties": { "district": "Kinnaur", "did": "himachal_pradesh:Kinnaur", "state_key": "himachal_pradesh" }, "geometry": { "type": "Polygon", "coordinates": [ [ [ 78.8362, 31.3849 ], [ 78.8588, 31.3664 ], [ 78.8638, 31.3464 ], [ 78.8546, 31.3235 ], [ 78.8924, 31.2879 ], [ 78.8988, 31.2627 ], [ 78.9121, 31.2552 ], [ 78.926, 31.2201 ], [ 78.9477, 31.2168 ], [ 78.9438, 31.2065 ], [ 78.9575, 31.1866 ], [ 78.9859, 31.1738 ], [ 78.9876, 31.1433 ], [ 78.9996, 31.1347 ], [ 79.0089, 31.1099 ], [ 78.973, 31.1081 ], [ 78.9507, 31.098 ], [ 78.9322, 31.1007 ], [ 78.9206, 31.1107 ], [ 78.9086, 31.0989 ], [ 78.8854, 31.0987 ], [ 78.8652, 31.12 ], [ 78.848, 31.1251 ], [ 78.8312, 31.1406 ], [ 78.8249, 31.1635 ], [ 78.8107, 31.1719 ], [ 78.8174, 31.1896 ], [ 78.8099, 31.1983 ], [ 78.7652, 31.1858 ], [ 78.7034, 31.189 ], [ 78.6868, 31.1978 ], [ 78.6719, 31.1969 ], [ 78.658, 31.185 ], [ 78.647, 31.2147 ], [ 78.626, 31.2179 ], [ 78.6093, 31.2293 ], [ 78.5782, 31.2253 ], [ 78.5516, 31.1999 ], [ 78.4838, 31.1989 ], [ 78.4798, 31.2138 ], [ 78.4617, 31.236 ], [ 78.4436, 31.2443 ], [ 78.4366, 31.2541 ], [ 78.4152, 31.2399 ], [ 78.407, 31.2422 ], [ 78.4028, 31.2479 ], [ 78.4072, 31.2562 ], [ 78.3963, 31.2751 ], [ 78.3863, 31.2714 ], [ 78.382, 31.2834 ], [ 78.3703, 31.2863 ], [ 78.3235, 31.2778 ], [ 78.294, 31.2902 ], [ 78.302, 31.3154 ], [ 78.2917, 31.3261 ], [ 78.2577, 31.3269 ], [ 78.2453, 31.341 ], [ 78.2376, 31.3416 ], [ 78.2342, 31.3332 ], [ 78.2116, 31.3242 ], [ 78.1826, 31.339 ], [ 78.1769, 31.3369 ], [ 78.1685, 31.346 ], [ 78.1624, 31.3442 ], [ 78.1504, 31.3607 ], [ 78.1643, 31.3753 ], [ 78.1631, 31.3832 ], [ 78.1518, 31.3898 ], [ 78.1436, 31.3877 ], [ 78.1274, 31.4054 ], [ 78.1074, 31.4099 ], [ 78.1015, 31.4192 ], [ 78.0874, 31.4216 ], [ 78.0676, 31.4129 ], [ 78.0546, 31.4174 ], [ 78.0222, 31.3992 ], [ 77.9659, 31.4022 ], [ 77.9469, 31.4236 ], [ 77.9269, 31.4232 ], [ 77.9235, 31.4312 ], [ 77.8967, 31.4454 ], [ 77.8951, 31.4593 ], [ 77.881, 31.4699 ], [ 77.8817, 31.4894 ], [ 77.859, 31.5094 ], [ 77.8397, 31.5059 ], [ 77.8414, 31.5378 ], [ 77.8339, 31.5594 ], [ 77.838, 31.5806 ], [ 77.8114, 31.6134 ], [ 77.8228, 31.6384 ], [ 77.8111, 31.6669 ], [ 77.7929, 31.6743 ], [ 77.7841, 31.6959 ], [ 77.7479, 31.7134 ], [ 77.7545, 31.7207 ], [ 77.7501, 31.7498 ], [ 77.7641, 31.7619 ], [ 77.786, 31.7524 ], [ 77.8074, 31.7611 ], [ 77.8537, 31.7545 ], [ 77.862, 31.7837 ], [ 77.8968, 31.7615 ], [ 77.9, 31.7535 ], [ 77.9361, 31.7477 ], [ 77.9474, 31.7628 ], [ 77.9468, 31.7829 ], [ 77.9526, 31.7872 ], [ 77.9708, 31.7801 ], [ 77.998, 31.78 ], [ 78.0033, 31.7711 ], [ 78.0114, 31.7739 ], [ 78.0323, 31.7579 ], [ 78.0575, 31.7822 ], [ 78.0847, 31.7879 ], [ 78.0829, 31.7972 ], [ 78.0977, 31.8351 ], [ 78.0837, 31.8449 ], [ 78.0942, 31.8508 ], [ 78.0903, 31.8563 ], [ 78.1081, 31.8572 ], [ 78.1268, 31.8675 ], [ 78.1707, 31.8601 ], [ 78.1896, 31.8715 ], [ 78.1822, 31.915 ], [ 78.1937, 31.9172 ], [ 78.2015, 31.9317 ], [ 78.2691, 31.9342 ], [ 78.2993, 31.925 ], [ 78.3102, 31.9371 ], [ 78.3418, 31.9311 ], [ 78.3663, 31.951 ], [ 78.3653, 31.9592 ], [ 78.3999, 31.9537 ], [ 78.4209, 31.9345 ], [ 78.4564, 31.9377 ], [ 78.4535, 31.9489 ], [ 78.4599, 31.9577 ], [ 78.4332, 31.9773 ], [ 78.4401, 31.984 ], [ 78.4376, 32.0191 ], [ 78.4503, 32.0598 ], [ 78.4662, 32.0608 ], [ 78.4826, 32.0483 ], [ 78.4973, 32.0526 ], [ 78.5086, 32.0474 ], [ 78.5498, 32.0622 ], [ 78.5695, 32.0597 ], [ 78.5929, 32.0678 ], [ 78.6032, 32.0634 ], [ 78.6052, 32.0507 ], [ 78.6133, 32.0492 ], [ 78.6287, 32.0671 ], [ 78.6462, 32.0609 ], [ 78.6565, 32.0742 ], [ 78.6691, 32.0705 ], [ 78.6803, 32.0769 ], [ 78.7581, 32.001 ], [ 78.7886, 31.9932 ], [ 78.7782, 31.9352 ], [ 78.7501, 31.9045 ], [ 78.7528, 31.8847 ], [ 78.7402, 31.8375 ], [ 78.7143, 31.8074 ], [ 78.7099, 31.7866 ], [ 78.7202, 31.7645 ], [ 78.7412, 31.7576 ], [ 78.7284, 31.7417 ], [ 78.754, 31.6856 ], [ 78.7758, 31.677 ], [ 78.7982, 31.6818 ], [ 78.807, 31.6471 ], [ 78.852, 31.6169 ], [ 78.8533, 31.6074 ], [ 78.8189, 31.5722 ], [ 78.7907, 31.561 ], [ 78.7698, 31.5426 ], [ 78.747, 31.5386 ], [ 78.729, 31.5198 ], [ 78.7362, 31.4806 ], [ 78.7666, 31.4864 ], [ 78.7736, 31.4739 ], [ 78.8047, 31.4564 ], [ 78.8181, 31.4404 ], [ 78.8109, 31.4092 ], [ 78.792, 31.3955 ], [ 78.8362, 31.3849 ] ] ] } },
{ "type": "Feature", "properties": { "district": "Kullu", "did": "himachal_pradesh:Kullu", "state_key": "himachal_pradesh" }, "geometry": { "type": "Polygon", "coordinates": [ [ [ 77.457, 31.3513 ], [ 77.452, 31.3439 ], [ 77.4292, 31.3404 ], [ 77.4206, 31.3479 ], [ 77.4124, 31.3464 ], [ 77.3983, 31.3615 ], [ 77.3921, 31.3547 ], [ 77.3829, 31.3601 ], [ 77.3891, 31.3756 ], [ 77.3801, 31.4046 ], [ 77.3861, 31.4115 ], [ 77.3293, 31.4559 ], [ 77.3144, 31.507 ], [ 77.316, 31.5327 ], [ 77.2989, 31.552 ], [ 77.3039, 31.5854 ], [ 77.2974, 31.5943 ], [ 77.3062, 31.6167 ], [ 77.2958, 31.6512 ], [ 77.3027, 31.668 ], [ 77.2572, 31.7098 ], [ 77.2135, 31.7254 ], [ 77.2075, 31.7596 ], [ 77.1939, 31.7762 ], [ 77.1973, 31.7853 ], [ 77.1879, 31.819 ], [ 77.1734, 31.8235 ], [ 77.1778, 31.8416 ], [ 77.159, 31.835 ], [ 77.1554, 31.8401 ], [ 77.0977, 31.8388 ], [ 77.082, 31.827 ], [ 77.0773, 31.8372 ], [ 77.0578, 31.8378 ], [ 77.0589, 31.8593 ], [ 77.0368, 31.8816 ], [ 77.0216, 31.9217 ], [ 77.0051, 31.9341 ], [ 76.9968, 31.9574 ], [ 76.9746, 31.9812 ], [ 76.9787, 32.008 ], [ 76.9723, 32.0218 ], [ 76.9385, 32.0429 ], [ 76.9355, 32.0621 ], [ 76.9423, 32.0685 ], [ 76.9348, 32.0927 ], [ 76.9423, 32.1134 ], [ 76.9848, 32.1102 ], [ 76.979, 32.1323 ], [ 76.9977, 32.1936 ], [ 77.0216, 32.2062 ], [ 77.0378, 32.206 ], [ 77.0488, 32.2177 ], [ 77.0444, 32.2344 ], [ 77.0293, 32.2465 ], [ 77.0273, 32.2723 ], [ 77.0403, 32.301 ], [ 77.062, 32.3143 ], [ 77.0698, 32.3346 ], [ 77.0414, 32.3422 ], [ 77.0481, 32.3659 ], [ 77.0746, 32.3993 ], [ 77.0982, 32.3932 ], [ 77.152, 32.4146 ], [ 77.1848, 32.3965 ], [ 77.1951, 32.3983 ], [ 77.1998, 32.3859 ], [ 77.2272, 32.3702 ], [ 77.2427, 32.3754 ], [ 77.2759, 32.3547 ], [ 77.2844, 32.34 ], [ 77.3079, 32.3326 ], [ 77.3278, 32.3147 ], [ 77.3278, 32.3039 ], [ 77.3406, 32.296 ], [ 77.3498, 32.268 ], [ 77.3449, 32.2459 ], [ 77.354, 32.2289 ], [ 77.3811, 32.2113 ], [ 77.4038, 32.2097 ], [ 77.4165, 32.2017 ], [ 77.4209, 32.1887 ], [ 77.4647, 32.1929 ], [ 77.4607, 32.2001 ], [ 77.4681, 32.2047 ], [ 77.4689, 32.2234 ], [ 77.5022, 32.2151 ], [ 77.5148, 32.1977 ], [ 77.5315, 32.1943 ], [ 77.533, 32.2086 ], [ 77.5465, 32.2186 ], [ 77.5664, 32.2036 ], [ 77.5721, 32.1837 ], [ 77.6017, 32.1708 ], [ 77.6082, 32.1597 ], [ 77.6262, 32.1576 ], [ 77.6321, 32.1488 ], [ 77.6526, 32.1421 ], [ 77.6602, 32.1363 ], [ 77.6619, 32.1235 ], [ 77.6884, 32.1005 ], [ 77.705, 32.1022 ], [ 77.7182, 32.0919 ], [ 77.7436, 32.0899 ], [ 77.7647, 32.0593 ], [ 77.7641, 32.0419 ], [ 77.7782, 32.0362 ], [ 77.7906, 32.0183 ], [ 77.773, 32.0052 ], [ 77.7982, 31.9871 ], [ 77.7834, 31.9745 ], [ 77.7673, 31.9421 ], [ 77.782, 31.9299 ], [ 77.7908, 31.9092 ], [ 77.8049, 31.8995 ], [ 77.8288, 31.8982 ], [ 77.8687, 31.8853 ], [ 77.8501, 31.8747 ], [ 77.8381, 31.8543 ], [ 77.8494, 31.8328 ], [ 77.8477, 31.8025 ], [ 77.8657, 31.7917 ], [ 77.8684, 31.7825 ], [ 77.8568, 31.7804 ], [ 77.854, 31.7548 ], [ 77.8074, 31.7611 ], [ 77.786, 31.7524 ], [ 77.7641, 31.7619 ], [ 77.7496, 31.7485 ], [ 77.7545, 31.7211 ], [ 77.7492, 31.7139 ], [ 77.7311, 31.7146 ], [ 77.7115, 31.7036 ], [ 77.6781, 31.7031 ], [ 77.6705, 31.6857 ], [ 77.6574, 31.6795 ], [ 77.6567, 31.6681 ], [ 77.6458, 31.6625 ], [ 77.6467, 31.6523 ], [ 77.6626, 31.6337 ], [ 77.6498, 31.6283 ], [ 77.6457, 31.6153 ], [ 77.6487, 31.583 ], [ 77.6682, 31.5637 ], [ 77.6806, 31.5596 ], [ 77.6866, 31.5446 ], [ 77.6987, 31.542 ], [ 77.6991, 31.5143 ], [ 77.7071, 31.5017 ], [ 77.6823, 31.4829 ], [ 77.6695, 31.4626 ], [ 77.6278, 31.4512 ], [ 77.6211, 31.4206 ], [ 77.6333, 31.401 ], [ 77.6314, 31.3925 ], [ 77.6221, 31.3884 ], [ 77.5914, 31.3992 ], [ 77.5773, 31.3963 ], [ 77.5754, 31.3886 ], [ 77.5539, 31.3902 ], [ 77.5216, 31.3499 ], [ 77.5055, 31.3477 ], [ 77.4987, 31.3555 ], [ 77.457, 31.3513 ] ] ] } },
{ "type": "Feature", "properties": { "district": "Lahul & Spiti", "did": "himachal_pradesh:Lahul & Spiti", "state_key": "himachal_pradesh" }, "geometry": { "type": "Polygon", "coordinates": [ [ [ 77.6432, 32.9465 ], [ 77.656, 32.9589 ], [ 77.6741, 32.9612 ], [ 77.6825, 32.9888 ], [ 77.6975, 32.9794 ], [ 77.7131, 32.9825 ], [ 77.7196, 32.9687 ], [ 77.731, 32.9746 ], [ 77.741, 32.969 ], [ 77.7509, 32.9546 ], [ 77.8117, 32.9052 ], [ 77.8067, 32.8956 ], [ 77.7933, 32.8931 ], [ 77.784, 32.8829 ], [ 77.7846, 32.8615 ], [ 77.815, 32.8489 ], [ 77.8261, 32.8362 ], [ 77.839, 32.842 ], [ 77.8692, 32.827 ], [ 77.8879, 32.7987 ], [ 77.8842, 32.7875 ], [ 77.9037, 32.7719 ], [ 77.9257, 32.772 ], [ 77.9337, 32.7601 ], [ 77.9263, 32.7348 ], [ 77.9344, 32.7259 ], [ 77.9249, 32.7172 ], [ 77.9186, 32.6905 ], [ 77.9346, 32.6811 ], [ 77.9474, 32.6609 ], [ 77.9709, 32.655 ], [ 77.9706, 32.6464 ], [ 78.0159, 32.6196 ], [ 78.029, 32.6235 ], [ 78.0252, 32.6272 ], [ 78.047, 32.6453 ], [ 78.0609, 32.6264 ], [ 78.0747, 32.6309 ], [ 78.0875, 32.6247 ], [ 78.0989, 32.6304 ], [ 78.0926, 32.6478 ], [ 78.1105, 32.6628 ], [ 78.1271, 32.6522 ], [ 78.1472, 32.654 ], [ 78.1424, 32.6818 ], [ 78.1758, 32.681 ], [ 78.219, 32.6646 ], [ 78.2459, 32.6716 ], [ 78.2605, 32.7029 ], [ 78.2932, 32.7003 ], [ 78.306, 32.7071 ], [ 78.3147, 32.7174 ], [ 78.3059, 32.7325 ], [ 78.3129, 32.7398 ], [ 78.3571, 32.7577 ], [ 78.3649, 32.7533 ], [ 78.388, 32.7567 ], [ 78.3854, 32.7196 ], [ 78.4007, 32.6942 ], [ 78.3871, 32.6773 ], [ 78.3814, 32.6541 ], [ 78.3916, 32.6334 ], [ 78.4097, 32.6231 ], [ 78.3908, 32.6149 ], [ 78.3786, 32.5979 ], [ 78.3506, 32.589 ], [ 78.3433, 32.5781 ], [ 78.3136, 32.5659 ], [ 78.3067, 32.5115 ], [ 78.2925, 32.499 ], [ 78.2858, 32.4824 ], [ 78.2913, 32.4753 ], [ 78.2847, 32.4685 ], [ 78.3114, 32.4463 ], [ 78.3291, 32.4434 ], [ 78.3345, 32.4507 ], [ 78.3258, 32.4596 ], [ 78.3284, 32.465 ], [ 78.349, 32.4643 ], [ 78.3497, 32.4775 ], [ 78.3665, 32.4854 ], [ 78.3651, 32.4994 ], [ 78.3942, 32.5148 ], [ 78.3995, 32.5246 ], [ 78.4099, 32.524 ], [ 78.4286, 32.5074 ], [ 78.443, 32.5104 ], [ 78.4612, 32.5038 ], [ 78.4672, 32.4778 ], [ 78.46, 32.4674 ], [ 78.4655, 32.4547 ], [ 78.4898, 32.4348 ], [ 78.4958, 32.422 ], [ 78.5228, 32.4223 ], [ 78.5335, 32.4155 ], [ 78.5148, 32.375 ], [ 78.4848, 32.3491 ], [ 78.4834, 32.2814 ], [ 78.4608, 32.2417 ], [ 78.4963, 32.2375 ], [ 78.5595, 32.2487 ], [ 78.588, 32.2361 ], [ 78.6147, 32.2088 ], [ 78.6138, 32.1754 ], [ 78.5962, 32.1578 ], [ 78.6114, 32.1425 ], [ 78.6177, 32.1152 ], [ 78.6566, 32.1115 ], [ 78.6803, 32.0769 ], [ 78.6691, 32.0705 ], [ 78.6565, 32.0742 ], [ 78.6462, 32.0609 ], [ 78.6287, 32.0671 ], [ 78.6133, 32.0492 ], [ 78.6052, 32.0507 ], [ 78.6032, 32.0634 ], [ 78.5929, 32.0678 ], [ 78.5695, 32.0597 ], [ 78.5498, 32.0622 ], [ 78.5086, 32.0474 ], [ 78.4973, 32.0526 ], [ 78.4826, 32.0483 ], [ 78.4662, 32.0608 ], [ 78.4503, 32.0598 ], [ 78.4376, 32.0191 ], [ 78.4401, 31.984 ], [ 78.4332, 31.9773 ], [ 78.4599, 31.9577 ], [ 78.4535, 31.9489 ], [ 78.4564, 31.9377 ], [ 78.4209, 31.9345 ], [ 78.3999, 31.9537 ], [ 78.3653, 31.9592 ], [ 78.3663, 31.951 ], [ 78.3418, 31.9311 ], [ 78.3102, 31.9371 ], [ 78.2993, 31.925 ], [ 78.2691, 31.9342 ], [ 78.2023, 31.932 ], [ 78.1937, 31.9172 ], [ 78.1822, 31.9152 ], [ 78.1828, 31.887 ], [ 78.1897, 31.8717 ], [ 78.1815, 31.8651 ], [ 78.1627, 31.8591 ], [ 78.1479, 31.8672 ], [ 78.1268, 31.8675 ], [ 78.1081, 31.8572 ], [ 78.0903, 31.8563 ], [ 78.0942, 31.8508 ], [ 78.0837, 31.8449 ], [ 78.0976, 31.8341 ], [ 78.0919, 31.8299 ], [ 78.0962, 31.8227 ], [ 78.0857, 31.8071 ], [ 78.0818, 31.7857 ], [ 78.0575, 31.7822 ], [ 78.04, 31.761 ], [ 78.0284, 31.7576 ], [ 78.0114, 31.7739 ], [ 78.0033, 31.7711 ], [ 77.998, 31.78 ], [ 77.9708, 31.7801 ], [ 77.9515, 31.787 ], [ 77.9388, 31.7499 ], [ 77.9092, 31.7502 ], [ 77.8725, 31.7756 ], [ 77.8657, 31.7917 ], [ 77.8477, 31.8025 ], [ 77.8494, 31.8328 ], [ 77.8381, 31.8543 ], [ 77.8501, 31.8747 ], [ 77.8687, 31.8853 ], [ 77.8288, 31.8982 ], [ 77.8049, 31.8995 ], [ 77.7908, 31.9092 ], [ 77.782, 31.9299 ], [ 77.7673, 31.9421 ], [ 77.7834, 31.9745 ], [ 77.7982, 31.9871 ], [ 77.773, 32.0052 ], [ 77.7906, 32.0183 ], [ 77.7782, 32.0362 ], [ 77.7641, 32.0419 ], [ 77.7647, 32.0593 ], [ 77.7436, 32.0899 ], [ 77.7182, 32.0919 ], [ 77.705, 32.1022 ], [ 77.6884, 32.1005 ], [ 77.6619, 32.1235 ], [ 77.6602, 32.1363 ], [ 77.6526, 32.1421 ], [ 77.6321, 32.1488 ], [ 77.6262, 32.1576 ], [ 77.6082, 32.1597 ], [ 77.6017, 32.1708 ], [ 77.5721, 32.1837 ], [ 77.5664, 32.2036 ], [ 77.5465, 32.2186 ], [ 77.533, 32.2086 ], [ 77.5315, 32.1943 ], [ 77.5148, 32.1977 ], [ 77.5022, 32.2151 ], [ 77.4689, 32.2234 ], [ 77.4681, 32.2047 ], [ 77.4607, 32.2001 ], [ 77.4647, 32.1929 ], [ 77.4209, 32.1887 ], [ 77.4165, 32.2017 ], [ 77.4038, 32.2097 ], [ 77.3811, 32.2113 ], [ 77.354, 32.2289 ], [ 77.3449, 32.2459 ], [ 77.3498, 32.268 ], [ 77.3406, 32.296 ], [ 77.3278, 32.3039 ], [ 77.3278, 32.3147 ], [ 77.3079, 32.3326 ], [ 77.2844, 32.34 ], [ 77.2759, 32.3547 ], [ 77.2427, 32.3754 ], [ 77.2272, 32.3702 ], [ 77.2001, 32.3856 ], [ 77.1951, 32.3983 ], [ 77.1848, 32.3965 ], [ 77.152, 32.4146 ], [ 77.11, 32.3965 ], [ 77.082, 32.3947 ], [ 77.0735, 32.3985 ], [ 77.0777, 32.4181 ], [ 77.0648, 32.418 ], [ 77.0549, 32.4333 ], [ 76.9801, 32.4035 ], [ 76.9472, 32.4027 ], [ 76.9471, 32.4264 ], [ 76.9297, 32.417 ], [ 76.9084, 32.4172 ], [ 76.9169, 32.4352 ], [ 76.8989, 32.4479 ], [ 76.9109, 32.4648 ], [ 76.8642, 32.4633 ], [ 76.8578, 32.4911 ], [ 76.8774, 32.513 ], [ 76.8654, 32.5335 ], [ 76.842, 32.5243 ], [ 76.8272, 32.5303 ], [ 76.8263, 32.5379 ], [ 76.7972, 32.5316 ], [ 76.7922, 32.547 ], [ 76.7651, 32.5454 ], [ 76.7509, 32.5559 ], [ 76.7125, 32.5386 ], [ 76.6977, 32.5456 ], [ 76.6899, 32.5651 ], [ 76.6723, 32.564 ], [ 76.6499, 32.5826 ], [ 76.6268, 32.5746 ], [ 76.6225, 32.5816 ], [ 76.6321, 32.6054 ], [ 76.6024, 32.6047 ], [ 76.5981, 32.6151 ], [ 76.603, 32.6221 ], [ 76.5923, 32.6368 ], [ 76.5494, 32.6564 ], [ 76.5283, 32.6565 ], [ 76.5211, 32.6671 ], [ 76.4669, 32.6523 ], [ 76.4416, 32.658 ], [ 76.4441, 32.6743 ], [ 76.4229, 32.6884 ], [ 76.4301, 32.697 ], [ 76.4285, 32.7087 ], [ 76.3999, 32.7276 ], [ 76.3835, 32.7922 ], [ 76.3743, 32.7977 ], [ 76.3766, 32.8204 ], [ 76.3923, 32.8252 ], [ 76.4143, 32.8432 ], [ 76.4299, 32.8452 ], [ 76.4396, 32.8559 ], [ 76.4531, 32.8499 ], [ 76.4741, 32.821 ], [ 76.4698, 32.8063 ], [ 76.4912, 32.802 ], [ 76.5737, 32.8239 ], [ 76.5865, 32.8407 ], [ 76.6069, 32.8514 ], [ 76.6156, 32.8477 ], [ 76.6456, 32.854 ], [ 76.6572, 32.843 ], [ 76.6758, 32.8465 ], [ 76.7072, 32.8839 ], [ 76.7129, 32.9175 ], [ 76.728, 32.9292 ], [ 76.7554, 32.9248 ], [ 76.7693, 32.9353 ], [ 76.7816, 32.9532 ], [ 76.7819, 32.9686 ], [ 76.7659, 32.9927 ], [ 76.7764, 33.017 ], [ 76.7615, 33.0184 ], [ 76.7598, 33.0345 ], [ 76.7517, 33.0416 ], [ 76.7363, 33.0826 ], [ 76.7358, 33.1038 ], [ 76.7488, 33.1396 ], [ 76.743, 33.1568 ], [ 76.7468, 33.1831 ], [ 76.7773, 33.2258 ], [ 76.7794, 33.2381 ], [ 76.7707, 33.2494 ], [ 76.793, 33.2564 ], [ 76.8009, 33.2553 ], [ 76.8201, 33.2358 ], [ 76.8307, 33.2492 ], [ 76.8432, 33.2467 ], [ 76.8256, 33.2157 ], [ 76.8345, 33.2048 ], [ 76.8174, 33.1941 ], [ 76.8224, 33.1851 ], [ 76.8135, 33.1772 ], [ 76.818, 33.1571 ], [ 76.83, 33.1428 ], [ 76.844, 33.1378 ], [ 76.843, 33.1303 ], [ 76.8529, 33.1257 ], [ 76.8492, 33.1204 ], [ 76.8551, 33.1144 ], [ 76.8705, 33.1134 ], [ 76.8851, 33.1214 ], [ 76.8889, 33.1172 ], [ 76.8977, 33.0987 ], [ 76.9093, 33.0938 ], [ 76.9052, 33.0795 ], [ 76.933, 33.0282 ], [ 76.9597, 33.0153 ], [ 76.9713, 33.0003 ], [ 76.9923, 33.0018 ], [ 77.0095, 32.9887 ], [ 77.0316, 32.9897 ], [ 77.0474, 32.9986 ], [ 77.0802, 32.983 ], [ 77.0865, 32.9724 ], [ 77.1108, 32.9751 ], [ 77.116, 32.9847 ], [ 77.1505, 32.9782 ], [ 77.1487, 32.9562 ], [ 77.1611, 32.9527 ], [ 77.1595, 32.9383 ], [ 77.1645, 32.9365 ], [ 77.1639, 32.9182 ], [ 77.1557, 32.9116 ], [ 77.1704, 32.9107 ], [ 77.188, 32.9287 ], [ 77.2029, 32.9065 ], [ 77.243, 32.8922 ], [ 77.2376, 32.8802 ], [ 77.2543, 32.8639 ], [ 77.274, 32.8739 ], [ 77.3009, 32.8499 ], [ 77.3219, 32.8515 ], [ 77.3287, 32.843 ], [ 77.327, 32.8315 ], [ 77.3386, 32.8169 ], [ 77.3729, 32.8232 ], [ 77.3799, 32.8443 ], [ 77.375, 32.8557 ], [ 77.4061, 32.8835 ], [ 77.428, 32.8756 ], [ 77.4448, 32.8799 ], [ 77.4521, 32.8641 ], [ 77.4692, 32.8587 ], [ 77.5015, 32.8856 ], [ 77.5126, 32.8774 ], [ 77.5385, 32.8861 ], [ 77.5637, 32.9123 ], [ 77.5944, 32.9259 ], [ 77.604, 32.943 ], [ 77.6432, 32.9465 ] ] ] } },
{ "type": "Feature", "properties": { "district": "Mandi", "did": "himachal_pradesh:Mandi", "state_key": "himachal_pradesh" }, "geometry": { "type": "Polygon", "coordinates": [ [ [ 76.8993, 31.3639 ], [ 76.8754, 31.3506 ], [ 76.8736, 31.3704 ], [ 76.8637, 31.3781 ], [ 76.8682, 31.3847 ], [ 76.8814, 31.3843 ], [ 76.8759, 31.4134 ], [ 76.8553, 31.4106 ], [ 76.8348, 31.4218 ], [ 76.8199, 31.4175 ], [ 76.8021, 31.4209 ], [ 76.8031, 31.4401 ], [ 76.7922, 31.4506 ], [ 76.7984, 31.4471 ], [ 76.8019, 31.4547 ], [ 76.7956, 31.4749 ], [ 76.782, 31.4798 ], [ 76.7881, 31.4885 ], [ 76.7839, 31.503 ], [ 76.7655, 31.5181 ], [ 76.7307, 31.5165 ], [ 76.7384, 31.5255 ], [ 76.7346, 31.5349 ], [ 76.7227, 31.5409 ], [ 76.7317, 31.5418 ], [ 76.7275, 31.5525 ], [ 76.7352, 31.5609 ], [ 76.7269, 31.5628 ], [ 76.7308, 31.5809 ], [ 76.7145, 31.6292 ], [ 76.7245, 31.6644 ], [ 76.6941, 31.6772 ], [ 76.6869, 31.6866 ], [ 76.6872, 31.7058 ], [ 76.6707, 31.72 ], [ 76.6732, 31.7341 ], [ 76.6383, 31.7465 ], [ 76.6221, 31.7865 ], [ 76.6346, 31.8655 ], [ 76.6392, 31.8736 ], [ 76.6556, 31.8684 ], [ 76.6801, 31.8707 ], [ 76.6728, 31.8828 ], [ 76.6758, 31.8979 ], [ 76.6809, 31.8973 ], [ 76.673, 31.9053 ], [ 76.6959, 31.9338 ], [ 76.6881, 31.9441 ], [ 76.6875, 31.9723 ], [ 76.6673, 32.0014 ], [ 76.6605, 32.0285 ], [ 76.667, 32.039 ], [ 76.6742, 32.0398 ], [ 76.6748, 32.0472 ], [ 76.6921, 32.0518 ], [ 76.7049, 32.0472 ], [ 76.7056, 32.0364 ], [ 76.7315, 32.0271 ], [ 76.7652, 32.0607 ], [ 76.7867, 32.0726 ], [ 76.8015, 32.073 ], [ 76.8022, 32.0634 ], [ 76.842, 32.039 ], [ 76.8575, 32.0506 ], [ 76.9355, 32.0621 ], [ 76.9387, 32.0426 ], [ 76.9595, 32.0261 ], [ 76.9708, 32.0241 ], [ 76.978, 32.0116 ], [ 76.9746, 31.9812 ], [ 76.9968, 31.9574 ], [ 77.0051, 31.9341 ], [ 77.0216, 31.9217 ], [ 77.0368, 31.8816 ], [ 77.0589, 31.8593 ], [ 77.0578, 31.8378 ], [ 77.0773, 31.8372 ], [ 77.082, 31.827 ], [ 77.0977, 31.8388 ], [ 77.1554, 31.8401 ], [ 77.159, 31.835 ], [ 77.1785, 31.841 ], [ 77.1734, 31.8235 ], [ 77.1879, 31.819 ], [ 77.1973, 31.7853 ], [ 77.1939, 31.7762 ], [ 77.2075, 31.7596 ], [ 77.2135, 31.7254 ], [ 77.2572, 31.7098 ], [ 77.3027, 31.668 ], [ 77.2958, 31.6512 ], [ 77.3062, 31.6167 ], [ 77.2974, 31.5943 ], [ 77.3039, 31.5854 ], [ 77.2989, 31.552 ], [ 77.316, 31.5327 ], [ 77.3144, 31.507 ], [ 77.3293, 31.4559 ], [ 77.3855, 31.4125 ], [ 77.3801, 31.4034 ], [ 77.3891, 31.3756 ], [ 77.3829, 31.3601 ], [ 77.3559, 31.3528 ], [ 77.3432, 31.3345 ], [ 77.3336, 31.2944 ], [ 77.321, 31.2912 ], [ 77.3039, 31.2673 ], [ 77.2813, 31.2639 ], [ 77.269, 31.2727 ], [ 77.2455, 31.2512 ], [ 77.2199, 31.2613 ], [ 77.2013, 31.2427 ], [ 77.1946, 31.2433 ], [ 77.1897, 31.2545 ], [ 77.1688, 31.2348 ], [ 77.1359, 31.2302 ], [ 77.0849, 31.2451 ], [ 77.0729, 31.2587 ], [ 77.0307, 31.2728 ], [ 77.0185, 31.2862 ], [ 76.9709, 31.3127 ], [ 76.9649, 31.3241 ], [ 76.9419, 31.3328 ], [ 76.943, 31.3442 ], [ 76.9198, 31.3655 ], [ 76.8993, 31.3639 ] ] ] } },
{ "type": "Feature", "properties": { "district": "Shimla", "did": "himachal_pradesh:Shimla", "state_key": "himachal_pradesh" }, "geometry": { "type": "Polygon", "coordinates": [ [ [ 77.4514, 30.8631 ], [ 77.4353, 30.8752 ], [ 77.4378, 30.8893 ], [ 77.4181, 30.929 ], [ 77.4433, 30.9449 ], [ 77.4393, 30.9793 ], [ 77.4191, 30.9987 ], [ 77.4107, 30.9967 ], [ 77.3794, 31.0208 ], [ 77.3696, 31.0055 ], [ 77.3363, 30.9985 ], [ 77.3225, 30.978 ], [ 77.3015, 30.9675 ], [ 77.2982, 30.9528 ], [ 77.2673, 30.9419 ], [ 77.2474, 30.9175 ], [ 77.2394, 30.9397 ], [ 77.2495, 30.9479 ], [ 77.2321, 30.9607 ], [ 77.2043, 30.9675 ], [ 77.2018, 30.9736 ], [ 77.2115, 30.9872 ], [ 77.1975, 31.0029 ], [ 77.171, 31.0116 ], [ 77.1644, 30.9998 ], [ 77.1191, 31.0314 ], [ 77.1017, 31.0294 ], [ 77.0863, 31.0425 ], [ 77.0668, 31.048 ], [ 77.0881, 31.0663 ], [ 77.0791, 31.0742 ], [ 77.0805, 31.0827 ], [ 77.0734, 31.078 ], [ 77.0658, 31.0862 ], [ 77.0551, 31.0847 ], [ 77.0359, 31.067 ], [ 77.0355, 31.0755 ], [ 77.024, 31.0852 ], [ 77.0378, 31.0962 ], [ 77.0541, 31.0998 ], [ 77.0485, 31.1143 ], [ 76.9977, 31.1031 ], [ 76.9892, 31.1117 ], [ 77.0116, 31.1143 ], [ 77.0102, 31.1346 ], [ 77.0354, 31.1522 ], [ 77.0331, 31.1785 ], [ 77.0137, 31.1845 ], [ 77.0015, 31.1961 ], [ 77.0075, 31.2132 ], [ 77.021, 31.2213 ], [ 77.0133, 31.224 ], [ 77.0035, 31.2453 ], [ 77.0307, 31.2728 ], [ 77.0729, 31.2587 ], [ 77.0849, 31.2451 ], [ 77.1327, 31.2303 ], [ 77.1688, 31.2348 ], [ 77.1897, 31.2545 ], [ 77.1946, 31.2433 ], [ 77.2013, 31.2427 ], [ 77.2199, 31.2613 ], [ 77.2455, 31.2512 ], [ 77.2686, 31.2726 ], [ 77.2813, 31.2639 ], [ 77.3054, 31.2682 ], [ 77.3071, 31.2785 ], [ 77.3222, 31.2921 ], [ 77.3336, 31.2944 ], [ 77.3445, 31.3371 ], [ 77.3559, 31.3528 ], [ 77.3706, 31.3595 ], [ 77.3849, 31.3602 ], [ 77.3921, 31.3547 ], [ 77.398, 31.3616 ], [ 77.4124, 31.3464 ], [ 77.4206, 31.3479 ], [ 77.4292, 31.3404 ], [ 77.452, 31.3439 ], [ 77.457, 31.3513 ], [ 77.4744, 31.3492 ], [ 77.4881, 31.3552 ], [ 77.5173, 31.3481 ], [ 77.5354, 31.3622 ], [ 77.5539, 31.3902 ], [ 77.5754, 31.3886 ], [ 77.5773, 31.3963 ], [ 77.5961, 31.3992 ], [ 77.6289, 31.39 ], [ 77.6333, 31.401 ], [ 77.6209, 31.4267 ], [ 77.6278, 31.4512 ], [ 77.6695, 31.4626 ], [ 77.6823, 31.4829 ], [ 77.7071, 31.5017 ], [ 77.6991, 31.5143 ], [ 77.6987, 31.542 ], [ 77.6866, 31.5446 ], [ 77.6806, 31.5596 ], [ 77.6682, 31.5637 ], [ 77.6487, 31.583 ], [ 77.6457, 31.6153 ], [ 77.6498, 31.6283 ], [ 77.6626, 31.6337 ], [ 77.6467, 31.6523 ], [ 77.6458, 31.6625 ], [ 77.6567, 31.6681 ], [ 77.6574, 31.6795 ], [ 77.6705, 31.6857 ], [ 77.6781, 31.7031 ], [ 77.7115, 31.7036 ], [ 77.7311, 31.7146 ], [ 77.7479, 31.7134 ], [ 77.7722, 31.7055 ], [ 77.7895, 31.6881 ], [ 77.7929, 31.6743 ], [ 77.8111, 31.6669 ], [ 77.8236, 31.6347 ], [ 77.8121, 31.6095 ], [ 77.838, 31.5806 ], [ 77.8339, 31.5594 ], [ 77.8414, 31.5378 ], [ 77.8397, 31.5059 ], [ 77.8587, 31.5096 ], [ 77.8812, 31.49 ], [ 77.881, 31.4699 ], [ 77.8947, 31.4599 ], [ 77.8974, 31.4448 ], [ 77.9235, 31.4312 ], [ 77.9269, 31.4232 ], [ 77.9469, 31.4236 ], [ 77.9625, 31.4045 ], [ 77.9748, 31.3999 ], [ 77.9909, 31.4036 ], [ 78.0222, 31.3992 ], [ 78.0546, 31.4174 ], [ 78.0676, 31.4129 ], [ 78.0874, 31.4216 ], [ 78.1015, 31.4192 ], [ 78.1074, 31.4099 ], [ 78.1274, 31.4054 ], [ 78.1436, 31.3877 ], [ 78.1518, 31.3898 ], [ 78.1631, 31.3832 ], [ 78.1643, 31.3753 ], [ 78.1504, 31.3607 ], [ 78.1624, 31.3442 ], [ 78.1685, 31.346 ], [ 78.1769, 31.3369 ], [ 78.1826, 31.339 ], [ 78.2122, 31.3242 ], [ 78.2342, 31.3332 ], [ 78.2376, 31.3416 ], [ 78.2452, 31.3411 ], [ 78.2577, 31.3269 ], [ 78.2917, 31.3261 ], [ 78.302, 31.3154 ], [ 78.2915, 31.2933 ], [ 78.3103, 31.2846 ], [ 78.3083, 31.2632 ], [ 78.2919, 31.2599 ], [ 78.2829, 31.2662 ], [ 78.2605, 31.2398 ], [ 78.2495, 31.24 ], [ 78.2456, 31.2297 ], [ 78.2203, 31.2339 ], [ 78.2147, 31.2213 ], [ 78.2012, 31.2172 ], [ 78.187, 31.2271 ], [ 78.1602, 31.2255 ], [ 78.1477, 31.2106 ], [ 78.1334, 31.2083 ], [ 78.1036, 31.1854 ], [ 78.066, 31.1872 ], [ 78.0426, 31.1785 ], [ 78.0297, 31.1641 ], [ 78.0303, 31.151 ], [ 78.0008, 31.162 ], [ 77.9847, 31.157 ], [ 77.9673, 31.1734 ], [ 77.9248, 31.1504 ], [ 77.9086, 31.1541 ], [ 77.8987, 31.1502 ], [ 77.9004, 31.1422 ], [ 77.889, 31.133 ], [ 77.8907, 31.1218 ], [ 77.8638, 31.1085 ], [ 77.8637, 31.094 ], [ 77.8512, 31.0734 ], [ 77.8381, 31.0726 ], [ 77.8244, 31.0554 ], [ 77.8114, 31.0591 ], [ 77.8298, 31.0288 ], [ 77.8115, 31.0316 ], [ 77.8075, 31.0162 ], [ 77.8099, 31.011 ], [ 77.825, 31.0098 ], [ 77.822, 31.0043 ], [ 77.8318, 30.994 ], [ 77.8242, 30.9884 ], [ 77.8144, 30.9618 ], [ 77.8322, 30.9596 ], [ 77.8376, 30.9532 ], [ 77.814, 30.9538 ], [ 77.7937, 30.9688 ], [ 77.7724, 30.9743 ], [ 77.7541, 30.9645 ], [ 77.749, 30.9535 ], [ 77.7527, 30.9338 ], [ 77.7639, 30.9304 ], [ 77.7628, 30.9182 ], [ 77.8133, 30.9219 ], [ 77.8153, 30.9044 ], [ 77.8014, 30.8933 ], [ 77.7989, 30.868 ], [ 77.8057, 30.8532 ], [ 77.7792, 30.8604 ], [ 77.7734, 30.8775 ], [ 77.7582, 30.8768 ], [ 77.7572, 30.86 ], [ 77.744, 30.8466 ], [ 77.7613, 30.8261 ], [ 77.7484, 30.8216 ], [ 77.7214, 30.7758 ], [ 77.7038, 30.764 ], [ 77.6845, 30.7783 ], [ 77.683, 30.7905 ], [ 77.6753, 30.7911 ], [ 77.6663, 30.8026 ], [ 77.6607, 30.8002 ], [ 77.659, 30.8069 ], [ 77.655, 30.8029 ], [ 77.6243, 30.81 ], [ 77.6199, 30.7941 ], [ 77.6082, 30.7909 ], [ 77.6003, 30.7794 ], [ 77.5467, 30.7743 ], [ 77.5484, 30.8004 ], [ 77.5298, 30.7997 ], [ 77.5211, 30.7858 ], [ 77.4925, 30.7952 ], [ 77.4915, 30.8426 ], [ 77.4753, 30.8647 ], [ 77.4514, 30.8631 ] ] ] } },
{ "type": "Feature", "properties": { "district": "Sirmaur", "did": "himachal_pradesh:Sirmaur", "state_key": "himachal_pradesh" }, "geometry": { "type": "Polygon", "coordinates": [ [ [ 77.2135, 30.4684 ], [ 77.2097, 30.4786 ], [ 77.213, 30.4964 ], [ 77.195, 30.5226 ], [ 77.1703, 30.5334 ], [ 77.1454, 30.5365 ], [ 77.1217, 30.5629 ], [ 77.1383, 30.5689 ], [ 77.1402, 30.5781 ], [ 77.1482, 30.5768 ], [ 77.1738, 30.6006 ], [ 77.1714, 30.6275 ], [ 77.1769, 30.637 ], [ 77.163, 30.6508 ], [ 77.1685, 30.6695 ], [ 77.1605, 30.6819 ], [ 77.1672, 30.6839 ], [ 77.1288, 30.7107 ], [ 77.1244, 30.7218 ], [ 77.1137, 30.7182 ], [ 77.1141, 30.7286 ], [ 77.0935, 30.7423 ], [ 77.0681, 30.7409 ], [ 77.0472, 30.753 ], [ 77.0484, 30.7492 ], [ 77.0416, 30.7502 ], [ 77.0456, 30.7413 ], [ 77.027, 30.7369 ], [ 77.0208, 30.7448 ], [ 77.0333, 30.7644 ], [ 77.0834, 30.7921 ], [ 77.0878, 30.8305 ], [ 77.1051, 30.8332 ], [ 77.1163, 30.8437 ], [ 77.1147, 30.8512 ], [ 77.1536, 30.8565 ], [ 77.1692, 30.842 ], [ 77.1871, 30.8509 ], [ 77.1829, 30.8604 ], [ 77.2137, 30.8786 ], [ 77.2056, 30.8888 ], [ 77.2169, 30.8951 ], [ 77.2155, 30.9021 ], [ 77.2313, 30.9009 ], [ 77.2628, 30.9302 ], [ 77.2652, 30.9404 ], [ 77.2808, 30.9506 ], [ 77.2982, 30.9528 ], [ 77.3015, 30.9675 ], [ 77.3225, 30.978 ], [ 77.3363, 30.9985 ], [ 77.3696, 31.0055 ], [ 77.3794, 31.0208 ], [ 77.4107, 30.9967 ], [ 77.4191, 30.9987 ], [ 77.4393, 30.9793 ], [ 77.4433, 30.9449 ], [ 77.4181, 30.929 ], [ 77.4378, 30.8893 ], [ 77.4353, 30.8752 ], [ 77.4514, 30.8631 ], [ 77.4788, 30.8646 ], [ 77.4915, 30.8426 ], [ 77.4925, 30.7952 ], [ 77.5211, 30.7858 ], [ 77.5298, 30.7997 ], [ 77.5484, 30.8004 ], [ 77.5467, 30.7743 ], [ 77.6003, 30.7794 ], [ 77.6082, 30.7909 ], [ 77.6199, 30.7941 ], [ 77.6243, 30.81 ], [ 77.655, 30.8029 ], [ 77.659, 30.8069 ], [ 77.6607, 30.8002 ], [ 77.6663, 30.8026 ], [ 77.6753, 30.7911 ], [ 77.683, 30.7905 ], [ 77.6845, 30.7783 ], [ 77.7038, 30.764 ], [ 77.7074, 30.7403 ], [ 77.7207, 30.7418 ], [ 77.7336, 30.735 ], [ 77.7366, 30.7242 ], [ 77.7559, 30.7065 ], [ 77.7469, 30.6944 ], [ 77.7474, 30.6799 ], [ 77.7812, 30.66 ], [ 77.7921, 30.6602 ], [ 77.7812, 30.6467 ], [ 77.7906, 30.634 ], [ 77.7861, 30.6244 ], [ 77.7964, 30.6143 ], [ 77.7711, 30.6164 ], [ 77.7717, 30.5969 ], [ 77.7461, 30.6039 ], [ 77.7432, 30.5931 ], [ 77.7566, 30.5856 ], [ 77.774, 30.5578 ], [ 77.7836, 30.5598 ], [ 77.7941, 30.5532 ], [ 77.8179, 30.561 ], [ 77.8273, 30.5291 ], [ 77.8198, 30.5241 ], [ 77.8174, 30.5063 ], [ 77.7831, 30.5006 ], [ 77.7394, 30.476 ], [ 77.721, 30.473 ], [ 77.6902, 30.448 ], [ 77.6708, 30.4442 ], [ 77.6524, 30.4481 ], [ 77.6451, 30.4326 ], [ 77.6227, 30.4347 ], [ 77.5862, 30.4216 ], [ 77.5723, 30.4105 ], [ 77.5847, 30.3853 ], [ 77.5805, 30.3773 ], [ 77.5468, 30.396 ], [ 77.5198, 30.4454 ], [ 77.503, 30.4298 ], [ 77.4987, 30.4058 ], [ 77.4929, 30.4117 ], [ 77.4735, 30.401 ], [ 77.4453, 30.396 ], [ 77.4385, 30.404 ], [ 77.4229, 30.4041 ], [ 77.4238, 30.4108 ], [ 77.445, 30.4187 ], [ 77.454, 30.4337 ], [ 77.4616, 30.4346 ], [ 77.4662, 30.45 ], [ 77.459, 30.4581 ], [ 77.436, 30.4328 ], [ 77.4174, 30.4254 ], [ 77.4095, 30.4098 ], [ 77.3986, 30.4174 ], [ 77.4083, 30.4287 ], [ 77.3914, 30.4317 ], [ 77.3876, 30.442 ], [ 77.3672, 30.4422 ], [ 77.364, 30.4344 ], [ 77.3536, 30.4607 ], [ 77.3147, 30.4481 ], [ 77.2944, 30.4545 ], [ 77.2911, 30.4606 ], [ 77.2743, 30.4587 ], [ 77.2654, 30.4768 ], [ 77.2415, 30.4831 ], [ 77.2281, 30.4854 ], [ 77.2135, 30.4684 ] ] ] } },
{ "type": "Feature", "properties": { "district": "Solan", "did": "himachal_pradesh:Solan", "state_key": "himachal_pradesh" }, "geometry": { "type": "MultiPolygon", "coordinates": [ [ [ [ 77.2137, 30.8786 ], [ 77.1829, 30.8604 ], [ 77.1867, 30.8507 ], [ 77.1692, 30.842 ], [ 77.1541, 30.8564 ], [ 77.1192, 30.853 ], [ 77.1051, 30.8332 ], [ 77.0878, 30.8305 ], [ 77.0837, 30.7925 ], [ 77.0333, 30.7644 ], [ 77.0202, 30.7415 ], [ 77.0186, 30.7655 ], [ 77.0013, 30.7704 ], [ 77.0186, 30.7803 ], [ 77.0124, 30.788 ], [ 77.0125, 30.8092 ], [ 77.0028, 30.8056 ], [ 76.9972, 30.8122 ], [ 76.9776, 30.8124 ], [ 76.9705, 30.8247 ], [ 76.9621, 30.8214 ], [ 76.9601, 30.8273 ], [ 76.9508, 30.8138 ], [ 76.9426, 30.8174 ], [ 76.949, 30.8244 ], [ 76.944, 30.8377 ], [ 76.9513, 30.8505 ], [ 76.9438, 30.8529 ], [ 76.9364, 30.8746 ], [ 76.9284, 30.8714 ], [ 76.9266, 30.8726 ], [ 76.9361, 30.8778 ], [ 76.9365, 30.8846 ], [ 76.9284, 30.8915 ], [ 76.9257, 30.8848 ], [ 76.918, 30.8876 ], [ 76.9169, 30.9008 ], [ 76.8696, 30.8731 ], [ 76.8511, 30.89 ], [ 76.841, 30.8917 ], [ 76.8231, 30.9282 ], [ 76.7719, 30.9068 ], [ 76.7663, 30.9211 ], [ 76.7394, 30.9338 ], [ 76.7371, 30.9496 ], [ 76.7085, 30.9703 ], [ 76.6739, 30.9687 ], [ 76.6644, 30.9818 ], [ 76.625, 30.9986 ], [ 76.629, 31.0236 ], [ 76.6168, 31.0305 ], [ 76.611, 31.0458 ], [ 76.623, 31.0546 ], [ 76.6166, 31.0777 ], [ 76.6232, 31.0796 ], [ 76.6386, 31.108 ], [ 76.6362, 31.1165 ], [ 76.6166, 31.1161 ], [ 76.6132, 31.1223 ], [ 76.602, 31.1235 ], [ 76.6123, 31.148 ], [ 76.6023, 31.153 ], [ 76.6072, 31.1742 ], [ 76.5969, 31.1782 ], [ 76.6098, 31.181 ], [ 76.6178, 31.1929 ], [ 76.6454, 31.2091 ], [ 76.6989, 31.2169 ], [ 76.7325, 31.2406 ], [ 76.7578, 31.2265 ], [ 76.7756, 31.2243 ], [ 76.7786, 31.2153 ], [ 76.793, 31.2263 ], [ 76.7997, 31.222 ], [ 76.8176, 31.2287 ], [ 76.8237, 31.2231 ], [ 76.8397, 31.2311 ], [ 76.8556, 31.2193 ], [ 76.8761, 31.2186 ], [ 76.8759, 31.2317 ], [ 76.8659, 31.2455 ], [ 76.8724, 31.262 ], [ 76.8948, 31.2653 ], [ 76.8917, 31.2742 ], [ 76.9132, 31.2834 ], [ 76.9277, 31.3041 ], [ 76.9192, 31.3046 ], [ 76.9161, 31.315 ], [ 76.8954, 31.3153 ], [ 76.8774, 31.3275 ], [ 76.8828, 31.3356 ], [ 76.8737, 31.3487 ], [ 76.8993, 31.3639 ], [ 76.9209, 31.365 ], [ 76.943, 31.3442 ], [ 76.9419, 31.3328 ], [ 76.9649, 31.3241 ], [ 76.9709, 31.3127 ], [ 77.0185, 31.2862 ], [ 77.0307, 31.2728 ], [ 77.0035, 31.2453 ], [ 77.0133, 31.224 ], [ 77.021, 31.2213 ], [ 77.0075, 31.2132 ], [ 77.0015, 31.1961 ], [ 77.0137, 31.1845 ], [ 77.0331, 31.1785 ], [ 77.0353, 31.1518 ], [ 77.0102, 31.1346 ], [ 77.0116, 31.1143 ], [ 77.0038, 31.1108 ], [ 76.9935, 31.1155 ], [ 76.9898, 31.1096 ], [ 76.9977, 31.1031 ], [ 77.0485, 31.1143 ], [ 77.0541, 31.0998 ], [ 77.0378, 31.0962 ], [ 77.024, 31.0852 ], [ 77.0355, 31.0755 ], [ 77.0359, 31.067 ], [ 77.0551, 31.0847 ], [ 77.0658, 31.0862 ], [ 77.0734, 31.078 ], [ 77.0805, 31.0827 ], [ 77.0791, 31.0742 ], [ 77.0881, 31.0663 ], [ 77.0668, 31.048 ], [ 77.0863, 31.0425 ], [ 77.1017, 31.0294 ], [ 77.1191, 31.0314 ], [ 77.1644, 30.9998 ], [ 77.171, 31.0116 ], [ 77.2048, 30.9977 ], [ 77.2115, 30.9872 ], [ 77.2018, 30.9736 ], [ 77.2043, 30.9675 ], [ 77.2321, 30.9607 ], [ 77.2497, 30.9472 ], [ 77.2394, 30.9397 ], [ 77.2462, 30.9152 ], [ 77.2309, 30.9006 ], [ 77.2155, 30.9021 ], [ 77.2169, 30.8951 ], [ 77.2061, 30.8894 ], [ 77.2137, 30.8786 ] ] ], [ [ [ 76.9235, 30.8763 ], [ 76.9177, 30.8865 ], [ 76.9217, 30.8831 ], [ 76.9235, 30.8763 ] ] ] ] } },
{ "type": "Feature", "properties": { "district": "Una", "did": "himachal_pradesh:Una", "state_key": "himachal_pradesh" }, "geometry": { "type": "Polygon", "coordinates": [ [ [ 76.3077, 31.3424 ], [ 76.3224, 31.3216 ], [ 76.2756, 31.3004 ], [ 76.2693, 31.3119 ], [ 76.214, 31.2994 ], [ 76.191, 31.3 ], [ 76.1798, 31.3065 ], [ 76.1788, 31.3405 ], [ 76.159, 31.3437 ], [ 76.1469, 31.359 ], [ 76.1473, 31.3803 ], [ 76.1686, 31.3962 ], [ 76.1683, 31.4104 ], [ 76.1601, 31.4154 ], [ 76.1567, 31.4308 ], [ 76.1453, 31.4341 ], [ 76.1331, 31.4519 ], [ 76.1307, 31.471 ], [ 76.117, 31.483 ], [ 76.1207, 31.4977 ], [ 76.1064, 31.51 ], [ 76.0986, 31.5373 ], [ 76.0563, 31.5853 ], [ 76.0559, 31.6055 ], [ 76.0464, 31.6035 ], [ 76.0193, 31.6305 ], [ 76.0196, 31.6489 ], [ 76.0097, 31.6534 ], [ 76.0057, 31.676 ], [ 75.9726, 31.7386 ], [ 75.9602, 31.7811 ], [ 75.9531, 31.7833 ], [ 75.9367, 31.8154 ], [ 75.9475, 31.813 ], [ 75.969, 31.8239 ], [ 75.9865, 31.8122 ], [ 75.9859, 31.8195 ], [ 75.9712, 31.8285 ], [ 75.96, 31.8569 ], [ 75.9712, 31.8497 ], [ 75.9928, 31.8501 ], [ 76.0144, 31.8664 ], [ 76.0314, 31.8651 ], [ 76.0677, 31.8398 ], [ 76.0829, 31.8408 ], [ 76.081, 31.8342 ], [ 76.0861, 31.8324 ], [ 76.0802, 31.8309 ], [ 76.0875, 31.8208 ], [ 76.1081, 31.8224 ], [ 76.1035, 31.8078 ], [ 76.1135, 31.8013 ], [ 76.1102, 31.7954 ], [ 76.1244, 31.8013 ], [ 76.1476, 31.8003 ], [ 76.1843, 31.7791 ], [ 76.1815, 31.7639 ], [ 76.1982, 31.7721 ], [ 76.2422, 31.724 ], [ 76.273, 31.7035 ], [ 76.2839, 31.6847 ], [ 76.297, 31.6913 ], [ 76.3114, 31.7245 ], [ 76.3644, 31.6423 ], [ 76.3946, 31.6194 ], [ 76.4388, 31.5352 ], [ 76.4411, 31.5137 ], [ 76.4632, 31.4877 ], [ 76.4506, 31.4819 ], [ 76.472, 31.4552 ], [ 76.4625, 31.4438 ], [ 76.4794, 31.4418 ], [ 76.47, 31.4376 ], [ 76.4756, 31.427 ], [ 76.4725, 31.4201 ], [ 76.4636, 31.4223 ], [ 76.4255, 31.4078 ], [ 76.397, 31.4272 ], [ 76.3951, 31.4082 ], [ 76.3875, 31.4094 ], [ 76.3896, 31.4168 ], [ 76.3748, 31.4382 ], [ 76.3673, 31.4044 ], [ 76.3523, 31.3983 ], [ 76.3459, 31.4031 ], [ 76.343, 31.3986 ], [ 76.3311, 31.4016 ], [ 76.3298, 31.379 ], [ 76.3416, 31.3788 ], [ 76.3423, 31.355 ], [ 76.3462, 31.3549 ], [ 76.3532, 31.345 ], [ 76.3375, 31.3398 ], [ 76.3356, 31.3495 ], [ 76.3077, 31.3424 ] ] ] } }
]
}
