{
"type": "FeatureCollection",
"crs": { "type": "name", "properties": { "name": "urn:ogc:def:crs:OGC:1.3:CRS84" } },
"xy_coordinate_resolution": 0.0001,
"features": [
{ "type": "Feature", "properties": { "state": "Andaman & Nicobar", "state_key": "andaman_nicobar", "covered": false }, "geometry": { "type": "Point", "coordinates": [ 92.4841, 10.7226 ] } },
{ "type": "Feature", "properties": { "state": "Andhra Pradesh", "state_key": "andhra_pradesh", "covered": false }, "geometry": { "type": "Point", "coordinates": [ 79.3975, 15.8702 ] } },
{ "type": "Feature", "properties": { "state": "Arunachal Pradesh", "state_key": "arunachal_pradesh", "covered": false }, "geometry": { "type": "Point", "coordinates": [ 95.0361, 28.0464 ] } },
{ "type": "Feature", "properties": { "state": "Assam", "state_key": "assam", "covered": false }, "geometry": { "type": "Point", "coordinates": [ 90.7688, 26.0381 ] } },
{ "type": "Feature", "properties": { "state": "Bihar", "state_key": "bihar", "covered": true }, "geometry": { "type": "Point", "coordinates": [ 86.1285, 25.8898 ] } },
{ "type": "Feature", "properties": { "state": "Chandigarh", "state_key": "chandigarh", "covered": false }, "geometry": { "type": "Point", "coordinates": [ 76.7779, 30.7349 ] } },
{ "type": "Feature", "properties": { "state": "Chhattisgarh", "state_key": "chhattisgarh", "covered": false }, "geometry": { "type": "Point", "coordinates": [ 81.5276, 20.9193 ] } },
{ "type": "Feature", "properties": { "state": "Dadra & Nagar Haveli & Daman & Diu", "state_key": "dadra_nagar_haveli_daman_diu", "covered": false }, "geometry": { "type": "Point", "coordinates": [ 70.9358, 20.7183 ] } },
{ "type": "Feature", "properties": { "state": "Delhi", "state_key": "delhi", "covered": true }, "geometry": { "type": "Point", "coordinates": [ 77.1229, 28.6457 ] } },
{ "type": "Feature", "properties": { "state": "Goa", "state_key": "goa", "covered": false }, "geometry": { "type": "Point", "coordinates": [ 74.1031, 15.3446 ] } },
{ "type": "Feature", "properties": { "state": "Gujarat", "state_key": "gujarat", "covered": false }, "geometry": { "type": "Point", "coordinates": [ 71.986, 22.3976 ] } },
{ "type": "Feature", "properties": { "state": "Haryana", "state_key": "haryana", "covered": false }, "geometry": { "type": "Point", "coordinates": [ 76.2408, 29.277 ] } },
{ "type": "Feature", "properties": { "state": "Himachal Pradesh", "state_key": "himachal_pradesh", "covered": false }, "geometry": { "type": "Point", "coordinates": [ 77.3308, 31.801 ] } },
{ "type": "Feature", "properties": { "state": "Jammu and Kashmir", "state_key": "jammu_and_kashmir", "covered": false }, "geometry": { "type": "Point", "coordinates": [ 74.9278, 33.6973 ] } },
{ "type": "Feature", "properties": { "state": "Jharkhand", "state_key": "jharkhand", "covered": false }, "geometry": { "type": "Point", "coordinates": [ 85.1679, 23.6498 ] } },
{ "type": "Feature", "properties": { "state": "Karnataka", "state_key": "karnataka", "covered": false }, "geometry": { "type": "Point", "coordinates": [ 75.5198, 15.0001 ] } },
{ "type": "Feature", "properties": { "state": "Kerala", "state_key": "kerala", "covered": false }, "geometry": { "type": "Point", "coordinates": [ 76.4418, 10.4804 ] } },
{ "type": "Feature", "properties": { "state": "Ladakh", "state_key": "ladakh", "covered": false }, "geometry": { "type": "Point", "coordinates": [ 77.6195, 34.6838 ] } },
{ "type": "Feature", "properties": { "state": "Lakshadweep", "state_key": "lakshadweep", "covered": false }, "geometry": { "type": "Point", "coordinates": [ 73.6746, 10.8097 ] } },
{ "type": "Feature", "properties": { "state": "Madhya Pradesh", "state_key": "madhya_pradesh", "covered": true }, "geometry": { "type": "Point", "coordinates": [ 79.3815, 23.9456 ] } },
{ "type": "Feature", "properties": { "state": "Maharashtra", "state_key": "maharashtra", "covered": true }, "geometry": { "type": "Point", "coordinates": [ 75.4107, 18.7841 ] } },
{ "type": "Feature", "properties": { "state": "Manipur", "state_key": "manipur", "covered": false }, "geometry": { "type": "Point", "coordinates": [ 93.8626, 24.7684 ] } },
{ "type": "Feature", "properties": { "state": "Meghalaya", "state_key": "meghalaya", "covered": false }, "geometry": { "type": "Point", "coordinates": [ 91.2607, 25.5716 ] } },
{ "type": "Feature", "properties": { "state": "Mizoram", "state_key": "mizoram", "covered": false }, "geometry": { "type": "Point", "coordinates": [ 92.8668, 23.2263 ] } },
{ "type": "Feature", "properties": { "state": "Nagaland", "state_key": "nagaland", "covered": false }, "geometry": { "type": "Point", "coordinates": [ 94.5556, 26.1213 ] } },
{ "type": "Feature", "properties": { "state": "Odisha", "state_key": "odisha", "covered": false }, "geometry": { "type": "Point", "coordinates": [ 84.4538, 20.1599 ] } },
{ "type": "Feature", "properties": { "state": "Puducherry", "state_key": "puducherry", "covered": false }, "geometry": { "type": "Point", "coordinates": [ 79.7972, 10.9199 ] } },
{ "type": "Feature", "properties": { "state": "Punjab", "state_key": "punjab", "covered": false }, "geometry": { "type": "Point", "coordinates": [ 75.5852, 31.008 ] } },
{ "type": "Feature", "properties": { "state": "Rajasthan", "state_key": "rajasthan", "covered": false }, "geometry": { "type": "Point", "coordinates": [ 73.9917, 26.564 ] } },
{ "type": "Feature", "properties": { "state": "Sikkim", "state_key": "sikkim", "covered": false }, "geometry": { "type": "Point", "coordinates": [ 88.4483, 27.5973 ] } },
{ "type": "Feature", "properties": { "state": "Tamil Nadu", "state_key": "tamil_nadu", "covered": false }, "geometry": { "type": "Point", "coordinates": [ 78.364, 10.8122 ] } },
{ "type": "Feature", "properties": { "state": "Telangana", "state_key": "telangana", "covered": false }, "geometry": { "type": "Point", "coordinates": [ 79.2851, 17.8505 ] } },
{ "type": "Feature", "properties": { "state": "Tripura", "state_key": "tripura", "covered": false }, "geometry": { "type": "Point", "coordinates": [ 91.5604, 23.7297 ] } },
{ "type": "Feature", "properties": { "state": "Uttar Pradesh", "state_key": "uttar_pradesh", "covered": true }, "geometry": { "type": "Point", "coordinates": [ 80.7271, 27.0916 ] } },
{ "type": "Feature", "properties": { "state": "Uttarakhand", "state_key": "uttarakhand", "covered": false }, "geometry": { "type": "Point", "coordinates": [ 79.2823, 30.0677 ] } },
{ "type": "Feature", "properties": { "state": "West Bengal", "state_key": "west_bengal", "covered": false }, "geometry": { "type": "Point", "coordinates": [ 88.1309, 24.3581 ] } }
]
}
