{
"type": "FeatureCollection",
"crs": { "type": "name", "properties": { "name": "urn:ogc:def:crs:OGC:1.3:CRS84" } },
"xy_coordinate_resolution": 0.0001,
"features": [
{ "type": "Feature", "properties": { "unit_id": "IND.6.1.1_1", "name": "Chandigarh", "district": "Chandigarh", "did": "chandigarh:Chandigarh", "state_key": "chandigarh" }, "geometry": { "type": "Polygon", "coordinates": [ [ [ 76.7828, 30.7892 ], [ 76.7873, 30.7789 ], [ 76.7796, 30.7777 ], [ 76.7835, 30.7706 ], [ 76.7917, 30.7687 ], [ 76.8092, 30.7794 ], [ 76.8186, 30.7779 ], [ 76.8181, 30.7713 ], [ 76.8054, 30.765 ], [ 76.8156, 30.7527 ], [ 76.8201, 30.7608 ], [ 76.8264, 30.7633 ], [ 76.8358, 30.7558 ], [ 76.839, 30.7512 ], [ 76.8334, 30.7466 ], [ 76.8369, 30.7427 ], [ 76.8315, 30.7395 ], [ 76.8372, 30.7335 ], [ 76.8482, 30.7303 ], [ 76.8494, 30.7234 ], [ 76.8436, 30.7192 ], [ 76.8494, 30.7183 ], [ 76.8472, 30.7123 ], [ 76.8356, 30.7036 ], [ 76.8252, 30.6882 ], [ 76.8319, 30.6832 ], [ 76.8075, 30.667 ], [ 76.8026, 30.6665 ], [ 76.8005, 30.6702 ], [ 76.7967, 30.6675 ], [ 76.7899, 30.6756 ], [ 76.7769, 30.6703 ], [ 76.7643, 30.6864 ], [ 76.7528, 30.6845 ], [ 76.7478, 30.6875 ], [ 76.7472, 30.6955 ], [ 76.7393, 30.6929 ], [ 76.7391, 30.7057 ], [ 76.73, 30.7068 ], [ 76.7311, 30.7236 ], [ 76.7213, 30.73 ], [ 76.7142, 30.7409 ], [ 76.7075, 30.7395 ], [ 76.7052, 30.7429 ], [ 76.7079, 30.7497 ], [ 76.7053, 30.756 ], [ 76.7108, 30.761 ], [ 76.743, 30.7694 ], [ 76.7433, 30.7759 ], [ 76.7523, 30.7803 ], [ 76.7517, 30.7842 ], [ 76.7723, 30.7941 ], [ 76.7828, 30.7892 ] ] ] } }
]
}
