{
"type": "FeatureCollection",
"crs": { "type": "name", "properties": { "name": "urn:ogc:def:crs:OGC:1.3:CRS84" } },
"xy_coordinate_resolution": 0.0001,
"features": [
{ "type": "Feature", "properties": { "unit_id": "IND.22.7.1_1", "name": "South West Garo Hills", "district": "South West Garo Hills", "did": "meghalaya:South West Garo Hills", "state_key": "meghalaya" }, "geometry": { "type": "Polygon", "coordinates": [ [ [ 89.9545, 25.301 ], [ 89.9492, 25.2927 ], [ 89.9439, 25.3044 ], [ 89.939, 25.299 ], [ 89.907, 25.3077 ], [ 89.8992, 25.3046 ], [ 89.8852, 25.288 ], [ 89.8766, 25.2853 ], [ 89.8593, 25.286 ], [ 89.8312, 25.296 ], [ 89.8416, 25.3082 ], [ 89.8414, 25.3148 ], [ 89.8214, 25.3555 ], [ 89.8196, 25.3804 ], [ 89.8271, 25.4015 ], [ 89.8254, 25.4133 ], [ 89.8327, 25.4388 ], [ 89.843, 25.4565 ], [ 89.8717, 25.4773 ], [ 89.8767, 25.4955 ], [ 89.8729, 25.5074 ], [ 89.8859, 25.5079 ], [ 89.8807, 25.5167 ], [ 89.8835, 25.5191 ], [ 89.8733, 25.5169 ], [ 89.8679, 25.5242 ], [ 89.8681, 25.5299 ], [ 89.8788, 25.5377 ], [ 89.8749, 25.5437 ], [ 89.8777, 25.5497 ], [ 89.8987, 25.5605 ], [ 89.9369, 25.5644 ], [ 89.9605, 25.5744 ], [ 89.9722, 25.5735 ], [ 89.9828, 25.5909 ], [ 90.003, 25.5854 ], [ 90.0109, 25.6004 ], [ 90.0289, 25.6054 ], [ 90.0582, 25.5984 ], [ 90.0842, 25.5866 ], [ 90.1058, 25.5613 ], [ 90.1216, 25.5637 ], [ 90.1249, 25.5576 ], [ 90.1179, 25.5478 ], [ 90.121, 25.5315 ], [ 90.1302, 25.5345 ], [ 90.1266, 25.5391 ], [ 90.139, 25.5373 ], [ 90.1371, 25.5452 ], [ 90.1411, 25.5537 ], [ 90.1481, 25.5449 ], [ 90.1556, 25.5499 ], [ 90.1606, 25.5481 ], [ 90.1633, 25.5396 ], [ 90.1589, 25.5408 ], [ 90.1561, 25.5351 ], [ 90.1622, 25.5336 ], [ 90.1576, 25.5185 ], [ 90.1614, 25.5127 ], [ 90.1597, 25.5006 ], [ 90.1575, 25.4905 ], [ 90.1512, 25.4878 ], [ 90.1602, 25.4849 ], [ 90.1641, 25.4756 ], [ 90.1522, 25.4429 ], [ 90.1577, 25.4387 ], [ 90.1468, 25.4209 ], [ 90.151, 25.4172 ], [ 90.1477, 25.3982 ], [ 90.1557, 25.389 ], [ 90.1468, 25.3761 ], [ 90.0555, 25.3551 ], [ 90.0187, 25.3507 ], [ 90.0151, 25.3476 ], [ 90.0166, 25.3397 ], [ 90.0099, 25.3369 ], [ 90.01, 25.3309 ], [ 89.9803, 25.3246 ], [ 89.9772, 25.3205 ], [ 89.9806, 25.317 ], [ 89.9665, 25.3036 ], [ 89.9545, 25.301 ] ] ] } },
{ "type": "Feature", "properties": { "unit_id": "IND.22.1.1_1", "name": "North Garo Hills", "district": "North Garo Hills", "did": "meghalaya:North Garo Hills", "state_key": "meghalaya" }, "geometry": { "type": "Polygon", "coordinates": [ [ [ 90.535, 25.9496 ], [ 90.5342, 25.939 ], [ 90.5207, 25.926 ], [ 90.5086, 25.9015 ], [ 90.5136, 25.8963 ], [ 90.5214, 25.8985 ], [ 90.5381, 25.9137 ], [ 90.5491, 25.9154 ], [ 90.5438, 25.9236 ], [ 90.5524, 25.9227 ], [ 90.5767, 25.9367 ], [ 90.5798, 25.9513 ], [ 90.5879, 25.9581 ], [ 90.5997, 25.9551 ], [ 90.6049, 25.9471 ], [ 90.6241, 25.9392 ], [ 90.6063, 25.9166 ], [ 90.6136, 25.8993 ], [ 90.6219, 25.8978 ], [ 90.6308, 25.9063 ], [ 90.6262, 25.9134 ], [ 90.6316, 25.9198 ], [ 90.6727, 25.9346 ], [ 90.6883, 25.9489 ], [ 90.7138, 25.9517 ], [ 90.7176, 25.9549 ], [ 90.7245, 25.9468 ], [ 90.7428, 25.958 ], [ 90.7444, 25.9551 ], [ 90.7481, 25.9567 ], [ 90.7478, 25.9483 ], [ 90.7404, 25.9394 ], [ 90.7467, 25.9281 ], [ 90.7528, 25.9343 ], [ 90.7542, 25.9294 ], [ 90.747, 25.9248 ], [ 90.7478, 25.9189 ], [ 90.739, 25.9162 ], [ 90.7453, 25.9118 ], [ 90.7605, 25.9219 ], [ 90.7567, 25.911 ], [ 90.7664, 25.9076 ], [ 90.7812, 25.9113 ], [ 90.7845, 25.9251 ], [ 90.7964, 25.9405 ], [ 90.8091, 25.9474 ], [ 90.8091, 25.9524 ], [ 90.8193, 25.9503 ], [ 90.8244, 25.9454 ], [ 90.8259, 25.9487 ], [ 90.8329, 25.9459 ], [ 90.8362, 25.9484 ], [ 90.8355, 25.9366 ], [ 90.8444, 25.946 ], [ 90.8748, 25.9425 ], [ 90.8717, 25.9476 ], [ 90.8767, 25.9494 ], [ 90.8811, 25.9428 ], [ 90.8805, 25.9505 ], [ 90.8845, 25.9503 ], [ 90.89, 25.9381 ], [ 90.8975, 25.9375 ], [ 90.8944, 25.9312 ], [ 90.9053, 25.9289 ], [ 90.9168, 25.9141 ], [ 90.9195, 25.9152 ], [ 90.9142, 25.9257 ], [ 90.9173, 25.9444 ], [ 90.9339, 25.9398 ], [ 90.94, 25.9473 ], [ 90.9474, 25.9481 ], [ 90.9461, 25.941 ], [ 90.957, 25.935 ], [ 90.9666, 25.9141 ], [ 90.969, 25.9038 ], [ 90.966, 25.8884 ], [ 90.9689, 25.8852 ], [ 90.9761, 25.8897 ], [ 91.0106, 25.8842 ], [ 91.0252, 25.8888 ], [ 91.0305, 25.8858 ], [ 91.0281, 25.8699 ], [ 91.014, 25.8569 ], [ 91.0153, 25.8484 ], [ 91.0023, 25.8238 ], [ 90.9702, 25.794 ], [ 90.9659, 25.7814 ], [ 90.9509, 25.7724 ], [ 90.9388, 25.7698 ], [ 90.9103, 25.7465 ], [ 90.9022, 25.7452 ], [ 90.8848, 25.7189 ], [ 90.8527, 25.7177 ], [ 90.849, 25.7248 ], [ 90.844, 25.7254 ], [ 90.844, 25.73 ], [ 90.8384, 25.7328 ], [ 90.8573, 25.7441 ], [ 90.854, 25.7567 ], [ 90.8136, 25.764 ], [ 90.8141, 25.7765 ], [ 90.8052, 25.805 ], [ 90.7989, 25.8011 ], [ 90.7987, 25.8087 ], [ 90.7357, 25.809 ], [ 90.7048, 25.8248 ], [ 90.6852, 25.8014 ], [ 90.6866, 25.7899 ], [ 90.6778, 25.7744 ], [ 90.6654, 25.7765 ], [ 90.6601, 25.7813 ], [ 90.6553, 25.7748 ], [ 90.6404, 25.7793 ], [ 90.6352, 25.7643 ], [ 90.628, 25.7616 ], [ 90.6244, 25.754 ], [ 90.5983, 25.7503 ], [ 90.5971, 25.7398 ], [ 90.5864, 25.7403 ], [ 90.5863, 25.7454 ], [ 90.5764, 25.7506 ], [ 90.5639, 25.7795 ], [ 90.5568, 25.77 ], [ 90.5497, 25.7689 ], [ 90.545, 25.7727 ], [ 90.5471, 25.7793 ], [ 90.5407, 25.7772 ], [ 90.5014, 25.7127 ], [ 90.4936, 25.7155 ], [ 90.4871, 25.7084 ], [ 90.4918, 25.6999 ], [ 90.4864, 25.6841 ], [ 90.4884, 25.6773 ], [ 90.4847, 25.6788 ], [ 90.4818, 25.6759 ], [ 90.4763, 25.6815 ], [ 90.4573, 25.6825 ], [ 90.4547, 25.697 ], [ 90.4395, 25.6953 ], [ 90.4198, 25.7088 ], [ 90.4185, 25.7153 ], [ 90.4232, 25.7217 ], [ 90.4166, 25.7293 ], [ 90.4051, 25.7329 ], [ 90.3966, 25.7401 ], [ 90.4014, 25.7412 ], [ 90.4085, 25.7514 ], [ 90.4154, 25.7671 ], [ 90.4048, 25.7849 ], [ 90.3838, 25.8116 ], [ 90.3524, 25.8174 ], [ 90.3463, 25.8224 ], [ 90.3461, 25.8276 ], [ 90.3522, 25.835 ], [ 90.3897, 25.8419 ], [ 90.3911, 25.8446 ], [ 90.3856, 25.8673 ], [ 90.3884, 25.8909 ], [ 90.4001, 25.9245 ], [ 90.4081, 25.9281 ], [ 90.4069, 25.9347 ], [ 90.4127, 25.9375 ], [ 90.4107, 25.96 ], [ 90.42, 25.9643 ], [ 90.4256, 25.9809 ], [ 90.4238, 25.989 ], [ 90.4375, 25.9917 ], [ 90.4761, 26.0096 ], [ 90.4887, 26.0034 ], [ 90.5063, 25.9867 ], [ 90.535, 25.9496 ] ] ] } },
{ "type": "Feature", "properties": { "unit_id": "IND.22.5.1_1", "name": "Ribhoi", "district": "Ri-bhoi", "did": "meghalaya:Ri-bhoi", "state_key": "meghalaya" }, "geometry": { "type": "Polygon", "coordinates": [ [ [ 92.1761, 26.0702 ], [ 92.1873, 26.0693 ], [ 92.1872, 26.0666 ], [ 92.2205, 26.0703 ], [ 92.2416, 26.0618 ], [ 92.2689, 26.0682 ], [ 92.2749, 26.0657 ], [ 92.2639, 26.0574 ], [ 92.27, 26.0475 ], [ 92.269, 26.0428 ], [ 92.2611, 26.0416 ], [ 92.2635, 26.0331 ], [ 92.2437, 26.0215 ], [ 92.2445, 26.0182 ], [ 92.2339, 26.0091 ], [ 92.2119, 26.0046 ], [ 92.2092, 25.9979 ], [ 92.2039, 26.0012 ], [ 92.1975, 25.9946 ], [ 92.1985, 25.9882 ], [ 92.1809, 25.985 ], [ 92.1787, 25.9774 ], [ 92.1642, 25.9703 ], [ 92.1641, 25.9578 ], [ 92.1527, 25.9451 ], [ 92.1524, 25.9398 ], [ 92.1602, 25.9353 ], [ 92.1609, 25.9282 ], [ 92.1547, 25.911 ], [ 92.1755, 25.9074 ], [ 92.1861, 25.9166 ], [ 92.1895, 25.9146 ], [ 92.1945, 25.9185 ], [ 92.194, 25.9117 ], [ 92.2023, 25.9063 ], [ 92.2173, 25.9115 ], [ 92.2256, 25.9092 ], [ 92.215, 25.8953 ], [ 92.199, 25.889 ], [ 92.1875, 25.8772 ], [ 92.1772, 25.8727 ], [ 92.1801, 25.8582 ], [ 92.1775, 25.8515 ], [ 92.1726, 25.8499 ], [ 92.1698, 25.8389 ], [ 92.162, 25.8355 ], [ 92.1613, 25.8206 ], [ 92.157, 25.8216 ], [ 92.1511, 25.8166 ], [ 92.1464, 25.7841 ], [ 92.1527, 25.778 ], [ 92.1478, 25.773 ], [ 92.1627, 25.7409 ], [ 92.1544, 25.725 ], [ 92.1482, 25.7253 ], [ 92.1442, 25.7168 ], [ 92.1477, 25.7095 ], [ 92.1548, 25.7062 ], [ 92.1596, 25.6762 ], [ 92.1501, 25.6696 ], [ 92.1386, 25.6733 ], [ 92.1196, 25.6562 ], [ 92.1141, 25.6463 ], [ 92.0927, 25.6393 ], [ 92.0814, 25.6372 ], [ 92.0612, 25.6551 ], [ 92.0348, 25.6534 ], [ 92.0183, 25.6633 ], [ 92.0152, 25.6588 ], [ 92.0107, 25.6602 ], [ 92.0081, 25.652 ], [ 92.0067, 25.6525 ], [ 92.005, 25.6551 ], [ 92.0008, 25.6518 ], [ 92.0015, 25.6458 ], [ 91.9955, 25.6503 ], [ 91.9889, 25.6475 ], [ 91.9829, 25.6518 ], [ 91.9805, 25.6476 ], [ 91.9738, 25.6472 ], [ 91.9594, 25.6543 ], [ 91.9391, 25.6497 ], [ 91.9317, 25.6531 ], [ 91.9255, 25.6647 ], [ 91.921, 25.666 ], [ 91.8985, 25.6586 ], [ 91.886, 25.6412 ], [ 91.8704, 25.6388 ], [ 91.8601, 25.6301 ], [ 91.8541, 25.6309 ], [ 91.8613, 25.6416 ], [ 91.8591, 25.6465 ], [ 91.8484, 25.6505 ], [ 91.838, 25.6443 ], [ 91.8318, 25.647 ], [ 91.8262, 25.6776 ], [ 91.8281, 25.6887 ], [ 91.82, 25.7024 ], [ 91.8133, 25.7054 ], [ 91.8152, 25.7208 ], [ 91.8114, 25.7293 ], [ 91.8083, 25.7333 ], [ 91.7848, 25.7318 ], [ 91.7841, 25.7389 ], [ 91.7735, 25.7398 ], [ 91.7724, 25.7444 ], [ 91.7683, 25.7433 ], [ 91.7654, 25.7497 ], [ 91.7791, 25.7633 ], [ 91.7884, 25.7822 ], [ 91.7878, 25.7907 ], [ 91.7792, 25.7947 ], [ 91.7703, 25.8087 ], [ 91.7496, 25.8271 ], [ 91.7239, 25.8269 ], [ 91.7074, 25.8199 ], [ 91.6979, 25.8047 ], [ 91.6594, 25.8144 ], [ 91.6424, 25.8028 ], [ 91.6317, 25.8099 ], [ 91.6, 25.8099 ], [ 91.5967, 25.8053 ], [ 91.587, 25.8119 ], [ 91.557, 25.8082 ], [ 91.5374, 25.7988 ], [ 91.5314, 25.8016 ], [ 91.48, 25.7966 ], [ 91.4748, 25.7916 ], [ 91.4585, 25.7884 ], [ 91.4574, 25.795 ], [ 91.4227, 25.7931 ], [ 91.4182, 25.8031 ], [ 91.3948, 25.8051 ], [ 91.3803, 25.8009 ], [ 91.3716, 25.8025 ], [ 91.3595, 25.8065 ], [ 91.3419, 25.8246 ], [ 91.3423, 25.8357 ], [ 91.3464, 25.84 ], [ 91.3658, 25.84 ], [ 91.3729, 25.8467 ], [ 91.3811, 25.8456 ], [ 91.4225, 25.8545 ], [ 91.4451, 25.8397 ], [ 91.4631, 25.857 ], [ 91.4779, 25.8573 ], [ 91.4837, 25.8642 ], [ 91.4958, 25.8638 ], [ 91.4974, 25.8611 ], [ 91.5137, 25.864 ], [ 91.5224, 25.8729 ], [ 91.5304, 25.8713 ], [ 91.5304, 25.8816 ], [ 91.5352, 25.8839 ], [ 91.5266, 25.8911 ], [ 91.5213, 25.8835 ], [ 91.5213, 25.8751 ], [ 91.5131, 25.8657 ], [ 91.4816, 25.8678 ], [ 91.475, 25.8702 ], [ 91.4748, 25.874 ], [ 91.4784, 25.8875 ], [ 91.484, 25.893 ], [ 91.4919, 25.8959 ], [ 91.5039, 25.8912 ], [ 91.4987, 25.896 ], [ 91.5049, 25.9078 ], [ 91.537, 25.9312 ], [ 91.5366, 25.9358 ], [ 91.5047, 25.9114 ], [ 91.5029, 25.9265 ], [ 91.508, 25.9323 ], [ 91.5138, 25.9329 ], [ 91.5151, 25.9412 ], [ 91.5198, 25.9399 ], [ 91.5181, 25.9597 ], [ 91.5356, 25.9623 ], [ 91.5384, 25.9714 ], [ 91.5512, 25.9766 ], [ 91.5517, 25.985 ], [ 91.5606, 26.0009 ], [ 91.5651, 26.002 ], [ 91.5636, 26.0075 ], [ 91.5722, 26.0154 ], [ 91.5707, 26.0257 ], [ 91.5801, 26.0333 ], [ 91.5887, 26.0296 ], [ 91.5975, 26.0181 ], [ 91.6002, 26.0216 ], [ 91.6195, 26.026 ], [ 91.6311, 26.022 ], [ 91.6349, 26.0121 ], [ 91.6282, 26.0007 ], [ 91.6302, 25.9901 ], [ 91.6261, 25.9867 ], [ 91.6283, 25.9761 ], [ 91.6407, 25.9638 ], [ 91.6344, 25.9605 ], [ 91.6298, 25.9433 ], [ 91.6119, 25.945 ], [ 91.6095, 25.9374 ], [ 91.6365, 25.9213 ], [ 91.6515, 25.9063 ], [ 91.6634, 25.9078 ], [ 91.6706, 25.9042 ], [ 91.6788, 25.9163 ], [ 91.6881, 25.9202 ], [ 91.7024, 25.9413 ], [ 91.7135, 25.944 ], [ 91.7201, 25.9536 ], [ 91.723, 26.0351 ], [ 91.7253, 26.0462 ], [ 91.7337, 26.0492 ], [ 91.7369, 26.0562 ], [ 91.7311, 26.0589 ], [ 91.7627, 26.0724 ], [ 91.7773, 26.0893 ], [ 91.7859, 26.084 ], [ 91.7914, 26.0852 ], [ 91.8004, 26.1 ], [ 91.8029, 26.0953 ], [ 91.8056, 26.0991 ], [ 91.809, 26.0978 ], [ 91.8254, 26.1194 ], [ 91.8658, 26.1004 ], [ 91.8792, 26.098 ], [ 91.8719, 26.051 ], [ 91.8673, 26.042 ], [ 91.8748, 26.043 ], [ 91.8731, 26.0388 ], [ 91.883, 26.0261 ], [ 91.8887, 26.0279 ], [ 91.9147, 26.0205 ], [ 91.9148, 26.014 ], [ 91.9098, 26.0127 ], [ 91.9133, 26.0094 ], [ 91.9098, 26.0088 ], [ 91.9142, 26.0072 ], [ 91.9144, 25.9988 ], [ 91.919, 25.9978 ], [ 91.9283, 26.0024 ], [ 91.9311, 26.0124 ], [ 91.934, 26.0103 ], [ 91.9472, 26.0132 ], [ 91.9732, 26.0221 ], [ 91.979, 26.0275 ], [ 91.9836, 26.0258 ], [ 91.9891, 26.0385 ], [ 92.0041, 26.0356 ], [ 92.0062, 26.0386 ], [ 92.0306, 26.0396 ], [ 92.0514, 26.0328 ], [ 92.0668, 26.0351 ], [ 92.0973, 26.0492 ], [ 92.1088, 26.0507 ], [ 92.1214, 26.0439 ], [ 92.1326, 26.0442 ], [ 92.1342, 26.0524 ], [ 92.1434, 26.056 ], [ 92.1527, 26.0671 ], [ 92.1691, 26.0776 ], [ 92.1792, 26.0771 ], [ 92.1761, 26.0702 ] ] ] } },
{ "type": "Feature", "properties": { "unit_id": "IND.22.3.1_1", "name": "East Jaintia Hills", "district": "East Jaintia Hills", "did": "meghalaya:East Jaintia Hills", "state_key": "meghalaya" }, "geometry": { "type": "Polygon", "coordinates": [ [ [ 92.5199, 25.1059 ], [ 92.5089, 25.1042 ], [ 92.497, 25.1095 ], [ 92.481, 25.1086 ], [ 92.4774, 25.1002 ], [ 92.4794, 25.0866 ], [ 92.4741, 25.082 ], [ 92.4753, 25.0778 ], [ 92.4706, 25.0764 ], [ 92.472, 25.0673 ], [ 92.4637, 25.0549 ], [ 92.4602, 25.0573 ], [ 92.457, 25.0541 ], [ 92.457, 25.0467 ], [ 92.4624, 25.0481 ], [ 92.4643, 25.0374 ], [ 92.4425, 25.0452 ], [ 92.4383, 25.0439 ], [ 92.4382, 25.0346 ], [ 92.4322, 25.0351 ], [ 92.4293, 25.0291 ], [ 92.4215, 25.0278 ], [ 92.3991, 25.0328 ], [ 92.3928, 25.0398 ], [ 92.3838, 25.0424 ], [ 92.3833, 25.0385 ], [ 92.3749, 25.0436 ], [ 92.3709, 25.0427 ], [ 92.3697, 25.0409 ], [ 92.363, 25.0499 ], [ 92.3608, 25.0467 ], [ 92.3581, 25.0501 ], [ 92.3567, 25.0474 ], [ 92.3415, 25.0485 ], [ 92.3424, 25.0542 ], [ 92.3382, 25.0515 ], [ 92.349, 25.0609 ], [ 92.3486, 25.0735 ], [ 92.3349, 25.0784 ], [ 92.3218, 25.0782 ], [ 92.3191, 25.0699 ], [ 92.3141, 25.072 ], [ 92.3106, 25.069 ], [ 92.2553, 25.0853 ], [ 92.2314, 25.0969 ], [ 92.2276, 25.0937 ], [ 92.2232, 25.1031 ], [ 92.2139, 25.107 ], [ 92.1962, 25.108 ], [ 92.2004, 25.12 ], [ 92.2197, 25.1151 ], [ 92.213, 25.121 ], [ 92.1936, 25.1263 ], [ 92.1952, 25.1302 ], [ 92.2034, 25.1287 ], [ 92.2068, 25.1314 ], [ 92.2068, 25.1417 ], [ 92.2128, 25.1478 ], [ 92.2082, 25.1576 ], [ 92.2152, 25.1585 ], [ 92.2253, 25.1539 ], [ 92.2258, 25.1686 ], [ 92.2338, 25.1761 ], [ 92.2309, 25.1849 ], [ 92.2386, 25.1897 ], [ 92.2371, 25.1988 ], [ 92.2319, 25.2037 ], [ 92.236, 25.2114 ], [ 92.2284, 25.2124 ], [ 92.2264, 25.2219 ], [ 92.2145, 25.23 ], [ 92.2065, 25.2276 ], [ 92.2053, 25.246 ], [ 92.1981, 25.2664 ], [ 92.1994, 25.2917 ], [ 92.1896, 25.2997 ], [ 92.193, 25.3055 ], [ 92.1872, 25.309 ], [ 92.177, 25.3261 ], [ 92.1777, 25.3327 ], [ 92.1718, 25.3359 ], [ 92.1725, 25.3485 ], [ 92.1742, 25.3541 ], [ 92.1911, 25.3633 ], [ 92.2247, 25.3741 ], [ 92.2288, 25.3727 ], [ 92.2343, 25.3793 ], [ 92.2446, 25.3811 ], [ 92.2551, 25.4054 ], [ 92.26, 25.4065 ], [ 92.2564, 25.4164 ], [ 92.2643, 25.4257 ], [ 92.2607, 25.45 ], [ 92.2904, 25.4532 ], [ 92.3509, 25.4368 ], [ 92.4176, 25.436 ], [ 92.448, 25.4419 ], [ 92.4624, 25.4391 ], [ 92.4781, 25.4448 ], [ 92.502, 25.4421 ], [ 92.5049, 25.4595 ], [ 92.5139, 25.4661 ], [ 92.5325, 25.4632 ], [ 92.5367, 25.4529 ], [ 92.5433, 25.4507 ], [ 92.5482, 25.4599 ], [ 92.5679, 25.4563 ], [ 92.5665, 25.4634 ], [ 92.5804, 25.4721 ], [ 92.5841, 25.4656 ], [ 92.5956, 25.4702 ], [ 92.6004, 25.4648 ], [ 92.5976, 25.4507 ], [ 92.6046, 25.4476 ], [ 92.6066, 25.4132 ], [ 92.6186, 25.423 ], [ 92.6276, 25.422 ], [ 92.6256, 25.4349 ], [ 92.6358, 25.4273 ], [ 92.6396, 25.4176 ], [ 92.6536, 25.4335 ], [ 92.6519, 25.4192 ], [ 92.6616, 25.4064 ], [ 92.6675, 25.4148 ], [ 92.6735, 25.414 ], [ 92.6778, 25.407 ], [ 92.6928, 25.3977 ], [ 92.6983, 25.3863 ], [ 92.7099, 25.3845 ], [ 92.7179, 25.3726 ], [ 92.7237, 25.3788 ], [ 92.738, 25.3793 ], [ 92.7324, 25.3689 ], [ 92.7464, 25.3583 ], [ 92.7499, 25.3441 ], [ 92.7611, 25.3335 ], [ 92.7699, 25.3382 ], [ 92.7818, 25.3332 ], [ 92.7869, 25.3144 ], [ 92.7814, 25.3045 ], [ 92.7925, 25.2826 ], [ 92.7875, 25.2741 ], [ 92.7686, 25.2681 ], [ 92.7777, 25.2582 ], [ 92.775, 25.252 ], [ 92.7665, 25.2521 ], [ 92.7619, 25.2465 ], [ 92.7717, 25.23 ], [ 92.782, 25.2302 ], [ 92.8015, 25.2202 ], [ 92.8021, 25.2151 ], [ 92.795, 25.2097 ], [ 92.786, 25.2093 ], [ 92.7762, 25.1996 ], [ 92.7675, 25.2035 ], [ 92.7548, 25.2018 ], [ 92.7429, 25.2067 ], [ 92.7372, 25.2005 ], [ 92.7161, 25.1958 ], [ 92.7026, 25.1884 ], [ 92.6939, 25.1792 ], [ 92.6772, 25.1825 ], [ 92.668, 25.1741 ], [ 92.6635, 25.1767 ], [ 92.6584, 25.1719 ], [ 92.6558, 25.155 ], [ 92.6387, 25.1477 ], [ 92.6283, 25.1381 ], [ 92.6289, 25.1262 ], [ 92.6214, 25.115 ], [ 92.6089, 25.1226 ], [ 92.595, 25.1222 ], [ 92.5881, 25.1288 ], [ 92.5606, 25.1303 ], [ 92.5554, 25.127 ], [ 92.5249, 25.1352 ], [ 92.5216, 25.139 ], [ 92.5231, 25.126 ], [ 92.5392, 25.0989 ], [ 92.5199, 25.1059 ] ] ] } },
{ "type": "Feature", "properties": { "unit_id": "IND.22.3.1_1", "name": "West Jaintia Hills", "district": "West Jaintia Hills", "did": "meghalaya:West Jaintia Hills", "state_key": "meghalaya" }, "geometry": { "type": "Polygon", "coordinates": [ [ [ 92.3878, 25.7442 ], [ 92.3977, 25.7405 ], [ 92.4062, 25.7447 ], [ 92.4072, 25.7419 ], [ 92.4138, 25.7419 ], [ 92.4091, 25.7338 ], [ 92.4116, 25.73 ], [ 92.4312, 25.7322 ], [ 92.4329, 25.727 ], [ 92.4443, 25.7197 ], [ 92.4477, 25.709 ], [ 92.4379, 25.7058 ], [ 92.4406, 25.6916 ], [ 92.4703, 25.6752 ], [ 92.4972, 25.6244 ], [ 92.5061, 25.6214 ], [ 92.5056, 25.6163 ], [ 92.5151, 25.6183 ], [ 92.5164, 25.6151 ], [ 92.5334, 25.6149 ], [ 92.5392, 25.6116 ], [ 92.5542, 25.6148 ], [ 92.5555, 25.6018 ], [ 92.5522, 25.6025 ], [ 92.5566, 25.5965 ], [ 92.5567, 25.571 ], [ 92.5725, 25.5574 ], [ 92.5824, 25.5576 ], [ 92.5841, 25.5505 ], [ 92.5948, 25.5516 ], [ 92.6025, 25.5622 ], [ 92.622, 25.5652 ], [ 92.6366, 25.5838 ], [ 92.6495, 25.5922 ], [ 92.6534, 25.5906 ], [ 92.6615, 25.5722 ], [ 92.6575, 25.5698 ], [ 92.6568, 25.5608 ], [ 92.6454, 25.5557 ], [ 92.6428, 25.5348 ], [ 92.6202, 25.5161 ], [ 92.5733, 25.4901 ], [ 92.5644, 25.4736 ], [ 92.5671, 25.4561 ], [ 92.5482, 25.4599 ], [ 92.543, 25.4507 ], [ 92.5367, 25.4529 ], [ 92.5325, 25.4632 ], [ 92.5139, 25.4661 ], [ 92.5049, 25.4595 ], [ 92.502, 25.4421 ], [ 92.4781, 25.4448 ], [ 92.4624, 25.4391 ], [ 92.448, 25.4419 ], [ 92.4176, 25.436 ], [ 92.3509, 25.4368 ], [ 92.2904, 25.4532 ], [ 92.2605, 25.4498 ], [ 92.2643, 25.4257 ], [ 92.2564, 25.4164 ], [ 92.26, 25.4065 ], [ 92.2551, 25.4054 ], [ 92.2446, 25.3811 ], [ 92.2343, 25.3793 ], [ 92.2288, 25.3727 ], [ 92.2247, 25.3741 ], [ 92.1911, 25.3633 ], [ 92.1742, 25.3541 ], [ 92.1725, 25.3485 ], [ 92.1718, 25.3359 ], [ 92.1777, 25.3327 ], [ 92.177, 25.3261 ], [ 92.1872, 25.309 ], [ 92.193, 25.3055 ], [ 92.1896, 25.2997 ], [ 92.1994, 25.2917 ], [ 92.1981, 25.2664 ], [ 92.2053, 25.246 ], [ 92.2065, 25.2276 ], [ 92.2145, 25.23 ], [ 92.2264, 25.2219 ], [ 92.2284, 25.2124 ], [ 92.236, 25.2114 ], [ 92.2319, 25.2037 ], [ 92.2371, 25.1988 ], [ 92.2386, 25.1896 ], [ 92.2309, 25.1849 ], [ 92.2338, 25.1761 ], [ 92.2258, 25.1686 ], [ 92.2253, 25.1539 ], [ 92.2152, 25.1585 ], [ 92.2082, 25.1576 ], [ 92.2128, 25.1478 ], [ 92.2068, 25.1417 ], [ 92.2068, 25.1314 ], [ 92.2034, 25.1287 ], [ 92.1948, 25.1301 ], [ 92.1893, 25.1363 ], [ 92.1839, 25.1179 ], [ 92.1767, 25.1229 ], [ 92.1789, 25.1261 ], [ 92.1768, 25.1239 ], [ 92.1709, 25.1286 ], [ 92.1596, 25.1266 ], [ 92.1649, 25.1305 ], [ 92.1594, 25.13 ], [ 92.1589, 25.133 ], [ 92.1657, 25.136 ], [ 92.1556, 25.1332 ], [ 92.1508, 25.1382 ], [ 92.1474, 25.1352 ], [ 92.1358, 25.1387 ], [ 92.1446, 25.1397 ], [ 92.1344, 25.1428 ], [ 92.1341, 25.1527 ], [ 92.1383, 25.152 ], [ 92.1392, 25.155 ], [ 92.1045, 25.1746 ], [ 92.0739, 25.1849 ], [ 92.0406, 25.1864 ], [ 92.039, 25.1823 ], [ 92.0279, 25.1834 ], [ 92.0262, 25.1792 ], [ 92.0185, 25.1827 ], [ 92.016, 25.1883 ], [ 92.0212, 25.1931 ], [ 92.0212, 25.2019 ], [ 92.0075, 25.2085 ], [ 91.985, 25.2456 ], [ 91.9821, 25.2561 ], [ 91.9859, 25.2753 ], [ 92.0043, 25.297 ], [ 92.0206, 25.3093 ], [ 92.0479, 25.3198 ], [ 92.0562, 25.3145 ], [ 92.0673, 25.3179 ], [ 92.0852, 25.3085 ], [ 92.0938, 25.3126 ], [ 92.0995, 25.3062 ], [ 92.1087, 25.3038 ], [ 92.1132, 25.3075 ], [ 92.12, 25.3291 ], [ 92.1124, 25.3377 ], [ 92.1131, 25.3461 ], [ 92.1088, 25.3518 ], [ 92.1116, 25.379 ], [ 92.1021, 25.3972 ], [ 92.1106, 25.4032 ], [ 92.1127, 25.4108 ], [ 92.0965, 25.4508 ], [ 92.1101, 25.4705 ], [ 92.0962, 25.4928 ], [ 92.1011, 25.5027 ], [ 92.0998, 25.5131 ], [ 92.1134, 25.5428 ], [ 92.1069, 25.5509 ], [ 92.1067, 25.5616 ], [ 92.1205, 25.5823 ], [ 92.1249, 25.5966 ], [ 92.121, 25.6036 ], [ 92.1393, 25.6259 ], [ 92.1331, 25.6411 ], [ 92.1412, 25.6396 ], [ 92.1472, 25.6425 ], [ 92.1496, 25.6492 ], [ 92.1538, 25.6457 ], [ 92.1556, 25.6476 ], [ 92.1505, 25.6641 ], [ 92.1524, 25.6698 ], [ 92.1702, 25.6671 ], [ 92.1734, 25.6741 ], [ 92.2081, 25.6956 ], [ 92.225, 25.7161 ], [ 92.2317, 25.7159 ], [ 92.2345, 25.7076 ], [ 92.2473, 25.7131 ], [ 92.2651, 25.7091 ], [ 92.2772, 25.7155 ], [ 92.293, 25.7165 ], [ 92.3113, 25.7279 ], [ 92.3169, 25.7224 ], [ 92.3335, 25.7241 ], [ 92.3458, 25.7292 ], [ 92.3532, 25.7398 ], [ 92.3643, 25.7374 ], [ 92.3689, 25.7473 ], [ 92.3738, 25.7504 ], [ 92.3787, 25.7484 ], [ 92.384, 25.7545 ], [ 92.3821, 25.7419 ], [ 92.3878, 25.7442 ] ] ] } },
{ "type": "Feature", "properties": { "unit_id": "IND.22.2.1_1", "name": "East Khasi Hills", "district": "East Khasi Hills", "did": "meghalaya:East Khasi Hills", "state_key": "meghalaya" }, "geometry": { "type": "Polygon", "coordinates": [ [ [ 92.1505, 25.6641 ], [ 92.1556, 25.6476 ], [ 92.1538, 25.6457 ], [ 92.1496, 25.6492 ], [ 92.1472, 25.6425 ], [ 92.1412, 25.6396 ], [ 92.1331, 25.6411 ], [ 92.1393, 25.6259 ], [ 92.121, 25.6036 ], [ 92.1249, 25.5966 ], [ 92.1205, 25.5823 ], [ 92.1067, 25.5616 ], [ 92.1069, 25.5509 ], [ 92.1134, 25.5428 ], [ 92.0998, 25.5131 ], [ 92.1011, 25.5027 ], [ 92.0962, 25.4928 ], [ 92.1101, 25.4705 ], [ 92.0965, 25.4508 ], [ 92.1127, 25.4108 ], [ 92.1106, 25.4032 ], [ 92.1021, 25.3954 ], [ 92.1116, 25.379 ], [ 92.1088, 25.3518 ], [ 92.1131, 25.3461 ], [ 92.1124, 25.3377 ], [ 92.12, 25.3291 ], [ 92.1132, 25.3075 ], [ 92.1087, 25.3038 ], [ 92.0995, 25.3062 ], [ 92.0938, 25.3126 ], [ 92.0852, 25.3085 ], [ 92.0673, 25.3179 ], [ 92.0562, 25.3145 ], [ 92.0479, 25.3198 ], [ 92.0206, 25.3093 ], [ 92.0043, 25.297 ], [ 91.9859, 25.2753 ], [ 91.9821, 25.2561 ], [ 91.985, 25.2456 ], [ 92.0075, 25.2085 ], [ 92.0212, 25.2019 ], [ 92.0212, 25.1931 ], [ 92.0164, 25.1872 ], [ 92.0015, 25.1855 ], [ 91.9834, 25.1709 ], [ 91.9717, 25.1676 ], [ 91.9668, 25.1764 ], [ 91.9163, 25.1813 ], [ 91.8985, 25.1801 ], [ 91.8925, 25.1759 ], [ 91.8845, 25.1771 ], [ 91.8806, 25.1729 ], [ 91.876, 25.1774 ], [ 91.8556, 25.1725 ], [ 91.827, 25.1778 ], [ 91.8177, 25.1712 ], [ 91.8042, 25.1718 ], [ 91.8066, 25.1683 ], [ 91.7746, 25.1631 ], [ 91.7586, 25.1684 ], [ 91.7553, 25.1774 ], [ 91.7447, 25.1698 ], [ 91.7498, 25.1592 ], [ 91.7425, 25.1446 ], [ 91.7476, 25.1402 ], [ 91.7364, 25.1434 ], [ 91.7355, 25.1497 ], [ 91.7327, 25.1478 ], [ 91.733, 25.1502 ], [ 91.7165, 25.1523 ], [ 91.7143, 25.1576 ], [ 91.7055, 25.1569 ], [ 91.7038, 25.16 ], [ 91.7005, 25.1557 ], [ 91.7036, 25.1495 ], [ 91.6944, 25.1455 ], [ 91.6918, 25.1371 ], [ 91.6807, 25.135 ], [ 91.6699, 25.1379 ], [ 91.664, 25.1352 ], [ 91.665, 25.1284 ], [ 91.66, 25.127 ], [ 91.6589, 25.1315 ], [ 91.6528, 25.1312 ], [ 91.6518, 25.1275 ], [ 91.6379, 25.1225 ], [ 91.6232, 25.1279 ], [ 91.6215, 25.1434 ], [ 91.6154, 25.1451 ], [ 91.6123, 25.141 ], [ 91.6111, 25.1463 ], [ 91.6038, 25.1402 ], [ 91.6021, 25.1427 ], [ 91.5994, 25.1511 ], [ 91.6036, 25.159 ], [ 91.6, 25.1596 ], [ 91.6041, 25.1674 ], [ 91.6154, 25.1697 ], [ 91.6152, 25.1747 ], [ 91.6097, 25.177 ], [ 91.6055, 25.1736 ], [ 91.5771, 25.172 ], [ 91.5716, 25.1653 ], [ 91.5766, 25.1598 ], [ 91.5631, 25.1606 ], [ 91.5572, 25.1498 ], [ 91.5265, 25.1445 ], [ 91.5096, 25.1474 ], [ 91.501, 25.1431 ], [ 91.4996, 25.1354 ], [ 91.4919, 25.1389 ], [ 91.4893, 25.1351 ], [ 91.4801, 25.1369 ], [ 91.4744, 25.1334 ], [ 91.4642, 25.1348 ], [ 91.4704, 25.1397 ], [ 91.467, 25.1438 ], [ 91.4686, 25.1518 ], [ 91.457, 25.1482 ], [ 91.4531, 25.1526 ], [ 91.4496, 25.1492 ], [ 91.4406, 25.1496 ], [ 91.4327, 25.1568 ], [ 91.4251, 25.157 ], [ 91.4146, 25.1711 ], [ 91.4109, 25.1637 ], [ 91.3877, 25.1681 ], [ 91.363, 25.2052 ], [ 91.3544, 25.2341 ], [ 91.3651, 25.2346 ], [ 91.3755, 25.2437 ], [ 91.3855, 25.2395 ], [ 91.4026, 25.2636 ], [ 91.4228, 25.2619 ], [ 91.4383, 25.2729 ], [ 91.4622, 25.2685 ], [ 91.4674, 25.2712 ], [ 91.4789, 25.2634 ], [ 91.4845, 25.2649 ], [ 91.489, 25.2789 ], [ 91.4959, 25.2833 ], [ 91.5276, 25.2801 ], [ 91.5326, 25.2764 ], [ 91.5437, 25.2794 ], [ 91.5479, 25.2869 ], [ 91.5525, 25.3046 ], [ 91.5491, 25.3122 ], [ 91.5523, 25.3204 ], [ 91.5498, 25.3302 ], [ 91.5251, 25.3443 ], [ 91.5244, 25.3489 ], [ 91.5391, 25.3738 ], [ 91.5408, 25.4009 ], [ 91.5465, 25.4193 ], [ 91.556, 25.4288 ], [ 91.5562, 25.4528 ], [ 91.5491, 25.4891 ], [ 91.5417, 25.4959 ], [ 91.5417, 25.5111 ], [ 91.5817, 25.5206 ], [ 91.613, 25.5419 ], [ 91.6228, 25.5381 ], [ 91.6339, 25.5489 ], [ 91.6538, 25.5519 ], [ 91.6586, 25.528 ], [ 91.6702, 25.522 ], [ 91.6891, 25.5259 ], [ 91.7002, 25.5334 ], [ 91.6961, 25.5427 ], [ 91.6987, 25.5461 ], [ 91.7132, 25.5532 ], [ 91.7148, 25.5588 ], [ 91.7233, 25.5643 ], [ 91.7295, 25.5633 ], [ 91.7332, 25.5751 ], [ 91.7396, 25.5737 ], [ 91.781, 25.5896 ], [ 91.7998, 25.6095 ], [ 91.7981, 25.6242 ], [ 91.8074, 25.6353 ], [ 91.8113, 25.6532 ], [ 91.8082, 25.6587 ], [ 91.8135, 25.6647 ], [ 91.8273, 25.6693 ], [ 91.8328, 25.6461 ], [ 91.838, 25.6443 ], [ 91.8484, 25.6505 ], [ 91.8591, 25.6465 ], [ 91.8613, 25.6416 ], [ 91.8539, 25.6318 ], [ 91.8576, 25.6294 ], [ 91.8704, 25.6388 ], [ 91.8863, 25.6415 ], [ 91.8985, 25.6586 ], [ 91.921, 25.666 ], [ 91.9255, 25.6647 ], [ 91.9317, 25.6531 ], [ 91.9391, 25.6497 ], [ 91.9594, 25.6543 ], [ 91.9738, 25.6472 ], [ 91.9805, 25.6476 ], [ 91.9829, 25.6518 ], [ 91.9889, 25.6475 ], [ 91.9955, 25.6503 ], [ 92.0015, 25.6458 ], [ 92.0008, 25.6518 ], [ 92.005, 25.6551 ], [ 92.0081, 25.652 ], [ 92.0107, 25.6602 ], [ 92.0152, 25.6588 ], [ 92.0183, 25.6633 ], [ 92.0348, 25.6534 ], [ 92.0612, 25.6551 ], [ 92.0814, 25.6372 ], [ 92.1138, 25.6461 ], [ 92.1196, 25.6562 ], [ 92.139, 25.6735 ], [ 92.1435, 25.6702 ], [ 92.1501, 25.6696 ], [ 92.1537, 25.673 ], [ 92.1582, 25.6708 ], [ 92.1524, 25.6698 ], [ 92.1505, 25.6641 ] ] ] } },
{ "type": "Feature", "properties": { "unit_id": "IND.22.8.1_1", "name": "South West Khasi Hills", "district": "South West Khasi Hills", "did": "meghalaya:South West Khasi Hills", "state_key": "meghalaya" }, "geometry": { "type": "Polygon", "coordinates": [ [ [ 91.332, 25.1774 ], [ 91.3268, 25.1762 ], [ 91.3178, 25.1837 ], [ 91.2866, 25.1854 ], [ 91.2922, 25.1933 ], [ 91.2762, 25.199 ], [ 91.268, 25.2072 ], [ 91.2515, 25.1991 ], [ 91.2516, 25.1952 ], [ 91.1947, 25.2018 ], [ 91.1648, 25.1958 ], [ 91.1252, 25.194 ], [ 91.0696, 25.1984 ], [ 91.0719, 25.1934 ], [ 91.0679, 25.1915 ], [ 91.0552, 25.1924 ], [ 91.0304, 25.1851 ], [ 91.0191, 25.187 ], [ 91.0188, 25.1838 ], [ 91.0061, 25.1803 ], [ 90.9698, 25.1732 ], [ 90.9686, 25.2011 ], [ 90.9593, 25.2038 ], [ 90.9556, 25.212 ], [ 90.9498, 25.2147 ], [ 90.9529, 25.2281 ], [ 90.9595, 25.2346 ], [ 90.9588, 25.2465 ], [ 90.9519, 25.2562 ], [ 90.9256, 25.2671 ], [ 90.9145, 25.2858 ], [ 90.9006, 25.2967 ], [ 90.8762, 25.2925 ], [ 90.8571, 25.2941 ], [ 90.8754, 25.3182 ], [ 90.8835, 25.3199 ], [ 90.8966, 25.3137 ], [ 90.9066, 25.3281 ], [ 90.9221, 25.3279 ], [ 90.9289, 25.335 ], [ 90.936, 25.3327 ], [ 90.9362, 25.322 ], [ 90.9475, 25.335 ], [ 90.9538, 25.3287 ], [ 90.9698, 25.3241 ], [ 90.972, 25.3198 ], [ 90.9777, 25.3209 ], [ 90.9825, 25.3236 ], [ 90.984, 25.3345 ], [ 90.9771, 25.34 ], [ 90.9786, 25.3439 ], [ 90.9862, 25.343 ], [ 90.993, 25.3487 ], [ 90.9913, 25.3611 ], [ 90.9946, 25.3658 ], [ 91.0097, 25.3545 ], [ 91.0127, 25.3414 ], [ 91.021, 25.3385 ], [ 91.0183, 25.3314 ], [ 91.0261, 25.3235 ], [ 91.0448, 25.3233 ], [ 91.0594, 25.3308 ], [ 91.0698, 25.3262 ], [ 91.0869, 25.3071 ], [ 91.1007, 25.3104 ], [ 91.1042, 25.3132 ], [ 91.0953, 25.3319 ], [ 91.0975, 25.3487 ], [ 91.108, 25.3602 ], [ 91.117, 25.3619 ], [ 91.1279, 25.3726 ], [ 91.1365, 25.3723 ], [ 91.1379, 25.3767 ], [ 91.1421, 25.377 ], [ 91.1412, 25.3875 ], [ 91.1207, 25.3955 ], [ 91.1205, 25.4047 ], [ 91.1102, 25.4125 ], [ 91.1125, 25.4204 ], [ 91.1723, 25.4515 ], [ 91.1809, 25.4443 ], [ 91.1786, 25.4346 ], [ 91.1824, 25.4329 ], [ 91.1892, 25.4433 ], [ 91.1973, 25.445 ], [ 91.2006, 25.4426 ], [ 91.2092, 25.4469 ], [ 91.2147, 25.4432 ], [ 91.2175, 25.4339 ], [ 91.2237, 25.4335 ], [ 91.2284, 25.4385 ], [ 91.2237, 25.4432 ], [ 91.2306, 25.4453 ], [ 91.2315, 25.4505 ], [ 91.2721, 25.3969 ], [ 91.2893, 25.3999 ], [ 91.2917, 25.4037 ], [ 91.2883, 25.4132 ], [ 91.3097, 25.4211 ], [ 91.3068, 25.4302 ], [ 91.3264, 25.4328 ], [ 91.3316, 25.4403 ], [ 91.3419, 25.4378 ], [ 91.3724, 25.4453 ], [ 91.3792, 25.4426 ], [ 91.4085, 25.4429 ], [ 91.4199, 25.4491 ], [ 91.4294, 25.4469 ], [ 91.4385, 25.4491 ], [ 91.4483, 25.4408 ], [ 91.4609, 25.4421 ], [ 91.4708, 25.4384 ], [ 91.5152, 25.4411 ], [ 91.5139, 25.4321 ], [ 91.5169, 25.43 ], [ 91.5237, 25.4355 ], [ 91.542, 25.4397 ], [ 91.5429, 25.4307 ], [ 91.5514, 25.4291 ], [ 91.5562, 25.4316 ], [ 91.556, 25.4288 ], [ 91.5465, 25.4193 ], [ 91.5408, 25.4009 ], [ 91.5391, 25.3738 ], [ 91.5244, 25.3489 ], [ 91.5251, 25.3443 ], [ 91.5498, 25.3302 ], [ 91.5523, 25.3204 ], [ 91.5491, 25.3122 ], [ 91.5525, 25.3046 ], [ 91.5437, 25.2794 ], [ 91.5326, 25.2764 ], [ 91.5276, 25.2801 ], [ 91.4959, 25.2833 ], [ 91.489, 25.2789 ], [ 91.4845, 25.2649 ], [ 91.4789, 25.2634 ], [ 91.4674, 25.2712 ], [ 91.4622, 25.2685 ], [ 91.4383, 25.2729 ], [ 91.4228, 25.2619 ], [ 91.4026, 25.2636 ], [ 91.3855, 25.2395 ], [ 91.3755, 25.2437 ], [ 91.3651, 25.2346 ], [ 91.3544, 25.2341 ], [ 91.363, 25.2052 ], [ 91.3798, 25.1767 ], [ 91.3882, 25.1702 ], [ 91.3751, 25.1682 ], [ 91.3678, 25.1712 ], [ 91.3631, 25.1781 ], [ 91.3538, 25.1713 ], [ 91.3515, 25.1758 ], [ 91.3384, 25.1735 ], [ 91.332, 25.1774 ] ] ] } },
{ "type": "Feature", "properties": { "unit_id": "IND.22.10.1_1", "name": "West Khasi Hills", "district": "West Khasi Hills", "did": "meghalaya:West Khasi Hills", "state_key": "meghalaya" }, "geometry": { "type": "Polygon", "coordinates": [ [ [ 91.7792, 25.7947 ], [ 91.7878, 25.7907 ], [ 91.7884, 25.7822 ], [ 91.7791, 25.7633 ], [ 91.7654, 25.7497 ], [ 91.7683, 25.7433 ], [ 91.7724, 25.7444 ], [ 91.7735, 25.7398 ], [ 91.7841, 25.7389 ], [ 91.7848, 25.7318 ], [ 91.8083, 25.7333 ], [ 91.8152, 25.7208 ], [ 91.8133, 25.7054 ], [ 91.82, 25.7024 ], [ 91.8281, 25.6887 ], [ 91.8273, 25.6693 ], [ 91.8135, 25.6647 ], [ 91.8082, 25.6587 ], [ 91.8113, 25.6532 ], [ 91.8074, 25.6353 ], [ 91.7981, 25.6242 ], [ 91.7998, 25.6095 ], [ 91.781, 25.5896 ], [ 91.7396, 25.5737 ], [ 91.7332, 25.5751 ], [ 91.7295, 25.5633 ], [ 91.7233, 25.5643 ], [ 91.7148, 25.5588 ], [ 91.7132, 25.5532 ], [ 91.6987, 25.5461 ], [ 91.6961, 25.5427 ], [ 91.7002, 25.5334 ], [ 91.6891, 25.5259 ], [ 91.6702, 25.522 ], [ 91.6586, 25.528 ], [ 91.6538, 25.5519 ], [ 91.6339, 25.5489 ], [ 91.6228, 25.5381 ], [ 91.613, 25.5419 ], [ 91.5817, 25.5206 ], [ 91.5417, 25.5111 ], [ 91.5417, 25.4959 ], [ 91.5491, 25.4891 ], [ 91.5562, 25.4528 ], [ 91.5553, 25.4296 ], [ 91.5429, 25.4307 ], [ 91.54, 25.4404 ], [ 91.5169, 25.43 ], [ 91.5139, 25.4321 ], [ 91.5152, 25.4411 ], [ 91.4708, 25.4384 ], [ 91.4609, 25.4421 ], [ 91.4483, 25.4408 ], [ 91.4385, 25.4491 ], [ 91.4294, 25.4469 ], [ 91.4199, 25.4491 ], [ 91.4085, 25.4429 ], [ 91.3792, 25.4426 ], [ 91.3724, 25.4453 ], [ 91.3419, 25.4378 ], [ 91.3316, 25.4403 ], [ 91.3264, 25.4328 ], [ 91.3068, 25.4302 ], [ 91.3101, 25.4214 ], [ 91.2883, 25.4132 ], [ 91.2917, 25.4037 ], [ 91.2893, 25.3999 ], [ 91.2721, 25.3969 ], [ 91.2315, 25.4505 ], [ 91.2306, 25.4453 ], [ 91.2237, 25.4432 ], [ 91.2284, 25.4385 ], [ 91.2237, 25.4335 ], [ 91.2175, 25.4339 ], [ 91.2147, 25.4432 ], [ 91.2092, 25.4469 ], [ 91.2006, 25.4426 ], [ 91.1973, 25.445 ], [ 91.1892, 25.4433 ], [ 91.1824, 25.4329 ], [ 91.1786, 25.4346 ], [ 91.1796, 25.4465 ], [ 91.1711, 25.4513 ], [ 91.1125, 25.4204 ], [ 91.1102, 25.4125 ], [ 91.1205, 25.4047 ], [ 91.1207, 25.3955 ], [ 91.1412, 25.3875 ], [ 91.1421, 25.377 ], [ 91.1379, 25.3767 ], [ 91.1365, 25.3723 ], [ 91.1279, 25.3726 ], [ 91.117, 25.3619 ], [ 91.108, 25.3602 ], [ 91.0975, 25.3487 ], [ 91.0953, 25.3319 ], [ 91.1042, 25.3132 ], [ 91.0924, 25.3065 ], [ 91.0866, 25.3073 ], [ 91.0698, 25.3262 ], [ 91.0594, 25.3308 ], [ 91.0448, 25.3233 ], [ 91.0261, 25.3235 ], [ 91.0183, 25.3314 ], [ 91.021, 25.3385 ], [ 91.0127, 25.3414 ], [ 91.0097, 25.3545 ], [ 90.9946, 25.3658 ], [ 90.9913, 25.3611 ], [ 90.993, 25.3487 ], [ 90.9862, 25.343 ], [ 90.9786, 25.3439 ], [ 90.9771, 25.34 ], [ 90.984, 25.3345 ], [ 90.9825, 25.3236 ], [ 90.9777, 25.3209 ], [ 90.972, 25.3198 ], [ 90.9698, 25.3241 ], [ 90.9538, 25.3287 ], [ 90.9475, 25.335 ], [ 90.9362, 25.322 ], [ 90.936, 25.3327 ], [ 90.9289, 25.335 ], [ 90.9221, 25.3279 ], [ 90.9066, 25.3281 ], [ 90.8966, 25.3137 ], [ 90.8835, 25.3199 ], [ 90.8754, 25.3182 ], [ 90.8571, 25.2936 ], [ 90.8398, 25.3126 ], [ 90.838, 25.3407 ], [ 90.8417, 25.3515 ], [ 90.8372, 25.3579 ], [ 90.8143, 25.3606 ], [ 90.806, 25.3682 ], [ 90.7904, 25.3699 ], [ 90.7833, 25.3653 ], [ 90.7649, 25.368 ], [ 90.7493, 25.3807 ], [ 90.7509, 25.392 ], [ 90.7628, 25.3979 ], [ 90.7637, 25.4209 ], [ 90.7575, 25.4319 ], [ 90.7618, 25.4463 ], [ 90.7575, 25.4514 ], [ 90.7655, 25.4561 ], [ 90.7772, 25.4532 ], [ 90.7852, 25.4683 ], [ 90.7739, 25.4687 ], [ 90.7721, 25.4721 ], [ 90.7871, 25.4794 ], [ 90.7919, 25.4862 ], [ 90.7903, 25.5078 ], [ 90.7806, 25.5359 ], [ 90.7775, 25.5408 ], [ 90.7686, 25.5438 ], [ 90.7646, 25.5509 ], [ 90.7791, 25.5856 ], [ 90.7897, 25.5724 ], [ 90.8017, 25.5864 ], [ 90.8085, 25.584 ], [ 90.8125, 25.5771 ], [ 90.8167, 25.5792 ], [ 90.8175, 25.5861 ], [ 90.8492, 25.5907 ], [ 90.8798, 25.611 ], [ 90.8801, 25.6195 ], [ 90.8942, 25.6358 ], [ 90.9083, 25.6408 ], [ 90.9123, 25.6543 ], [ 90.9516, 25.6948 ], [ 90.9548, 25.7108 ], [ 90.9825, 25.7444 ], [ 90.9714, 25.7529 ], [ 90.9617, 25.7499 ], [ 90.9524, 25.755 ], [ 90.9436, 25.753 ], [ 90.9408, 25.7638 ], [ 90.944, 25.7703 ], [ 90.9659, 25.7814 ], [ 90.9702, 25.794 ], [ 91.0023, 25.8238 ], [ 91.0106, 25.8204 ], [ 91.0225, 25.8238 ], [ 91.0325, 25.835 ], [ 91.0392, 25.8369 ], [ 91.0477, 25.8491 ], [ 91.0672, 25.8466 ], [ 91.0785, 25.8527 ], [ 91.0719, 25.8388 ], [ 91.0594, 25.8367 ], [ 91.0577, 25.8318 ], [ 91.0489, 25.8293 ], [ 91.0621, 25.8208 ], [ 91.0771, 25.8289 ], [ 91.1204, 25.8329 ], [ 91.1295, 25.8426 ], [ 91.1361, 25.8426 ], [ 91.1476, 25.8505 ], [ 91.1802, 25.844 ], [ 91.1958, 25.8614 ], [ 91.1976, 25.8495 ], [ 91.2036, 25.8432 ], [ 91.1947, 25.8349 ], [ 91.1945, 25.8273 ], [ 91.1863, 25.8184 ], [ 91.1904, 25.8114 ], [ 91.1783, 25.7774 ], [ 91.1893, 25.764 ], [ 91.1905, 25.7478 ], [ 91.2101, 25.7255 ], [ 91.2225, 25.7226 ], [ 91.2745, 25.7504 ], [ 91.2886, 25.7655 ], [ 91.3223, 25.8215 ], [ 91.3343, 25.8331 ], [ 91.3357, 25.8407 ], [ 91.3432, 25.8373 ], [ 91.3419, 25.8246 ], [ 91.3595, 25.8065 ], [ 91.3803, 25.8009 ], [ 91.3948, 25.8051 ], [ 91.4182, 25.8031 ], [ 91.4227, 25.7931 ], [ 91.4574, 25.795 ], [ 91.4585, 25.7884 ], [ 91.4748, 25.7916 ], [ 91.48, 25.7966 ], [ 91.5314, 25.8016 ], [ 91.5374, 25.7988 ], [ 91.557, 25.8082 ], [ 91.587, 25.8119 ], [ 91.5967, 25.8053 ], [ 91.6, 25.8099 ], [ 91.6317, 25.8099 ], [ 91.6424, 25.8028 ], [ 91.6594, 25.8144 ], [ 91.6979, 25.8047 ], [ 91.7074, 25.8199 ], [ 91.738, 25.8289 ], [ 91.7496, 25.8271 ], [ 91.7703, 25.8087 ], [ 91.7792, 25.7947 ] ] ] } },
{ "type": "Feature", "properties": { "unit_id": "IND.22.6.1_1", "name": "South Garo Hills", "district": "South Garo Hills", "did": "meghalaya:South Garo Hills", "state_key": "meghalaya" }, "geometry": { "type": "Polygon", "coordinates": [ [ [ 90.7871, 25.4794 ], [ 90.7721, 25.4721 ], [ 90.7739, 25.4687 ], [ 90.7852, 25.4683 ], [ 90.7772, 25.4532 ], [ 90.7655, 25.4561 ], [ 90.7575, 25.4514 ], [ 90.7618, 25.4463 ], [ 90.7575, 25.4319 ], [ 90.7637, 25.4209 ], [ 90.7628, 25.3979 ], [ 90.7509, 25.392 ], [ 90.7493, 25.3807 ], [ 90.7649, 25.368 ], [ 90.7833, 25.3653 ], [ 90.7904, 25.3699 ], [ 90.806, 25.3682 ], [ 90.8143, 25.3606 ], [ 90.8372, 25.3579 ], [ 90.8417, 25.3515 ], [ 90.838, 25.3407 ], [ 90.8398, 25.3126 ], [ 90.8572, 25.2934 ], [ 90.8762, 25.2925 ], [ 90.9006, 25.2967 ], [ 90.9145, 25.2858 ], [ 90.9256, 25.2671 ], [ 90.9519, 25.2562 ], [ 90.9588, 25.2465 ], [ 90.9595, 25.2346 ], [ 90.9529, 25.2281 ], [ 90.9498, 25.2147 ], [ 90.9556, 25.212 ], [ 90.9593, 25.2038 ], [ 90.9686, 25.2011 ], [ 90.9715, 25.1915 ], [ 90.9685, 25.1724 ], [ 90.9488, 25.1708 ], [ 90.928, 25.1622 ], [ 90.9046, 25.1619 ], [ 90.8973, 25.1663 ], [ 90.884, 25.1667 ], [ 90.8719, 25.1597 ], [ 90.8498, 25.1576 ], [ 90.8444, 25.1585 ], [ 90.842, 25.1643 ], [ 90.8366, 25.1609 ], [ 90.8196, 25.1626 ], [ 90.8179, 25.1676 ], [ 90.8138, 25.1675 ], [ 90.814, 25.1637 ], [ 90.8059, 25.1659 ], [ 90.8055, 25.1736 ], [ 90.7988, 25.1743 ], [ 90.7947, 25.1813 ], [ 90.784, 25.1793 ], [ 90.7804, 25.1861 ], [ 90.7638, 25.1783 ], [ 90.7589, 25.1725 ], [ 90.7604, 25.1682 ], [ 90.7567, 25.1698 ], [ 90.7476, 25.164 ], [ 90.7421, 25.1659 ], [ 90.7419, 25.1702 ], [ 90.7397, 25.1667 ], [ 90.7342, 25.1668 ], [ 90.7332, 25.162 ], [ 90.7379, 25.1643 ], [ 90.7419, 25.1612 ], [ 90.7333, 25.1549 ], [ 90.7266, 25.1581 ], [ 90.7257, 25.1631 ], [ 90.71, 25.1681 ], [ 90.7066, 25.1611 ], [ 90.7006, 25.1648 ], [ 90.6986, 25.1567 ], [ 90.6899, 25.1642 ], [ 90.6822, 25.1643 ], [ 90.6805, 25.1693 ], [ 90.6857, 25.1745 ], [ 90.6752, 25.1725 ], [ 90.6746, 25.1765 ], [ 90.6699, 25.1663 ], [ 90.666, 25.1658 ], [ 90.6634, 25.1979 ], [ 90.6569, 25.1848 ], [ 90.6476, 25.1941 ], [ 90.6526, 25.1886 ], [ 90.6511, 25.182 ], [ 90.6403, 25.1836 ], [ 90.6409, 25.1745 ], [ 90.6183, 25.1725 ], [ 90.6165, 25.1774 ], [ 90.6139, 25.1737 ], [ 90.6094, 25.1791 ], [ 90.6047, 25.1746 ], [ 90.5879, 25.1765 ], [ 90.576, 25.1716 ], [ 90.555, 25.1717 ], [ 90.5513, 25.1752 ], [ 90.5187, 25.1722 ], [ 90.5086, 25.1754 ], [ 90.5099, 25.1694 ], [ 90.4991, 25.1722 ], [ 90.4993, 25.1686 ], [ 90.4859, 25.1611 ], [ 90.4508, 25.1524 ], [ 90.4494, 25.1466 ], [ 90.4411, 25.1445 ], [ 90.4187, 25.1506 ], [ 90.4045, 25.16 ], [ 90.3705, 25.1628 ], [ 90.3302, 25.1938 ], [ 90.3166, 25.1929 ], [ 90.3104, 25.1888 ], [ 90.2866, 25.1957 ], [ 90.2485, 25.2003 ], [ 90.253, 25.2117 ], [ 90.2429, 25.2264 ], [ 90.2346, 25.2236 ], [ 90.2345, 25.2293 ], [ 90.2578, 25.2327 ], [ 90.2559, 25.2406 ], [ 90.2673, 25.2375 ], [ 90.2666, 25.2432 ], [ 90.2723, 25.2485 ], [ 90.2716, 25.2626 ], [ 90.2782, 25.2686 ], [ 90.2823, 25.2651 ], [ 90.2851, 25.2667 ], [ 90.2727, 25.2734 ], [ 90.2754, 25.2781 ], [ 90.2666, 25.281 ], [ 90.2701, 25.3123 ], [ 90.2856, 25.3133 ], [ 90.281, 25.3196 ], [ 90.2933, 25.321 ], [ 90.2878, 25.3265 ], [ 90.2951, 25.3367 ], [ 90.3046, 25.3376 ], [ 90.3082, 25.334 ], [ 90.3086, 25.3432 ], [ 90.3155, 25.3462 ], [ 90.316, 25.3519 ], [ 90.3259, 25.3504 ], [ 90.3296, 25.3568 ], [ 90.3372, 25.358 ], [ 90.3435, 25.3637 ], [ 90.3315, 25.3901 ], [ 90.3382, 25.3962 ], [ 90.3377, 25.4038 ], [ 90.3418, 25.4044 ], [ 90.3346, 25.4112 ], [ 90.3471, 25.4201 ], [ 90.3397, 25.4573 ], [ 90.349, 25.4608 ], [ 90.3602, 25.457 ], [ 90.3801, 25.4591 ], [ 90.3866, 25.456 ], [ 90.4036, 25.4604 ], [ 90.4095, 25.4547 ], [ 90.4169, 25.4597 ], [ 90.4415, 25.461 ], [ 90.4993, 25.4434 ], [ 90.5167, 25.4299 ], [ 90.5343, 25.4313 ], [ 90.5497, 25.4251 ], [ 90.5536, 25.4284 ], [ 90.5647, 25.4277 ], [ 90.6446, 25.416 ], [ 90.6614, 25.4552 ], [ 90.6655, 25.4555 ], [ 90.6734, 25.4649 ], [ 90.6817, 25.4845 ], [ 90.6887, 25.4914 ], [ 90.7062, 25.4926 ], [ 90.7109, 25.5067 ], [ 90.7297, 25.5314 ], [ 90.7448, 25.544 ], [ 90.7666, 25.5543 ], [ 90.7646, 25.5509 ], [ 90.7686, 25.5438 ], [ 90.7775, 25.5408 ], [ 90.7806, 25.5359 ], [ 90.7903, 25.5078 ], [ 90.7919, 25.4862 ], [ 90.7871, 25.4794 ] ] ] } },
{ "type": "Feature", "properties": { "unit_id": "IND.22.1.1_1", "name": "East Garo Hills", "district": "East Garo Hills", "did": "meghalaya:East Garo Hills", "state_key": "meghalaya" }, "geometry": { "type": "Polygon", "coordinates": [ [ [ 90.7987, 25.8087 ], [ 90.7989, 25.8011 ], [ 90.8052, 25.805 ], [ 90.8141, 25.7765 ], [ 90.8136, 25.764 ], [ 90.854, 25.7567 ], [ 90.8573, 25.7441 ], [ 90.8384, 25.7325 ], [ 90.8527, 25.7177 ], [ 90.8848, 25.7189 ], [ 90.9022, 25.7452 ], [ 90.9103, 25.7465 ], [ 90.9256, 25.7608 ], [ 90.9429, 25.7709 ], [ 90.9436, 25.753 ], [ 90.9524, 25.755 ], [ 90.9617, 25.7499 ], [ 90.9714, 25.7529 ], [ 90.9825, 25.7444 ], [ 90.9548, 25.7108 ], [ 90.9516, 25.6948 ], [ 90.9123, 25.6543 ], [ 90.9083, 25.6408 ], [ 90.8942, 25.6358 ], [ 90.8886, 25.6294 ], [ 90.8801, 25.6195 ], [ 90.8798, 25.611 ], [ 90.8722, 25.6037 ], [ 90.8492, 25.5907 ], [ 90.8175, 25.5861 ], [ 90.8167, 25.5792 ], [ 90.8125, 25.5771 ], [ 90.8085, 25.584 ], [ 90.8017, 25.5864 ], [ 90.793, 25.5727 ], [ 90.7897, 25.5724 ], [ 90.7791, 25.5856 ], [ 90.7666, 25.562 ], [ 90.7666, 25.5543 ], [ 90.7448, 25.544 ], [ 90.7297, 25.5314 ], [ 90.7109, 25.5067 ], [ 90.7062, 25.4926 ], [ 90.6887, 25.4914 ], [ 90.6817, 25.4845 ], [ 90.6734, 25.4649 ], [ 90.6655, 25.4555 ], [ 90.6614, 25.4552 ], [ 90.6446, 25.416 ], [ 90.5647, 25.4277 ], [ 90.5536, 25.4284 ], [ 90.5497, 25.4251 ], [ 90.5343, 25.4313 ], [ 90.5167, 25.4299 ], [ 90.4993, 25.4434 ], [ 90.4415, 25.461 ], [ 90.4169, 25.4597 ], [ 90.4095, 25.4547 ], [ 90.4036, 25.4604 ], [ 90.3866, 25.456 ], [ 90.3801, 25.4591 ], [ 90.3602, 25.457 ], [ 90.349, 25.4608 ], [ 90.3437, 25.4571 ], [ 90.332, 25.4567 ], [ 90.3204, 25.4621 ], [ 90.3158, 25.471 ], [ 90.3431, 25.5087 ], [ 90.3566, 25.5211 ], [ 90.3609, 25.5171 ], [ 90.3761, 25.5242 ], [ 90.3744, 25.5309 ], [ 90.3872, 25.5376 ], [ 90.3904, 25.5473 ], [ 90.3876, 25.5524 ], [ 90.3915, 25.5567 ], [ 90.3835, 25.5654 ], [ 90.3862, 25.5789 ], [ 90.3819, 25.5873 ], [ 90.3911, 25.6143 ], [ 90.3876, 25.6208 ], [ 90.3981, 25.6309 ], [ 90.392, 25.642 ], [ 90.4037, 25.6539 ], [ 90.4126, 25.654 ], [ 90.4138, 25.657 ], [ 90.4074, 25.6738 ], [ 90.4137, 25.696 ], [ 90.4055, 25.709 ], [ 90.4067, 25.7222 ], [ 90.3985, 25.731 ], [ 90.3998, 25.7365 ], [ 90.4166, 25.7293 ], [ 90.4232, 25.7217 ], [ 90.4185, 25.7153 ], [ 90.4198, 25.7088 ], [ 90.4395, 25.6953 ], [ 90.4547, 25.697 ], [ 90.4573, 25.6825 ], [ 90.4754, 25.6817 ], [ 90.4816, 25.676 ], [ 90.4847, 25.6788 ], [ 90.4881, 25.677 ], [ 90.488, 25.6943 ], [ 90.4918, 25.6999 ], [ 90.4871, 25.7084 ], [ 90.4936, 25.7155 ], [ 90.5014, 25.7127 ], [ 90.5333, 25.7692 ], [ 90.5441, 25.7791 ], [ 90.5473, 25.7791 ], [ 90.545, 25.7727 ], [ 90.5497, 25.7689 ], [ 90.5568, 25.77 ], [ 90.5643, 25.7792 ], [ 90.5764, 25.7506 ], [ 90.5863, 25.7454 ], [ 90.5864, 25.7403 ], [ 90.5968, 25.7397 ], [ 90.5983, 25.7503 ], [ 90.6244, 25.754 ], [ 90.628, 25.7616 ], [ 90.6352, 25.7643 ], [ 90.6404, 25.7793 ], [ 90.6553, 25.7748 ], [ 90.6601, 25.7813 ], [ 90.6654, 25.7765 ], [ 90.6778, 25.7744 ], [ 90.6866, 25.7899 ], [ 90.6852, 25.8014 ], [ 90.7044, 25.8246 ], [ 90.7357, 25.809 ], [ 90.7987, 25.8087 ] ] ] } },
{ "type": "Feature", "properties": { "unit_id": "IND.22.9.1_1", "name": "West Garo Hills", "district": "West Garo Hills", "did": "meghalaya:West Garo Hills", "state_key": "meghalaya" }, "geometry": { "type": "Polygon", "coordinates": [ [ [ 90.4168, 25.9915 ], [ 90.4238, 25.989 ], [ 90.4256, 25.9809 ], [ 90.42, 25.9643 ], [ 90.4107, 25.96 ], [ 90.4127, 25.9375 ], [ 90.4069, 25.9347 ], [ 90.4081, 25.9281 ], [ 90.4001, 25.9245 ], [ 90.3884, 25.8909 ], [ 90.3856, 25.8673 ], [ 90.3912, 25.8449 ], [ 90.3897, 25.8419 ], [ 90.3522, 25.835 ], [ 90.3461, 25.8276 ], [ 90.3463, 25.8224 ], [ 90.3524, 25.8174 ], [ 90.3838, 25.8116 ], [ 90.4154, 25.7675 ], [ 90.4085, 25.7514 ], [ 90.4014, 25.7412 ], [ 90.3966, 25.7401 ], [ 90.3988, 25.7304 ], [ 90.4057, 25.725 ], [ 90.4055, 25.709 ], [ 90.4137, 25.696 ], [ 90.4074, 25.6738 ], [ 90.4138, 25.657 ], [ 90.4126, 25.654 ], [ 90.4037, 25.6539 ], [ 90.392, 25.642 ], [ 90.3981, 25.6309 ], [ 90.3876, 25.6208 ], [ 90.3911, 25.6143 ], [ 90.3819, 25.5873 ], [ 90.3862, 25.5789 ], [ 90.3835, 25.5654 ], [ 90.3915, 25.5567 ], [ 90.3876, 25.5524 ], [ 90.3904, 25.5473 ], [ 90.3872, 25.5376 ], [ 90.3744, 25.5309 ], [ 90.3758, 25.5239 ], [ 90.3609, 25.5171 ], [ 90.3566, 25.5211 ], [ 90.3493, 25.5157 ], [ 90.3158, 25.471 ], [ 90.3209, 25.4617 ], [ 90.332, 25.4567 ], [ 90.3397, 25.4573 ], [ 90.3449, 25.4399 ], [ 90.3471, 25.4201 ], [ 90.3346, 25.4112 ], [ 90.3418, 25.4044 ], [ 90.3377, 25.4038 ], [ 90.3382, 25.3962 ], [ 90.3315, 25.3901 ], [ 90.3435, 25.3637 ], [ 90.3372, 25.358 ], [ 90.3296, 25.3568 ], [ 90.3259, 25.3504 ], [ 90.316, 25.3519 ], [ 90.3155, 25.3462 ], [ 90.3086, 25.3432 ], [ 90.3082, 25.334 ], [ 90.3046, 25.3376 ], [ 90.2951, 25.3367 ], [ 90.2878, 25.3265 ], [ 90.2933, 25.321 ], [ 90.281, 25.3196 ], [ 90.2856, 25.3133 ], [ 90.2703, 25.3125 ], [ 90.2666, 25.281 ], [ 90.2754, 25.2781 ], [ 90.2727, 25.2734 ], [ 90.2851, 25.2667 ], [ 90.2823, 25.2651 ], [ 90.2782, 25.2686 ], [ 90.2716, 25.2626 ], [ 90.2723, 25.2485 ], [ 90.2666, 25.2432 ], [ 90.2673, 25.2375 ], [ 90.2559, 25.2406 ], [ 90.2578, 25.2327 ], [ 90.2345, 25.2293 ], [ 90.2346, 25.2236 ], [ 90.2429, 25.2264 ], [ 90.253, 25.2117 ], [ 90.2509, 25.2009 ], [ 90.234, 25.2049 ], [ 90.2255, 25.2005 ], [ 90.2194, 25.2067 ], [ 90.1959, 25.211 ], [ 90.1715, 25.2231 ], [ 90.1124, 25.2254 ], [ 90.0943, 25.2373 ], [ 90.0741, 25.244 ], [ 90.0545, 25.2614 ], [ 90.0338, 25.2623 ], [ 90.0042, 25.2806 ], [ 89.996, 25.2766 ], [ 89.9808, 25.2809 ], [ 89.9771, 25.2968 ], [ 89.9662, 25.3038 ], [ 89.9806, 25.317 ], [ 89.9772, 25.3205 ], [ 89.9803, 25.3246 ], [ 90.01, 25.3309 ], [ 90.0099, 25.3369 ], [ 90.0166, 25.3397 ], [ 90.0151, 25.3476 ], [ 90.0187, 25.3507 ], [ 90.1067, 25.366 ], [ 90.1468, 25.3761 ], [ 90.1515, 25.3798 ], [ 90.1557, 25.389 ], [ 90.1477, 25.3982 ], [ 90.151, 25.4172 ], [ 90.1468, 25.4209 ], [ 90.1577, 25.4387 ], [ 90.1522, 25.4429 ], [ 90.1641, 25.4756 ], [ 90.1602, 25.4849 ], [ 90.1512, 25.4878 ], [ 90.1575, 25.4905 ], [ 90.1614, 25.5112 ], [ 90.1576, 25.5185 ], [ 90.1622, 25.5336 ], [ 90.1561, 25.5351 ], [ 90.1589, 25.5408 ], [ 90.1633, 25.5398 ], [ 90.1588, 25.5495 ], [ 90.1481, 25.5449 ], [ 90.1415, 25.5538 ], [ 90.1371, 25.5452 ], [ 90.139, 25.5373 ], [ 90.1266, 25.5391 ], [ 90.1302, 25.5345 ], [ 90.121, 25.5315 ], [ 90.1179, 25.5478 ], [ 90.1249, 25.5576 ], [ 90.1216, 25.5637 ], [ 90.1058, 25.5613 ], [ 90.0887, 25.5831 ], [ 90.0582, 25.5984 ], [ 90.0289, 25.6054 ], [ 90.0109, 25.6004 ], [ 90.0177, 25.6026 ], [ 90.0186, 25.6113 ], [ 90.0164, 25.6098 ], [ 90.0092, 25.6192 ], [ 90.0042, 25.6202 ], [ 90.007, 25.6233 ], [ 90.0041, 25.6267 ], [ 89.9988, 25.6224 ], [ 89.9832, 25.6268 ], [ 89.9792, 25.6388 ], [ 89.9505, 25.6556 ], [ 89.9474, 25.671 ], [ 89.9429, 25.6722 ], [ 89.9444, 25.6793 ], [ 89.9363, 25.6897 ], [ 89.9236, 25.6945 ], [ 89.9187, 25.7051 ], [ 89.8952, 25.7324 ], [ 89.8945, 25.7443 ], [ 89.8997, 25.7471 ], [ 89.9261, 25.7384 ], [ 89.9373, 25.7451 ], [ 89.9352, 25.7545 ], [ 89.942, 25.7558 ], [ 89.9548, 25.7672 ], [ 89.9554, 25.7778 ], [ 89.9594, 25.7799 ], [ 89.9544, 25.788 ], [ 89.9584, 25.8013 ], [ 89.9545, 25.8039 ], [ 89.9558, 25.8112 ], [ 89.9485, 25.8151 ], [ 89.9511, 25.8211 ], [ 89.9483, 25.8255 ], [ 89.9577, 25.8291 ], [ 89.9542, 25.8213 ], [ 89.962, 25.8202 ], [ 89.9676, 25.8225 ], [ 89.964, 25.8331 ], [ 89.9711, 25.8264 ], [ 89.9778, 25.8279 ], [ 89.9815, 25.8355 ], [ 90.0036, 25.8392 ], [ 89.9989, 25.8428 ], [ 90.0007, 25.8462 ], [ 90.0078, 25.8452 ], [ 90.0158, 25.8507 ], [ 90.0238, 25.8672 ], [ 90.0195, 25.8732 ], [ 90.0143, 25.8719 ], [ 90.0056, 25.8785 ], [ 90.0081, 25.8816 ], [ 90.0252, 25.8957 ], [ 90.0339, 25.8944 ], [ 90.0425, 25.8877 ], [ 90.0414, 25.8941 ], [ 90.0477, 25.8998 ], [ 90.0554, 25.9006 ], [ 90.0556, 25.9057 ], [ 90.0624, 25.9102 ], [ 90.0606, 25.9135 ], [ 90.0671, 25.913 ], [ 90.0705, 25.9184 ], [ 90.0759, 25.9149 ], [ 90.0862, 25.9195 ], [ 90.0854, 25.9255 ], [ 90.0941, 25.9278 ], [ 90.0921, 25.9381 ], [ 90.098, 25.9374 ], [ 90.1011, 25.9432 ], [ 90.1067, 25.9423 ], [ 90.1076, 25.9491 ], [ 90.1169, 25.9572 ], [ 90.1205, 25.9578 ], [ 90.1198, 25.9541 ], [ 90.1317, 25.9587 ], [ 90.1405, 25.9573 ], [ 90.1394, 25.9596 ], [ 90.1514, 25.9667 ], [ 90.1585, 25.9572 ], [ 90.1769, 25.959 ], [ 90.1869, 25.9441 ], [ 90.1924, 25.9553 ], [ 90.2029, 25.9609 ], [ 90.2099, 25.9597 ], [ 90.2115, 25.9526 ], [ 90.2706, 25.9603 ], [ 90.3248, 25.9734 ], [ 90.3315, 25.9876 ], [ 90.3404, 25.9883 ], [ 90.3497, 26.0041 ], [ 90.3722, 26.0113 ], [ 90.3997, 26.0125 ], [ 90.4162, 25.998 ], [ 90.4168, 25.9915 ] ] ] } }
]
}
