{
"type": "FeatureCollection",
"crs": { "type": "name", "properties": { "name": "urn:ogc:def:crs:OGC:1.3:CRS84" } },
"xy_coordinate_resolution": 0.0001,
"features": [
{ "type": "Feature", "properties": { "unit_id": "IND.24.6.1_1", "name": "None", "district": "Mon", "did": "nagaland:Mon", "state_key": "nagaland" }, "geometry": { "type": "Polygon", "coordinates": [ [ [ 95.2223, 26.9288 ], [ 95.2285, 26.9205 ], [ 95.2305, 26.8852 ], [ 95.2266, 26.88 ], [ 95.2095, 26.8799 ], [ 95.2031, 26.8722 ], [ 95.1811, 26.8592 ], [ 95.1922, 26.8439 ], [ 95.2052, 26.845 ], [ 95.1956, 26.8342 ], [ 95.2034, 26.8059 ], [ 95.2116, 26.7926 ], [ 95.2181, 26.7877 ], [ 95.2414, 26.7815 ], [ 95.2281, 26.7718 ], [ 95.2296, 26.7661 ], [ 95.2165, 26.754 ], [ 95.2174, 26.7415 ], [ 95.2125, 26.7294 ], [ 95.2324, 26.7062 ], [ 95.23, 26.6911 ], [ 95.2332, 26.6811 ], [ 95.2096, 26.6488 ], [ 95.1991, 26.6425 ], [ 95.1807, 26.6428 ], [ 95.1669, 26.6344 ], [ 95.1632, 26.6217 ], [ 95.1489, 26.6159 ], [ 95.1466, 26.5931 ], [ 95.1542, 26.5831 ], [ 95.141, 26.5674 ], [ 95.1389, 26.5566 ], [ 95.1267, 26.5689 ], [ 95.1216, 26.5858 ], [ 95.116, 26.5898 ], [ 95.1143, 26.6075 ], [ 95.0999, 26.6024 ], [ 95.0511, 26.638 ], [ 95.0417, 26.6354 ], [ 95.0431, 26.6288 ], [ 95.0384, 26.6245 ], [ 95.0323, 26.6237 ], [ 95.0317, 26.6264 ], [ 95.0179, 26.6191 ], [ 95.0112, 26.6345 ], [ 95.0044, 26.6321 ], [ 94.9677, 26.637 ], [ 94.9666, 26.6407 ], [ 94.96, 26.6418 ], [ 94.9532, 26.6531 ], [ 94.9489, 26.6463 ], [ 94.9341, 26.6475 ], [ 94.9309, 26.6429 ], [ 94.9214, 26.6454 ], [ 94.9082, 26.6391 ], [ 94.9084, 26.6351 ], [ 94.9004, 26.638 ], [ 94.8982, 26.632 ], [ 94.8925, 26.6307 ], [ 94.8959, 26.6125 ], [ 94.8859, 26.611 ], [ 94.8827, 26.6159 ], [ 94.8732, 26.609 ], [ 94.8703, 26.6137 ], [ 94.8604, 26.614 ], [ 94.8552, 26.6102 ], [ 94.8526, 26.614 ], [ 94.8408, 26.6148 ], [ 94.8307, 26.6224 ], [ 94.8147, 26.6223 ], [ 94.8037, 26.6304 ], [ 94.7872, 26.6332 ], [ 94.7875, 26.655 ], [ 94.7795, 26.6587 ], [ 94.7862, 26.6678 ], [ 94.7811, 26.6731 ], [ 94.7875, 26.678 ], [ 94.7901, 26.6884 ], [ 94.78, 26.6984 ], [ 94.7881, 26.6987 ], [ 94.8049, 26.6892 ], [ 94.8055, 26.6975 ], [ 94.8149, 26.6958 ], [ 94.8342, 26.7187 ], [ 94.8263, 26.7243 ], [ 94.8256, 26.7312 ], [ 94.8158, 26.7436 ], [ 94.8084, 26.7444 ], [ 94.8044, 26.7491 ], [ 94.798, 26.7609 ], [ 94.805, 26.7678 ], [ 94.7984, 26.7651 ], [ 94.7936, 26.7685 ], [ 94.8145, 26.7745 ], [ 94.8153, 26.7841 ], [ 94.8088, 26.7852 ], [ 94.8133, 26.7923 ], [ 94.7888, 26.7973 ], [ 94.8027, 26.8013 ], [ 94.8032, 26.8062 ], [ 94.7958, 26.8101 ], [ 94.7953, 26.8144 ], [ 94.8038, 26.8137 ], [ 94.8065, 26.8184 ], [ 94.8145, 26.8195 ], [ 94.8132, 26.8336 ], [ 94.8211, 26.8411 ], [ 94.8176, 26.8477 ], [ 94.8345, 26.8603 ], [ 94.8365, 26.8688 ], [ 94.8432, 26.8685 ], [ 94.8501, 26.8746 ], [ 94.866, 26.9087 ], [ 94.8792, 26.9218 ], [ 94.9015, 26.9343 ], [ 94.9144, 26.9368 ], [ 94.924, 26.9465 ], [ 94.9309, 26.9326 ], [ 94.9555, 26.9401 ], [ 94.9612, 26.9371 ], [ 94.9672, 26.9235 ], [ 94.9765, 26.9213 ], [ 94.9826, 26.913 ], [ 94.99, 26.9142 ], [ 94.9913, 26.9208 ], [ 95.0168, 26.9211 ], [ 95.0341, 26.9356 ], [ 95.085, 26.9516 ], [ 95.1018, 26.9618 ], [ 95.112, 26.9807 ], [ 95.1502, 26.9992 ], [ 95.1925, 27.0352 ], [ 95.197, 27.0008 ], [ 95.192, 26.9845 ], [ 95.2068, 26.9771 ], [ 95.202, 26.9767 ], [ 95.2118, 26.9648 ], [ 95.2035, 26.9571 ], [ 95.2102, 26.9532 ], [ 95.206, 26.9511 ], [ 95.2112, 26.9314 ], [ 95.2223, 26.9288 ] ] ] } },
{ "type": "Feature", "properties": { "unit_id": "IND.24.9.1_1", "name": "Noklak", "district": "Tuensang", "did": "nagaland:Tuensang", "state_key": "nagaland" }, "geometry": { "type": "Polygon", "coordinates": [ [ [ 95.1229, 26.3305 ], [ 95.1261, 26.3235 ], [ 95.1225, 26.3074 ], [ 95.1281, 26.3022 ], [ 95.1284, 26.2941 ], [ 95.1198, 26.2645 ], [ 95.1273, 26.254 ], [ 95.1146, 26.2329 ], [ 95.133, 26.2153 ], [ 95.1427, 26.2116 ], [ 95.1222, 26.1863 ], [ 95.1266, 26.1778 ], [ 95.1172, 26.1586 ], [ 95.1191, 26.1485 ], [ 95.1234, 26.145 ], [ 95.119, 26.1406 ], [ 95.1263, 26.1285 ], [ 95.1156, 26.1128 ], [ 95.1163, 26.1068 ], [ 95.1212, 26.0981 ], [ 95.142, 26.0944 ], [ 95.1486, 26.0869 ], [ 95.1653, 26.0921 ], [ 95.1859, 26.0731 ], [ 95.1643, 26.0492 ], [ 95.1591, 26.0249 ], [ 95.1451, 26.014 ], [ 95.1261, 25.9858 ], [ 95.117, 25.985 ], [ 95.1143, 25.9748 ], [ 95.1033, 25.9681 ], [ 95.0953, 25.9549 ], [ 95.0731, 25.9418 ], [ 95.064, 25.9426 ], [ 95.0503, 25.9361 ], [ 95.0439, 25.9269 ], [ 95.036, 25.9267 ], [ 95.0312, 25.931 ], [ 95.0287, 25.9137 ], [ 95.0118, 25.8978 ], [ 95.0191, 25.8805 ], [ 95.0075, 25.8759 ], [ 94.9998, 25.8854 ], [ 94.982, 25.8757 ], [ 94.9735, 25.8811 ], [ 94.9704, 25.8968 ], [ 94.9633, 25.9031 ], [ 94.9514, 25.901 ], [ 94.938, 25.9137 ], [ 94.9336, 25.9221 ], [ 94.9385, 25.9371 ], [ 94.9255, 25.9493 ], [ 94.921, 25.9445 ], [ 94.9113, 25.9429 ], [ 94.8856, 25.9417 ], [ 94.8821, 25.9449 ], [ 94.8705, 25.9457 ], [ 94.8429, 25.9302 ], [ 94.8457, 25.94 ], [ 94.8507, 25.9395 ], [ 94.858, 25.9518 ], [ 94.8712, 25.9845 ], [ 94.8818, 25.9969 ], [ 94.8792, 26.0017 ], [ 94.8879, 26.0042 ], [ 94.885, 26.0094 ], [ 94.8888, 26.0155 ], [ 94.9082, 26.0262 ], [ 94.91, 26.0357 ], [ 94.9183, 26.0437 ], [ 94.9313, 26.0483 ], [ 94.9241, 26.0532 ], [ 94.9198, 26.0641 ], [ 94.9141, 26.0988 ], [ 94.8907, 26.1265 ], [ 94.8916, 26.1377 ], [ 94.8811, 26.1585 ], [ 94.8813, 26.1669 ], [ 94.8966, 26.1826 ], [ 94.9149, 26.1942 ], [ 94.8916, 26.223 ], [ 94.9001, 26.2332 ], [ 94.9072, 26.2332 ], [ 94.9159, 26.2515 ], [ 94.9418, 26.2657 ], [ 94.9341, 26.2798 ], [ 94.9376, 26.2987 ], [ 94.96, 26.2915 ], [ 94.9797, 26.2937 ], [ 94.9997, 26.2854 ], [ 95.044, 26.3277 ], [ 95.051, 26.3261 ], [ 95.0603, 26.331 ], [ 95.1008, 26.3322 ], [ 95.1284, 26.3393 ], [ 95.1229, 26.3305 ] ] ] } },
{ "type": "Feature", "properties": { "unit_id": "IND.24.2.1_1", "name": "Pungro", "district": "Kiphire", "did": "nagaland:Kiphire", "state_key": "nagaland" }, "geometry": { "type": "Polygon", "coordinates": [ [ [ 94.9385, 25.9371 ], [ 94.9339, 25.925 ], [ 94.9359, 25.9165 ], [ 94.9514, 25.901 ], [ 94.9633, 25.9031 ], [ 94.9699, 25.8974 ], [ 94.9739, 25.8807 ], [ 94.9822, 25.8757 ], [ 94.9998, 25.8854 ], [ 95.0057, 25.877 ], [ 95.0116, 25.876 ], [ 95.0092, 25.8666 ], [ 95.0179, 25.8607 ], [ 95.0231, 25.8448 ], [ 95.0304, 25.8384 ], [ 95.0333, 25.8142 ], [ 95.0497, 25.8009 ], [ 95.044, 25.7737 ], [ 95.0491, 25.7597 ], [ 95.0399, 25.7412 ], [ 95.0281, 25.7378 ], [ 95.0231, 25.7317 ], [ 95.0081, 25.7309 ], [ 94.9972, 25.725 ], [ 94.9919, 25.7195 ], [ 94.9887, 25.7066 ], [ 94.9706, 25.6891 ], [ 94.9521, 25.6784 ], [ 94.9501, 25.6736 ], [ 94.936, 25.6676 ], [ 94.9228, 25.6454 ], [ 94.9151, 25.6077 ], [ 94.9008, 25.5974 ], [ 94.8925, 25.5974 ], [ 94.8823, 25.5917 ], [ 94.8816, 25.5851 ], [ 94.8662, 25.6088 ], [ 94.8514, 25.6108 ], [ 94.8539, 25.6184 ], [ 94.8491, 25.6249 ], [ 94.8509, 25.6333 ], [ 94.8461, 25.6501 ], [ 94.8583, 25.6985 ], [ 94.8546, 25.7242 ], [ 94.8468, 25.7291 ], [ 94.8204, 25.7628 ], [ 94.8096, 25.765 ], [ 94.7964, 25.7749 ], [ 94.8154, 25.7974 ], [ 94.822, 25.7974 ], [ 94.8238, 25.8013 ], [ 94.8062, 25.8292 ], [ 94.81, 25.8365 ], [ 94.8046, 25.838 ], [ 94.811, 25.8434 ], [ 94.8072, 25.8467 ], [ 94.8066, 25.8604 ], [ 94.8007, 25.8616 ], [ 94.808, 25.8796 ], [ 94.8124, 25.8795 ], [ 94.8132, 25.8831 ], [ 94.809, 25.8829 ], [ 94.8222, 25.8922 ], [ 94.8211, 25.8967 ], [ 94.8288, 25.8965 ], [ 94.8288, 25.9116 ], [ 94.849, 25.9354 ], [ 94.8705, 25.9457 ], [ 94.8821, 25.9449 ], [ 94.8856, 25.9417 ], [ 94.9113, 25.9429 ], [ 94.921, 25.9445 ], [ 94.9253, 25.9493 ], [ 94.9385, 25.9371 ] ] ] } },
{ "type": "Feature", "properties": { "unit_id": "IND.24.2.1_1", "name": "Kiphire", "district": "Kiphire", "did": "nagaland:Kiphire", "state_key": "nagaland" }, "geometry": { "type": "Polygon", "coordinates": [ [ [ 94.7871, 25.9941 ], [ 94.795, 25.9959 ], [ 94.8196, 25.9895 ], [ 94.8345, 25.9904 ], [ 94.8481, 25.983 ], [ 94.8649, 25.9839 ], [ 94.8702, 25.9802 ], [ 94.8507, 25.9395 ], [ 94.8455, 25.9396 ], [ 94.8433, 25.9255 ], [ 94.8381, 25.9256 ], [ 94.8276, 25.9094 ], [ 94.829, 25.8969 ], [ 94.8211, 25.8967 ], [ 94.8222, 25.8922 ], [ 94.8093, 25.8834 ], [ 94.8132, 25.8831 ], [ 94.8124, 25.8795 ], [ 94.808, 25.8796 ], [ 94.8016, 25.8658 ], [ 94.801, 25.8599 ], [ 94.8066, 25.8604 ], [ 94.8072, 25.8467 ], [ 94.811, 25.8434 ], [ 94.8046, 25.838 ], [ 94.81, 25.8365 ], [ 94.8062, 25.8292 ], [ 94.8238, 25.8013 ], [ 94.822, 25.7974 ], [ 94.8154, 25.7974 ], [ 94.7964, 25.7749 ], [ 94.76, 25.7785 ], [ 94.7558, 25.7824 ], [ 94.7458, 25.7769 ], [ 94.747, 25.772 ], [ 94.7402, 25.7701 ], [ 94.7419, 25.7655 ], [ 94.733, 25.7601 ], [ 94.7305, 25.7504 ], [ 94.7245, 25.7466 ], [ 94.7271, 25.7443 ], [ 94.7204, 25.7395 ], [ 94.7216, 25.7332 ], [ 94.727, 25.7312 ], [ 94.7231, 25.7276 ], [ 94.7268, 25.7248 ], [ 94.7168, 25.722 ], [ 94.7189, 25.7275 ], [ 94.7137, 25.7412 ], [ 94.7162, 25.7557 ], [ 94.6957, 25.7923 ], [ 94.6736, 25.8053 ], [ 94.6864, 25.8073 ], [ 94.6971, 25.8175 ], [ 94.719, 25.8209 ], [ 94.7272, 25.8107 ], [ 94.7332, 25.8153 ], [ 94.7369, 25.8256 ], [ 94.7357, 25.8371 ], [ 94.7436, 25.8444 ], [ 94.7294, 25.8505 ], [ 94.7266, 25.8582 ], [ 94.7249, 25.8705 ], [ 94.7352, 25.8802 ], [ 94.732, 25.8886 ], [ 94.7053, 25.8955 ], [ 94.6763, 25.9448 ], [ 94.685, 25.9603 ], [ 94.6876, 25.9779 ], [ 94.7029, 25.9936 ], [ 94.7079, 25.9946 ], [ 94.7297, 25.9843 ], [ 94.7539, 25.9937 ], [ 94.7682, 26.0095 ], [ 94.7791, 26.0084 ], [ 94.7871, 25.9941 ] ] ] } },
{ "type": "Feature", "properties": { "unit_id": "IND.24.2.1_1", "name": "Seyochung", "district": "Kiphire", "did": "nagaland:Kiphire", "state_key": "nagaland" }, "geometry": { "type": "Polygon", "coordinates": [ [ [ 94.7682, 26.0095 ], [ 94.7539, 25.9937 ], [ 94.7297, 25.9843 ], [ 94.7079, 25.9946 ], [ 94.7029, 25.9936 ], [ 94.6876, 25.9779 ], [ 94.685, 25.9603 ], [ 94.6763, 25.9448 ], [ 94.7053, 25.8955 ], [ 94.732, 25.8886 ], [ 94.7352, 25.8802 ], [ 94.7249, 25.8705 ], [ 94.7266, 25.8582 ], [ 94.7294, 25.8505 ], [ 94.7436, 25.8444 ], [ 94.7357, 25.8371 ], [ 94.7332, 25.8153 ], [ 94.7262, 25.8104 ], [ 94.719, 25.8209 ], [ 94.7034, 25.8189 ], [ 94.6929, 25.8152 ], [ 94.6864, 25.8073 ], [ 94.6743, 25.8045 ], [ 94.6513, 25.8156 ], [ 94.6103, 25.818 ], [ 94.6028, 25.8262 ], [ 94.6107, 25.8342 ], [ 94.6102, 25.8441 ], [ 94.5959, 25.8754 ], [ 94.5698, 25.8897 ], [ 94.5938, 25.9141 ], [ 94.6037, 25.9314 ], [ 94.6085, 25.9327 ], [ 94.6434, 25.9866 ], [ 94.6513, 25.9923 ], [ 94.656, 26.0035 ], [ 94.6639, 26.0081 ], [ 94.6734, 26.0264 ], [ 94.6879, 26.038 ], [ 94.6944, 26.0321 ], [ 94.7186, 26.0256 ], [ 94.723, 26.0215 ], [ 94.734, 26.0197 ], [ 94.7441, 26.0256 ], [ 94.7583, 26.0237 ], [ 94.7791, 26.0084 ], [ 94.7682, 26.0095 ] ] ] } },
{ "type": "Feature", "properties": { "unit_id": "IND.24.9.1_1", "name": "Shamatore", "district": "Tuensang", "did": "nagaland:Tuensang", "state_key": "nagaland" }, "geometry": { "type": "Polygon", "coordinates": [ [ [ 94.8811, 26.1585 ], [ 94.8916, 26.1377 ], [ 94.8905, 26.1269 ], [ 94.9141, 26.0988 ], [ 94.9198, 26.0641 ], [ 94.9241, 26.0532 ], [ 94.9313, 26.0483 ], [ 94.9183, 26.0437 ], [ 94.91, 26.0357 ], [ 94.9082, 26.0262 ], [ 94.8888, 26.0155 ], [ 94.885, 26.0094 ], [ 94.8879, 26.0042 ], [ 94.8792, 26.0017 ], [ 94.8818, 25.9969 ], [ 94.8702, 25.9802 ], [ 94.8649, 25.9839 ], [ 94.8481, 25.983 ], [ 94.8345, 25.9904 ], [ 94.8196, 25.9895 ], [ 94.795, 25.9959 ], [ 94.7871, 25.9941 ], [ 94.7786, 26.0114 ], [ 94.7586, 26.0236 ], [ 94.7441, 26.0256 ], [ 94.734, 26.0197 ], [ 94.723, 26.0215 ], [ 94.7186, 26.0256 ], [ 94.6944, 26.0321 ], [ 94.6871, 26.0381 ], [ 94.6791, 26.0484 ], [ 94.6838, 26.0659 ], [ 94.6928, 26.0728 ], [ 94.6937, 26.0854 ], [ 94.6883, 26.1042 ], [ 94.6915, 26.1091 ], [ 94.6874, 26.1155 ], [ 94.6883, 26.1377 ], [ 94.6924, 26.1405 ], [ 94.7195, 26.1253 ], [ 94.7257, 26.1132 ], [ 94.7364, 26.1103 ], [ 94.747, 26.1137 ], [ 94.767, 26.1096 ], [ 94.7838, 26.1191 ], [ 94.7856, 26.116 ], [ 94.8015, 26.1138 ], [ 94.8093, 26.136 ], [ 94.8447, 26.1649 ], [ 94.8569, 26.1681 ], [ 94.8646, 26.1786 ], [ 94.8727, 26.1782 ], [ 94.8827, 26.1679 ], [ 94.8811, 26.1585 ] ] ] } },
{ "type": "Feature", "properties": { "unit_id": "IND.24.9.1_1", "name": "Noksen", "district": "Tuensang", "did": "nagaland:Tuensang", "state_key": "nagaland" }, "geometry": { "type": "Polygon", "coordinates": [ [ [ 94.7383, 26.2204 ], [ 94.7174, 26.2304 ], [ 94.7183, 26.253 ], [ 94.7126, 26.2578 ], [ 94.7112, 26.2714 ], [ 94.7041, 26.2769 ], [ 94.702, 26.2954 ], [ 94.6941, 26.2941 ], [ 94.6847, 26.2975 ], [ 94.6815, 26.3044 ], [ 94.6705, 26.3112 ], [ 94.6658, 26.323 ], [ 94.6504, 26.3252 ], [ 94.6376, 26.334 ], [ 94.6388, 26.3369 ], [ 94.6506, 26.3386 ], [ 94.6511, 26.3481 ], [ 94.6575, 26.3473 ], [ 94.6513, 26.3516 ], [ 94.6553, 26.3577 ], [ 94.6532, 26.3616 ], [ 94.6622, 26.3658 ], [ 94.6638, 26.372 ], [ 94.6593, 26.3717 ], [ 94.6575, 26.3759 ], [ 94.6626, 26.3808 ], [ 94.6701, 26.3768 ], [ 94.6709, 26.3824 ], [ 94.6781, 26.3814 ], [ 94.6794, 26.3895 ], [ 94.6889, 26.3963 ], [ 94.6858, 26.3985 ], [ 94.6861, 26.4028 ], [ 94.69, 26.4035 ], [ 94.687, 26.4069 ], [ 94.6936, 26.4131 ], [ 94.7022, 26.4083 ], [ 94.6996, 26.4184 ], [ 94.7035, 26.4283 ], [ 94.7165, 26.4371 ], [ 94.7348, 26.434 ], [ 94.7408, 26.4257 ], [ 94.7478, 26.425 ], [ 94.7546, 26.4152 ], [ 94.7747, 26.4189 ], [ 94.7818, 26.4226 ], [ 94.7834, 26.4279 ], [ 94.7905, 26.4261 ], [ 94.8085, 26.4115 ], [ 94.8191, 26.3952 ], [ 94.843, 26.3804 ], [ 94.8474, 26.372 ], [ 94.866, 26.3796 ], [ 94.8825, 26.3813 ], [ 94.8919, 26.3739 ], [ 94.9043, 26.3728 ], [ 94.9106, 26.377 ], [ 94.909, 26.3652 ], [ 94.8983, 26.3541 ], [ 94.8943, 26.3422 ], [ 94.8717, 26.3301 ], [ 94.859, 26.3185 ], [ 94.8576, 26.3049 ], [ 94.8466, 26.2958 ], [ 94.8308, 26.2874 ], [ 94.8112, 26.2864 ], [ 94.7996, 26.2757 ], [ 94.7995, 26.2717 ], [ 94.7925, 26.2699 ], [ 94.7801, 26.2739 ], [ 94.7606, 26.2633 ], [ 94.7534, 26.2641 ], [ 94.7501, 26.2476 ], [ 94.7558, 26.242 ], [ 94.7509, 26.2368 ], [ 94.7527, 26.2264 ], [ 94.7502, 26.2113 ], [ 94.7463, 26.2094 ], [ 94.7383, 26.2204 ] ] ] } },
{ "type": "Feature", "properties": { "unit_id": "IND.24.9.1_1", "name": "Tuensang", "district": "Tuensang", "did": "nagaland:Tuensang", "state_key": "nagaland" }, "geometry": { "type": "Polygon", "coordinates": [ [ [ 94.8727, 26.1782 ], [ 94.8646, 26.1786 ], [ 94.8569, 26.1681 ], [ 94.8447, 26.1649 ], [ 94.8093, 26.136 ], [ 94.8015, 26.1138 ], [ 94.7856, 26.116 ], [ 94.7838, 26.1191 ], [ 94.767, 26.1096 ], [ 94.747, 26.1137 ], [ 94.7364, 26.1103 ], [ 94.7257, 26.1132 ], [ 94.7195, 26.1253 ], [ 94.6931, 26.1409 ], [ 94.7031, 26.1697 ], [ 94.7202, 26.1797 ], [ 94.75, 26.2109 ], [ 94.7508, 26.236 ], [ 94.7558, 26.242 ], [ 94.7501, 26.2476 ], [ 94.7534, 26.2641 ], [ 94.7606, 26.2633 ], [ 94.7801, 26.2739 ], [ 94.7925, 26.2699 ], [ 94.7995, 26.2717 ], [ 94.7996, 26.2757 ], [ 94.8112, 26.2864 ], [ 94.8308, 26.2874 ], [ 94.8466, 26.2958 ], [ 94.8576, 26.3049 ], [ 94.859, 26.3185 ], [ 94.8717, 26.3301 ], [ 94.8875, 26.3362 ], [ 94.8966, 26.3496 ], [ 94.9026, 26.3461 ], [ 94.9023, 26.3375 ], [ 94.913, 26.32 ], [ 94.9348, 26.3041 ], [ 94.9379, 26.2977 ], [ 94.9341, 26.2798 ], [ 94.9423, 26.2666 ], [ 94.9351, 26.2644 ], [ 94.9251, 26.254 ], [ 94.9159, 26.2515 ], [ 94.9072, 26.2332 ], [ 94.9001, 26.2332 ], [ 94.8919, 26.2238 ], [ 94.8972, 26.2129 ], [ 94.9061, 26.2078 ], [ 94.9149, 26.1942 ], [ 94.8966, 26.1826 ], [ 94.8827, 26.1679 ], [ 94.8727, 26.1782 ] ] ] } },
{ "type": "Feature", "properties": { "unit_id": "IND.24.6.1_1", "name": "Tobu", "district": "Mon", "did": "nagaland:Mon", "state_key": "nagaland" }, "geometry": { "type": "Polygon", "coordinates": [ [ [ 95.021, 26.4864 ], [ 95.0399, 26.486 ], [ 95.0413, 26.4782 ], [ 95.0463, 26.4756 ], [ 95.0536, 26.4793 ], [ 95.0728, 26.4724 ], [ 95.0716, 26.464 ], [ 95.062, 26.4504 ], [ 95.0639, 26.4435 ], [ 95.0665, 26.4419 ], [ 95.0731, 26.448 ], [ 95.0845, 26.4471 ], [ 95.1039, 26.4207 ], [ 95.0965, 26.4011 ], [ 95.0998, 26.3937 ], [ 95.1079, 26.3954 ], [ 95.1208, 26.3864 ], [ 95.1256, 26.3878 ], [ 95.1322, 26.3775 ], [ 95.1212, 26.3496 ], [ 95.1284, 26.3393 ], [ 95.1008, 26.3322 ], [ 95.0603, 26.331 ], [ 95.051, 26.3261 ], [ 95.044, 26.3277 ], [ 95.021, 26.3025 ], [ 94.9992, 26.2853 ], [ 94.9797, 26.2937 ], [ 94.96, 26.2915 ], [ 94.9376, 26.2987 ], [ 94.929, 26.3103 ], [ 94.913, 26.32 ], [ 94.9023, 26.3375 ], [ 94.9026, 26.3461 ], [ 94.8966, 26.3496 ], [ 94.909, 26.3652 ], [ 94.9077, 26.3807 ], [ 94.916, 26.3846 ], [ 94.9099, 26.3937 ], [ 94.9145, 26.4002 ], [ 94.9047, 26.4029 ], [ 94.9063, 26.4104 ], [ 94.8926, 26.4254 ], [ 94.9002, 26.4295 ], [ 94.8984, 26.4344 ], [ 94.9037, 26.437 ], [ 94.9166, 26.435 ], [ 94.9339, 26.44 ], [ 94.9403, 26.4514 ], [ 94.9577, 26.4561 ], [ 94.9792, 26.4814 ], [ 94.9942, 26.4911 ], [ 95.0167, 26.4922 ], [ 95.021, 26.4864 ] ] ] } },
{ "type": "Feature", "properties": { "unit_id": "IND.24.6.1_1", "name": "Aboi", "district": "Mon", "did": "nagaland:Mon", "state_key": "nagaland" }, "geometry": { "type": "Polygon", "coordinates": [ [ [ 95.0044, 26.6321 ], [ 95.0112, 26.6345 ], [ 95.0131, 26.6241 ], [ 95.0182, 26.6231 ], [ 95.019, 26.619 ], [ 95.0317, 26.6264 ], [ 95.0323, 26.6237 ], [ 95.0384, 26.6245 ], [ 95.0431, 26.6288 ], [ 95.0417, 26.6354 ], [ 95.0511, 26.638 ], [ 95.0999, 26.6024 ], [ 95.1143, 26.6075 ], [ 95.1159, 26.5902 ], [ 95.1216, 26.5858 ], [ 95.1267, 26.5689 ], [ 95.1385, 26.5566 ], [ 95.1256, 26.5581 ], [ 95.1224, 26.5515 ], [ 95.1075, 26.5415 ], [ 95.1133, 26.5358 ], [ 95.1145, 26.5185 ], [ 95.1002, 26.5058 ], [ 95.0965, 26.4928 ], [ 95.0863, 26.4877 ], [ 95.083, 26.4796 ], [ 95.0728, 26.4724 ], [ 95.0536, 26.4793 ], [ 95.0463, 26.4756 ], [ 95.0413, 26.4782 ], [ 95.0399, 26.486 ], [ 95.021, 26.4864 ], [ 95.0157, 26.4933 ], [ 94.9965, 26.4922 ], [ 94.9792, 26.4814 ], [ 94.9577, 26.4561 ], [ 94.9403, 26.4514 ], [ 94.9339, 26.44 ], [ 94.9233, 26.436 ], [ 94.9019, 26.435 ], [ 94.8979, 26.4403 ], [ 94.9026, 26.4446 ], [ 94.8985, 26.4466 ], [ 94.9057, 26.4549 ], [ 94.8968, 26.4729 ], [ 94.8892, 26.4761 ], [ 94.8966, 26.482 ], [ 94.896, 26.4862 ], [ 94.8912, 26.4863 ], [ 94.8937, 26.4917 ], [ 94.8904, 26.498 ], [ 94.8916, 26.5037 ], [ 94.894, 26.4987 ], [ 94.8976, 26.505 ], [ 94.8913, 26.5094 ], [ 94.894, 26.5327 ], [ 94.8911, 26.545 ], [ 94.8824, 26.5538 ], [ 94.8855, 26.5564 ], [ 94.8896, 26.5513 ], [ 94.8938, 26.5602 ], [ 94.888, 26.5595 ], [ 94.8826, 26.5639 ], [ 94.8872, 26.5661 ], [ 94.8794, 26.5773 ], [ 94.8806, 26.5835 ], [ 94.8933, 26.5895 ], [ 94.89, 26.5923 ], [ 94.885, 26.5893 ], [ 94.8838, 26.5949 ], [ 94.8919, 26.5974 ], [ 94.894, 26.6007 ], [ 94.8897, 26.6037 ], [ 94.8948, 26.604 ], [ 94.8841, 26.6079 ], [ 94.8876, 26.6121 ], [ 94.8959, 26.6125 ], [ 94.8925, 26.6307 ], [ 94.8982, 26.632 ], [ 94.9004, 26.638 ], [ 94.9084, 26.6351 ], [ 94.9082, 26.6391 ], [ 94.9214, 26.6454 ], [ 94.9309, 26.6429 ], [ 94.9341, 26.6475 ], [ 94.9489, 26.6463 ], [ 94.9532, 26.6531 ], [ 94.9677, 26.637 ], [ 95.0044, 26.6321 ] ] ] } },
{ "type": "Feature", "properties": { "unit_id": "IND.24.4.1_1", "name": "Longleng", "district": "Longleng", "did": "nagaland:Longleng", "state_key": "nagaland" }, "geometry": { "type": "Polygon", "coordinates": [ [ [ 94.8948, 26.604 ], [ 94.8897, 26.6037 ], [ 94.894, 26.6005 ], [ 94.884, 26.5956 ], [ 94.8844, 26.59 ], [ 94.89, 26.5923 ], [ 94.8933, 26.5895 ], [ 94.8806, 26.5835 ], [ 94.8794, 26.5773 ], [ 94.8872, 26.5661 ], [ 94.8826, 26.5639 ], [ 94.888, 26.5595 ], [ 94.8938, 26.5602 ], [ 94.8896, 26.5513 ], [ 94.8855, 26.5564 ], [ 94.8824, 26.5538 ], [ 94.8912, 26.5446 ], [ 94.8941, 26.5266 ], [ 94.8913, 26.5094 ], [ 94.8976, 26.5054 ], [ 94.8942, 26.4988 ], [ 94.8925, 26.5038 ], [ 94.8906, 26.5024 ], [ 94.8937, 26.4917 ], [ 94.8912, 26.4863 ], [ 94.896, 26.4862 ], [ 94.8966, 26.482 ], [ 94.8892, 26.4761 ], [ 94.8968, 26.4729 ], [ 94.9058, 26.4547 ], [ 94.9021, 26.4543 ], [ 94.8985, 26.4466 ], [ 94.9026, 26.4446 ], [ 94.8979, 26.4403 ], [ 94.9015, 26.4376 ], [ 94.8982, 26.4338 ], [ 94.9005, 26.4299 ], [ 94.8953, 26.4293 ], [ 94.8926, 26.4239 ], [ 94.8966, 26.4239 ], [ 94.8957, 26.4186 ], [ 94.9014, 26.4177 ], [ 94.9063, 26.4104 ], [ 94.9047, 26.4029 ], [ 94.9145, 26.4002 ], [ 94.9099, 26.3937 ], [ 94.916, 26.3846 ], [ 94.9077, 26.3807 ], [ 94.9106, 26.377 ], [ 94.9043, 26.3728 ], [ 94.8911, 26.3741 ], [ 94.8825, 26.3813 ], [ 94.866, 26.3796 ], [ 94.8477, 26.3719 ], [ 94.843, 26.3804 ], [ 94.8191, 26.3952 ], [ 94.8085, 26.4115 ], [ 94.7889, 26.4268 ], [ 94.7834, 26.4279 ], [ 94.7818, 26.4226 ], [ 94.7747, 26.4189 ], [ 94.7554, 26.4151 ], [ 94.7478, 26.425 ], [ 94.7408, 26.4257 ], [ 94.7321, 26.435 ], [ 94.7165, 26.4371 ], [ 94.7035, 26.4283 ], [ 94.7008, 26.4308 ], [ 94.7072, 26.4378 ], [ 94.7116, 26.4373 ], [ 94.7082, 26.4422 ], [ 94.7107, 26.4456 ], [ 94.7048, 26.4475 ], [ 94.7037, 26.4517 ], [ 94.7079, 26.454 ], [ 94.6883, 26.4794 ], [ 94.6938, 26.4867 ], [ 94.6943, 26.4973 ], [ 94.6849, 26.5162 ], [ 94.6861, 26.5235 ], [ 94.6967, 26.5368 ], [ 94.7032, 26.5384 ], [ 94.7191, 26.5623 ], [ 94.7259, 26.5657 ], [ 94.7248, 26.5827 ], [ 94.7291, 26.5826 ], [ 94.7335, 26.5905 ], [ 94.7331, 26.601 ], [ 94.7291, 26.6074 ], [ 94.7201, 26.6102 ], [ 94.7215, 26.6224 ], [ 94.7067, 26.6382 ], [ 94.6861, 26.6397 ], [ 94.6777, 26.6482 ], [ 94.6669, 26.6483 ], [ 94.6711, 26.6539 ], [ 94.6856, 26.6622 ], [ 94.6909, 26.6608 ], [ 94.7185, 26.6808 ], [ 94.7185, 26.6862 ], [ 94.7277, 26.6954 ], [ 94.7238, 26.6985 ], [ 94.7489, 26.6981 ], [ 94.7497, 26.7115 ], [ 94.7434, 26.7314 ], [ 94.7567, 26.7296 ], [ 94.7487, 26.7414 ], [ 94.7363, 26.7497 ], [ 94.7402, 26.776 ], [ 94.7484, 26.7727 ], [ 94.7518, 26.7662 ], [ 94.7583, 26.766 ], [ 94.7606, 26.7754 ], [ 94.7668, 26.7776 ], [ 94.7714, 26.7898 ], [ 94.789, 26.796 ], [ 94.8035, 26.7961 ], [ 94.8133, 26.7923 ], [ 94.8088, 26.7852 ], [ 94.8153, 26.7841 ], [ 94.8145, 26.7745 ], [ 94.7936, 26.7685 ], [ 94.7984, 26.7651 ], [ 94.805, 26.7678 ], [ 94.798, 26.7609 ], [ 94.8044, 26.7491 ], [ 94.8084, 26.7444 ], [ 94.8158, 26.7436 ], [ 94.8256, 26.7312 ], [ 94.8263, 26.7243 ], [ 94.8342, 26.7184 ], [ 94.8149, 26.6958 ], [ 94.8055, 26.6975 ], [ 94.8049, 26.6892 ], [ 94.7881, 26.6987 ], [ 94.78, 26.6984 ], [ 94.7901, 26.6884 ], [ 94.7875, 26.678 ], [ 94.7811, 26.6731 ], [ 94.7862, 26.6678 ], [ 94.7795, 26.6587 ], [ 94.7875, 26.655 ], [ 94.7867, 26.6338 ], [ 94.8037, 26.6304 ], [ 94.8147, 26.6223 ], [ 94.8307, 26.6224 ], [ 94.8408, 26.6148 ], [ 94.8526, 26.614 ], [ 94.8552, 26.6102 ], [ 94.8604, 26.614 ], [ 94.8703, 26.6137 ], [ 94.8744, 26.6091 ], [ 94.8831, 26.6159 ], [ 94.8852, 26.606 ], [ 94.8948, 26.604 ] ] ] } },
{ "type": "Feature", "properties": { "unit_id": "IND.24.5.1_1", "name": "Mokokchung", "district": "Mokokchung", "did": "nagaland:Mokokchung", "state_key": "nagaland" }, "geometry": { "type": "Polygon", "coordinates": [ [ [ 94.6996, 26.4184 ], [ 94.7022, 26.4083 ], [ 94.6933, 26.4129 ], [ 94.6869, 26.4067 ], [ 94.69, 26.4035 ], [ 94.6861, 26.4028 ], [ 94.6858, 26.3985 ], [ 94.6889, 26.3963 ], [ 94.6794, 26.3895 ], [ 94.6781, 26.3814 ], [ 94.6709, 26.3824 ], [ 94.6701, 26.3768 ], [ 94.6626, 26.3808 ], [ 94.6575, 26.3759 ], [ 94.6593, 26.3717 ], [ 94.6637, 26.3715 ], [ 94.6622, 26.3658 ], [ 94.6532, 26.3616 ], [ 94.6553, 26.3577 ], [ 94.6513, 26.3516 ], [ 94.6575, 26.3476 ], [ 94.6508, 26.3477 ], [ 94.6506, 26.3386 ], [ 94.6386, 26.3367 ], [ 94.6376, 26.3299 ], [ 94.6288, 26.3342 ], [ 94.6231, 26.3261 ], [ 94.6145, 26.3265 ], [ 94.6138, 26.3221 ], [ 94.6107, 26.3233 ], [ 94.5965, 26.3124 ], [ 94.5994, 26.31 ], [ 94.5963, 26.2999 ], [ 94.5908, 26.3019 ], [ 94.5928, 26.2959 ], [ 94.5878, 26.3013 ], [ 94.5828, 26.301 ], [ 94.5833, 26.2958 ], [ 94.5792, 26.2947 ], [ 94.5813, 26.2895 ], [ 94.5756, 26.2874 ], [ 94.5727, 26.2923 ], [ 94.5594, 26.2826 ], [ 94.5637, 26.2725 ], [ 94.5611, 26.2711 ], [ 94.5654, 26.2682 ], [ 94.5598, 26.2559 ], [ 94.5661, 26.2548 ], [ 94.5729, 26.2423 ], [ 94.5831, 26.2385 ], [ 94.587, 26.2271 ], [ 94.572, 26.2072 ], [ 94.5535, 26.2019 ], [ 94.5375, 26.2075 ], [ 94.5312, 26.217 ], [ 94.5261, 26.2122 ], [ 94.4991, 26.2143 ], [ 94.4962, 26.2192 ], [ 94.5017, 26.2274 ], [ 94.4977, 26.2292 ], [ 94.5059, 26.2349 ], [ 94.5087, 26.2326 ], [ 94.516, 26.2395 ], [ 94.5059, 26.2448 ], [ 94.506, 26.2527 ], [ 94.4982, 26.2549 ], [ 94.4959, 26.2743 ], [ 94.4867, 26.2792 ], [ 94.4833, 26.2928 ], [ 94.4789, 26.2936 ], [ 94.4546, 26.2447 ], [ 94.4591, 26.2362 ], [ 94.4441, 26.2182 ], [ 94.4457, 26.2062 ], [ 94.4311, 26.2062 ], [ 94.4187, 26.2126 ], [ 94.4055, 26.2117 ], [ 94.3957, 26.202 ], [ 94.3712, 26.1931 ], [ 94.38, 26.2071 ], [ 94.3837, 26.2288 ], [ 94.3698, 26.2316 ], [ 94.356, 26.242 ], [ 94.3468, 26.2427 ], [ 94.3414, 26.2387 ], [ 94.335, 26.2406 ], [ 94.3433, 26.2443 ], [ 94.3593, 26.2689 ], [ 94.3549, 26.2934 ], [ 94.3572, 26.3034 ], [ 94.3519, 26.31 ], [ 94.3563, 26.3247 ], [ 94.366, 26.3367 ], [ 94.3518, 26.3321 ], [ 94.3487, 26.3357 ], [ 94.3435, 26.3315 ], [ 94.3428, 26.3365 ], [ 94.3504, 26.3398 ], [ 94.3585, 26.357 ], [ 94.3506, 26.3724 ], [ 94.3293, 26.3902 ], [ 94.3236, 26.4029 ], [ 94.3013, 26.3773 ], [ 94.304, 26.3943 ], [ 94.2972, 26.4061 ], [ 94.291, 26.4067 ], [ 94.2902, 26.418 ], [ 94.2988, 26.4305 ], [ 94.2987, 26.4377 ], [ 94.3056, 26.4399 ], [ 94.3184, 26.4653 ], [ 94.3238, 26.4655 ], [ 94.3196, 26.4742 ], [ 94.3265, 26.4754 ], [ 94.3255, 26.4819 ], [ 94.3397, 26.4807 ], [ 94.3447, 26.4888 ], [ 94.3469, 26.486 ], [ 94.3493, 26.4911 ], [ 94.3529, 26.4902 ], [ 94.3501, 26.4924 ], [ 94.3466, 26.4921 ], [ 94.353, 26.4993 ], [ 94.3478, 26.5045 ], [ 94.3722, 26.506 ], [ 94.3747, 26.5084 ], [ 94.3713, 26.5144 ], [ 94.3763, 26.5138 ], [ 94.3734, 26.5171 ], [ 94.3761, 26.5218 ], [ 94.3852, 26.5258 ], [ 94.3854, 26.5305 ], [ 94.3958, 26.5273 ], [ 94.3952, 26.5336 ], [ 94.4009, 26.5342 ], [ 94.3978, 26.5386 ], [ 94.4027, 26.5413 ], [ 94.3966, 26.5427 ], [ 94.4062, 26.544 ], [ 94.4012, 26.5483 ], [ 94.4063, 26.5492 ], [ 94.402, 26.5547 ], [ 94.4065, 26.5558 ], [ 94.4034, 26.5583 ], [ 94.4073, 26.5603 ], [ 94.4041, 26.5614 ], [ 94.4058, 26.5679 ], [ 94.4134, 26.5772 ], [ 94.4077, 26.5916 ], [ 94.4019, 26.5936 ], [ 94.4056, 26.6056 ], [ 94.4029, 26.6106 ], [ 94.4356, 26.622 ], [ 94.4513, 26.6363 ], [ 94.4551, 26.6355 ], [ 94.4536, 26.6319 ], [ 94.4655, 26.6331 ], [ 94.4598, 26.6368 ], [ 94.4531, 26.6525 ], [ 94.4584, 26.6535 ], [ 94.4603, 26.6616 ], [ 94.4851, 26.6679 ], [ 94.4927, 26.6659 ], [ 94.509, 26.6802 ], [ 94.5082, 26.6853 ], [ 94.5133, 26.6801 ], [ 94.5176, 26.6819 ], [ 94.5207, 26.6992 ], [ 94.5242, 26.6958 ], [ 94.5393, 26.7062 ], [ 94.5479, 26.7063 ], [ 94.5503, 26.7017 ], [ 94.5624, 26.7051 ], [ 94.5594, 26.6864 ], [ 94.5671, 26.6835 ], [ 94.5716, 26.6866 ], [ 94.5675, 26.6875 ], [ 94.5679, 26.6929 ], [ 94.5773, 26.7007 ], [ 94.5939, 26.6972 ], [ 94.5934, 26.715 ], [ 94.5973, 26.7168 ], [ 94.6033, 26.7124 ], [ 94.6015, 26.7191 ], [ 94.5911, 26.7206 ], [ 94.5971, 26.7346 ], [ 94.6061, 26.7339 ], [ 94.6096, 26.7369 ], [ 94.6081, 26.7288 ], [ 94.6208, 26.7228 ], [ 94.6191, 26.712 ], [ 94.643, 26.7207 ], [ 94.653, 26.7188 ], [ 94.6923, 26.7319 ], [ 94.7072, 26.7463 ], [ 94.7369, 26.7639 ], [ 94.7363, 26.7497 ], [ 94.7487, 26.7414 ], [ 94.7567, 26.7296 ], [ 94.7434, 26.7314 ], [ 94.7497, 26.7115 ], [ 94.7489, 26.6981 ], [ 94.7238, 26.6985 ], [ 94.7277, 26.6954 ], [ 94.7185, 26.6862 ], [ 94.7185, 26.6808 ], [ 94.6909, 26.6608 ], [ 94.6856, 26.6622 ], [ 94.6711, 26.6539 ], [ 94.6669, 26.6483 ], [ 94.6777, 26.6482 ], [ 94.6861, 26.6397 ], [ 94.7067, 26.6382 ], [ 94.7215, 26.6224 ], [ 94.7201, 26.6102 ], [ 94.7291, 26.6074 ], [ 94.7331, 26.601 ], [ 94.7335, 26.5905 ], [ 94.7291, 26.5826 ], [ 94.7248, 26.5827 ], [ 94.7259, 26.5657 ], [ 94.7191, 26.5623 ], [ 94.7032, 26.5384 ], [ 94.6967, 26.5368 ], [ 94.6861, 26.5235 ], [ 94.6849, 26.5162 ], [ 94.6943, 26.4973 ], [ 94.6938, 26.4867 ], [ 94.6883, 26.4794 ], [ 94.7079, 26.454 ], [ 94.7037, 26.4517 ], [ 94.7048, 26.4475 ], [ 94.7107, 26.4456 ], [ 94.7082, 26.4422 ], [ 94.7117, 26.4375 ], [ 94.7074, 26.4379 ], [ 94.701, 26.4314 ], [ 94.7035, 26.4283 ], [ 94.6996, 26.4184 ] ] ] } },
{ "type": "Feature", "properties": { "unit_id": "IND.24.9.1_1", "name": "Kongkhim", "district": "Tuensang", "did": "nagaland:Tuensang", "state_key": "nagaland" }, "geometry": { "type": "Polygon", "coordinates": [ [ [ 94.6504, 26.3252 ], [ 94.6658, 26.323 ], [ 94.6705, 26.3112 ], [ 94.6815, 26.3044 ], [ 94.6847, 26.2975 ], [ 94.6941, 26.2941 ], [ 94.702, 26.2954 ], [ 94.7041, 26.2769 ], [ 94.7112, 26.2714 ], [ 94.7126, 26.2578 ], [ 94.7183, 26.253 ], [ 94.7174, 26.2304 ], [ 94.7383, 26.2204 ], [ 94.7466, 26.2118 ], [ 94.7202, 26.1797 ], [ 94.7057, 26.172 ], [ 94.6966, 26.1715 ], [ 94.6894, 26.1983 ], [ 94.6809, 26.1987 ], [ 94.6723, 26.2107 ], [ 94.6666, 26.2127 ], [ 94.6565, 26.2033 ], [ 94.6382, 26.2174 ], [ 94.6238, 26.1999 ], [ 94.6124, 26.1936 ], [ 94.5997, 26.1975 ], [ 94.5834, 26.2191 ], [ 94.587, 26.2271 ], [ 94.5831, 26.2385 ], [ 94.5729, 26.2423 ], [ 94.5661, 26.2548 ], [ 94.5598, 26.2559 ], [ 94.5654, 26.268 ], [ 94.5593, 26.2795 ], [ 94.5636, 26.2871 ], [ 94.5729, 26.2923 ], [ 94.5756, 26.2874 ], [ 94.5813, 26.2895 ], [ 94.5792, 26.2947 ], [ 94.5833, 26.2958 ], [ 94.5828, 26.301 ], [ 94.5878, 26.3013 ], [ 94.5925, 26.2957 ], [ 94.5908, 26.3019 ], [ 94.5965, 26.3002 ], [ 94.5955, 26.3062 ], [ 94.5995, 26.3106 ], [ 94.5963, 26.312 ], [ 94.6015, 26.3171 ], [ 94.6107, 26.3233 ], [ 94.6138, 26.3221 ], [ 94.6145, 26.3265 ], [ 94.6231, 26.3261 ], [ 94.6288, 26.3342 ], [ 94.637, 26.3298 ], [ 94.6378, 26.3334 ], [ 94.6504, 26.3252 ] ] ] } },
{ "type": "Feature", "properties": { "unit_id": "IND.24.11.1_1", "name": "Zunheboto", "district": "Zunheboto", "did": "nagaland:Zunheboto", "state_key": "nagaland" }, "geometry": { "type": "Polygon", "coordinates": [ [ [ 94.6506, 26.1919 ], [ 94.6526, 26.1857 ], [ 94.6447, 26.1753 ], [ 94.6476, 26.1654 ], [ 94.6361, 26.1551 ], [ 94.641, 26.1504 ], [ 94.6377, 26.1433 ], [ 94.6404, 26.1361 ], [ 94.6368, 26.1336 ], [ 94.6396, 26.1309 ], [ 94.6354, 26.1258 ], [ 94.6372, 26.1205 ], [ 94.6291, 26.1096 ], [ 94.6309, 26.1026 ], [ 94.6159, 26.0827 ], [ 94.6151, 26.0759 ], [ 94.61, 26.0762 ], [ 94.6099, 26.0681 ], [ 94.6055, 26.0689 ], [ 94.6029, 26.0603 ], [ 94.5691, 26.033 ], [ 94.567, 26.0254 ], [ 94.5625, 26.0238 ], [ 94.5626, 26.0169 ], [ 94.5571, 26.0142 ], [ 94.5588, 26.0087 ], [ 94.5495, 25.9954 ], [ 94.5399, 25.9888 ], [ 94.539, 25.976 ], [ 94.5334, 25.9721 ], [ 94.5341, 25.9652 ], [ 94.5305, 25.962 ], [ 94.5307, 25.9452 ], [ 94.521, 25.9494 ], [ 94.5108, 25.9458 ], [ 94.484, 25.9533 ], [ 94.4712, 25.9652 ], [ 94.4668, 25.9634 ], [ 94.4576, 25.9723 ], [ 94.4481, 25.9739 ], [ 94.4483, 25.9806 ], [ 94.4343, 25.9866 ], [ 94.4327, 26.0167 ], [ 94.4253, 26.0257 ], [ 94.4272, 26.0325 ], [ 94.4357, 26.0327 ], [ 94.4382, 26.0373 ], [ 94.4507, 26.0423 ], [ 94.4585, 26.0561 ], [ 94.4733, 26.0628 ], [ 94.4602, 26.0684 ], [ 94.465, 26.0755 ], [ 94.4655, 26.0902 ], [ 94.4728, 26.0946 ], [ 94.4683, 26.1053 ], [ 94.4843, 26.1095 ], [ 94.4956, 26.1244 ], [ 94.4841, 26.1295 ], [ 94.4902, 26.1422 ], [ 94.5007, 26.1492 ], [ 94.4978, 26.1564 ], [ 94.5007, 26.1705 ], [ 94.5134, 26.1959 ], [ 94.5078, 26.2019 ], [ 94.5038, 26.2014 ], [ 94.5074, 26.204 ], [ 94.5026, 26.2065 ], [ 94.5068, 26.2112 ], [ 94.5035, 26.2149 ], [ 94.5255, 26.2121 ], [ 94.5312, 26.217 ], [ 94.5375, 26.2075 ], [ 94.5535, 26.2019 ], [ 94.572, 26.2072 ], [ 94.5834, 26.2191 ], [ 94.5997, 26.1975 ], [ 94.6124, 26.1936 ], [ 94.6238, 26.1999 ], [ 94.6382, 26.2174 ], [ 94.6565, 26.2033 ], [ 94.6506, 26.1919 ] ] ] } },
{ "type": "Feature", "properties": { "unit_id": "IND.24.11.1_1", "name": "Aghunato", "district": "Zunheboto", "did": "nagaland:Zunheboto", "state_key": "nagaland" }, "geometry": { "type": "Polygon", "coordinates": [ [ [ 94.6944, 26.142 ], [ 94.6883, 26.1377 ], [ 94.6928, 26.0728 ], [ 94.6838, 26.0659 ], [ 94.6791, 26.0484 ], [ 94.6871, 26.0381 ], [ 94.6734, 26.0264 ], [ 94.6639, 26.0081 ], [ 94.656, 26.0035 ], [ 94.6513, 25.9923 ], [ 94.6434, 25.9866 ], [ 94.6109, 25.936 ], [ 94.6037, 25.9314 ], [ 94.5864, 25.906 ], [ 94.5715, 25.894 ], [ 94.5668, 25.883 ], [ 94.5532, 25.8804 ], [ 94.5386, 25.8634 ], [ 94.529, 25.86 ], [ 94.5286, 25.855 ], [ 94.5248, 25.854 ], [ 94.5274, 25.8625 ], [ 94.5198, 25.8968 ], [ 94.5276, 25.9191 ], [ 94.5232, 25.9228 ], [ 94.53, 25.9306 ], [ 94.528, 25.9392 ], [ 94.5311, 25.9394 ], [ 94.5334, 25.9721 ], [ 94.5389, 25.9759 ], [ 94.5399, 25.9888 ], [ 94.5495, 25.9954 ], [ 94.5588, 26.0087 ], [ 94.5571, 26.0142 ], [ 94.5626, 26.0169 ], [ 94.5625, 26.0238 ], [ 94.567, 26.0254 ], [ 94.5691, 26.033 ], [ 94.6029, 26.0603 ], [ 94.6055, 26.0689 ], [ 94.6099, 26.0681 ], [ 94.61, 26.0762 ], [ 94.6151, 26.0759 ], [ 94.6159, 26.0827 ], [ 94.6309, 26.1026 ], [ 94.6291, 26.1096 ], [ 94.6372, 26.1205 ], [ 94.6354, 26.1258 ], [ 94.6396, 26.1309 ], [ 94.6368, 26.1336 ], [ 94.6404, 26.1361 ], [ 94.6377, 26.1433 ], [ 94.641, 26.1504 ], [ 94.6361, 26.1551 ], [ 94.6476, 26.1654 ], [ 94.6447, 26.1753 ], [ 94.6526, 26.1857 ], [ 94.6506, 26.1919 ], [ 94.6598, 26.2078 ], [ 94.6623, 26.2065 ], [ 94.6663, 26.2127 ], [ 94.6702, 26.2116 ], [ 94.6809, 26.1987 ], [ 94.6872, 26.1963 ], [ 94.6891, 26.1985 ], [ 94.6959, 26.1726 ], [ 94.7057, 26.172 ], [ 94.6944, 26.142 ] ] ] } },
{ "type": "Feature", "properties": { "unit_id": "IND.24.11.1_1", "name": "Sataka", "district": "Zunheboto", "did": "nagaland:Zunheboto", "state_key": "nagaland" }, "geometry": { "type": "Polygon", "coordinates": [ [ [ 94.4253, 26.0257 ], [ 94.4327, 26.0167 ], [ 94.4342, 25.9869 ], [ 94.4483, 25.9806 ], [ 94.4475, 25.9743 ], [ 94.4576, 25.9723 ], [ 94.4668, 25.9634 ], [ 94.4712, 25.9652 ], [ 94.484, 25.9533 ], [ 94.5108, 25.9458 ], [ 94.521, 25.9494 ], [ 94.5307, 25.9452 ], [ 94.5299, 25.9301 ], [ 94.5232, 25.9226 ], [ 94.5276, 25.9191 ], [ 94.5198, 25.8968 ], [ 94.5274, 25.8625 ], [ 94.5248, 25.854 ], [ 94.5286, 25.855 ], [ 94.529, 25.86 ], [ 94.5386, 25.8634 ], [ 94.5464, 25.8757 ], [ 94.5532, 25.8804 ], [ 94.5664, 25.8827 ], [ 94.5699, 25.8897 ], [ 94.5799, 25.8816 ], [ 94.5921, 25.8791 ], [ 94.6102, 25.8441 ], [ 94.6107, 25.8342 ], [ 94.6028, 25.8262 ], [ 94.6096, 25.8186 ], [ 94.6155, 25.8157 ], [ 94.6236, 25.818 ], [ 94.6513, 25.8156 ], [ 94.685, 25.8004 ], [ 94.6986, 25.7887 ], [ 94.7129, 25.7595 ], [ 94.6958, 25.7575 ], [ 94.678, 25.7704 ], [ 94.6585, 25.7778 ], [ 94.647, 25.7766 ], [ 94.6367, 25.7693 ], [ 94.6221, 25.7707 ], [ 94.6068, 25.7786 ], [ 94.5844, 25.7501 ], [ 94.5597, 25.732 ], [ 94.5525, 25.7408 ], [ 94.5534, 25.7797 ], [ 94.5354, 25.7844 ], [ 94.5416, 25.8003 ], [ 94.5403, 25.8136 ], [ 94.5295, 25.8224 ], [ 94.5181, 25.825 ], [ 94.5157, 25.8149 ], [ 94.4943, 25.8317 ], [ 94.4655, 25.8304 ], [ 94.463, 25.8463 ], [ 94.4501, 25.8599 ], [ 94.4455, 25.8804 ], [ 94.4395, 25.8881 ], [ 94.424, 25.8987 ], [ 94.4162, 25.8977 ], [ 94.4117, 25.9031 ], [ 94.381, 25.9134 ], [ 94.3708, 25.9233 ], [ 94.3482, 25.9222 ], [ 94.3526, 25.933 ], [ 94.3326, 25.9506 ], [ 94.3394, 25.9541 ], [ 94.3489, 25.9777 ], [ 94.3527, 25.9778 ], [ 94.3606, 25.9898 ], [ 94.3598, 26.0065 ], [ 94.3628, 26.0089 ], [ 94.3561, 26.0098 ], [ 94.3578, 26.0216 ], [ 94.3624, 26.0261 ], [ 94.3602, 26.028 ], [ 94.3707, 26.0537 ], [ 94.3742, 26.0557 ], [ 94.3724, 26.047 ], [ 94.38, 26.0445 ], [ 94.3807, 26.0486 ], [ 94.3953, 26.0588 ], [ 94.409, 26.0518 ], [ 94.4272, 26.0325 ], [ 94.4253, 26.0257 ] ] ] } },
{ "type": "Feature", "properties": { "unit_id": "IND.24.11.1_1", "name": "Pughoboto", "district": "Zunheboto", "did": "nagaland:Zunheboto", "state_key": "nagaland" }, "geometry": { "type": "Polygon", "coordinates": [ [ [ 94.3606, 25.9898 ], [ 94.3527, 25.9778 ], [ 94.3489, 25.9777 ], [ 94.3394, 25.9541 ], [ 94.3326, 25.9506 ], [ 94.3526, 25.933 ], [ 94.3476, 25.923 ], [ 94.3515, 25.921 ], [ 94.3674, 25.9245 ], [ 94.3845, 25.9117 ], [ 94.4117, 25.9031 ], [ 94.4162, 25.8977 ], [ 94.4264, 25.8975 ], [ 94.4454, 25.8807 ], [ 94.4464, 25.8669 ], [ 94.463, 25.8463 ], [ 94.4457, 25.8424 ], [ 94.439, 25.8457 ], [ 94.4339, 25.844 ], [ 94.4273, 25.8485 ], [ 94.4034, 25.848 ], [ 94.3829, 25.856 ], [ 94.3712, 25.8566 ], [ 94.3756, 25.8365 ], [ 94.3718, 25.828 ], [ 94.3539, 25.8188 ], [ 94.3436, 25.8191 ], [ 94.3361, 25.8259 ], [ 94.3228, 25.7885 ], [ 94.3161, 25.7812 ], [ 94.3225, 25.7656 ], [ 94.3321, 25.7606 ], [ 94.3288, 25.7484 ], [ 94.3205, 25.7459 ], [ 94.2935, 25.7517 ], [ 94.2694, 25.7526 ], [ 94.2582, 25.7586 ], [ 94.2815, 25.8074 ], [ 94.2666, 25.8133 ], [ 94.2606, 25.8091 ], [ 94.2602, 25.8035 ], [ 94.2561, 25.805 ], [ 94.2426, 25.8279 ], [ 94.2307, 25.8348 ], [ 94.2294, 25.8523 ], [ 94.2414, 25.8719 ], [ 94.2406, 25.8922 ], [ 94.2486, 25.8991 ], [ 94.248, 25.9211 ], [ 94.2524, 25.9232 ], [ 94.2572, 25.9193 ], [ 94.2642, 25.9225 ], [ 94.2719, 25.9203 ], [ 94.283, 25.9294 ], [ 94.2876, 25.9286 ], [ 94.2988, 25.9403 ], [ 94.2859, 25.9678 ], [ 94.2868, 25.9793 ], [ 94.2692, 25.9879 ], [ 94.2557, 26.0044 ], [ 94.2759, 26.0097 ], [ 94.2997, 26.0065 ], [ 94.317, 26.0185 ], [ 94.3234, 26.0166 ], [ 94.3282, 25.9992 ], [ 94.3382, 25.9981 ], [ 94.3455, 26.0045 ], [ 94.3602, 26.0072 ], [ 94.3606, 25.9898 ] ] ] } },
{ "type": "Feature", "properties": { "unit_id": "IND.24.11.1_1", "name": "Akuluto", "district": "Zunheboto", "did": "nagaland:Zunheboto", "state_key": "nagaland" }, "geometry": { "type": "Polygon", "coordinates": [ [ [ 94.5068, 26.2112 ], [ 94.5026, 26.2065 ], [ 94.5074, 26.204 ], [ 94.5038, 26.2014 ], [ 94.5078, 26.2019 ], [ 94.5134, 26.1959 ], [ 94.5007, 26.1705 ], [ 94.4978, 26.1564 ], [ 94.5007, 26.1492 ], [ 94.4902, 26.1422 ], [ 94.4841, 26.1295 ], [ 94.4956, 26.1244 ], [ 94.4843, 26.1095 ], [ 94.4683, 26.1053 ], [ 94.4728, 26.0946 ], [ 94.4655, 26.0902 ], [ 94.465, 26.0755 ], [ 94.4602, 26.0684 ], [ 94.473, 26.062 ], [ 94.4593, 26.0567 ], [ 94.4517, 26.0432 ], [ 94.4382, 26.0373 ], [ 94.4357, 26.0327 ], [ 94.4215, 26.0354 ], [ 94.409, 26.0518 ], [ 94.3948, 26.0589 ], [ 94.3807, 26.0486 ], [ 94.38, 26.0445 ], [ 94.3743, 26.0453 ], [ 94.3719, 26.0489 ], [ 94.3784, 26.0673 ], [ 94.3875, 26.075 ], [ 94.3906, 26.084 ], [ 94.3833, 26.0871 ], [ 94.3844, 26.0955 ], [ 94.3809, 26.0942 ], [ 94.3799, 26.1005 ], [ 94.3867, 26.1098 ], [ 94.3854, 26.1248 ], [ 94.3634, 26.135 ], [ 94.3607, 26.1472 ], [ 94.3475, 26.1555 ], [ 94.3473, 26.1711 ], [ 94.3351, 26.1722 ], [ 94.3352, 26.1784 ], [ 94.3409, 26.1774 ], [ 94.3571, 26.1902 ], [ 94.3599, 26.1881 ], [ 94.3654, 26.1928 ], [ 94.385, 26.1968 ], [ 94.4055, 26.2117 ], [ 94.4187, 26.2126 ], [ 94.4311, 26.2062 ], [ 94.4457, 26.2062 ], [ 94.4441, 26.2182 ], [ 94.4591, 26.2362 ], [ 94.4546, 26.2447 ], [ 94.4789, 26.2936 ], [ 94.4833, 26.2928 ], [ 94.4867, 26.2792 ], [ 94.4959, 26.2743 ], [ 94.4982, 26.2549 ], [ 94.506, 26.2527 ], [ 94.5059, 26.2448 ], [ 94.516, 26.2395 ], [ 94.5087, 26.2326 ], [ 94.5059, 26.2349 ], [ 94.4977, 26.2292 ], [ 94.5017, 26.2269 ], [ 94.4962, 26.2189 ], [ 94.4996, 26.214 ], [ 94.5035, 26.2149 ], [ 94.5068, 26.2112 ] ] ] } },
{ "type": "Feature", "properties": { "unit_id": "IND.24.3.1_1", "name": "Kohima", "district": "Kohima", "did": "nagaland:Kohima", "state_key": "nagaland" }, "geometry": { "type": "Polygon", "coordinates": [ [ [ 94.2692, 25.9879 ], [ 94.2868, 25.9793 ], [ 94.2859, 25.9678 ], [ 94.2988, 25.9403 ], [ 94.2876, 25.9286 ], [ 94.283, 25.9294 ], [ 94.2719, 25.9203 ], [ 94.2642, 25.9225 ], [ 94.2572, 25.9193 ], [ 94.2524, 25.9232 ], [ 94.248, 25.9211 ], [ 94.2486, 25.8991 ], [ 94.2408, 25.8927 ], [ 94.2414, 25.8719 ], [ 94.2294, 25.8523 ], [ 94.2292, 25.8414 ], [ 94.2307, 25.8348 ], [ 94.2463, 25.823 ], [ 94.2561, 25.805 ], [ 94.26, 25.8034 ], [ 94.2606, 25.8091 ], [ 94.2674, 25.8134 ], [ 94.2775, 25.8106 ], [ 94.2823, 25.8036 ], [ 94.2729, 25.7948 ], [ 94.2755, 25.7899 ], [ 94.2649, 25.7775 ], [ 94.2589, 25.7591 ], [ 94.2461, 25.7455 ], [ 94.2434, 25.7328 ], [ 94.2301, 25.714 ], [ 94.2334, 25.7046 ], [ 94.2287, 25.7024 ], [ 94.2311, 25.6947 ], [ 94.2133, 25.6725 ], [ 94.2194, 25.6661 ], [ 94.2203, 25.6568 ], [ 94.2142, 25.6313 ], [ 94.2083, 25.6287 ], [ 94.2096, 25.6134 ], [ 94.2144, 25.61 ], [ 94.2072, 25.592 ], [ 94.1968, 25.5819 ], [ 94.1938, 25.5694 ], [ 94.1967, 25.5582 ], [ 94.1921, 25.5484 ], [ 94.1877, 25.5462 ], [ 94.1786, 25.5485 ], [ 94.1638, 25.5423 ], [ 94.156, 25.5505 ], [ 94.1488, 25.5431 ], [ 94.1441, 25.527 ], [ 94.1346, 25.519 ], [ 94.088, 25.5282 ], [ 94.0921, 25.5371 ], [ 94.0819, 25.5552 ], [ 94.0654, 25.5545 ], [ 94.0502, 25.5723 ], [ 94.0421, 25.5765 ], [ 94.0397, 25.573 ], [ 94.0352, 25.5786 ], [ 94.031, 25.5771 ], [ 94.0216, 25.589 ], [ 94.0065, 25.591 ], [ 94.0039, 25.5832 ], [ 94.0084, 25.5709 ], [ 94.0035, 25.5655 ], [ 93.9967, 25.5695 ], [ 93.9764, 25.5666 ], [ 93.9667, 25.5685 ], [ 93.9686, 25.5873 ], [ 93.9791, 25.5962 ], [ 93.966, 25.5994 ], [ 93.955, 25.5921 ], [ 93.9442, 25.5968 ], [ 93.9374, 25.6018 ], [ 93.9274, 25.6203 ], [ 93.9364, 25.6377 ], [ 93.954, 25.6537 ], [ 93.9505, 25.658 ], [ 93.9395, 25.6566 ], [ 93.9468, 25.6664 ], [ 93.9428, 25.6793 ], [ 93.9313, 25.6832 ], [ 93.9288, 25.6953 ], [ 93.9201, 25.6982 ], [ 93.9147, 25.7063 ], [ 93.9036, 25.7125 ], [ 93.8951, 25.7094 ], [ 93.8749, 25.7253 ], [ 93.8776, 25.7324 ], [ 93.8907, 25.7385 ], [ 93.8968, 25.7293 ], [ 93.9118, 25.7232 ], [ 93.9187, 25.7218 ], [ 93.9207, 25.7243 ], [ 93.9298, 25.7163 ], [ 93.9373, 25.7155 ], [ 93.947, 25.72 ], [ 93.9606, 25.7145 ], [ 93.982, 25.7348 ], [ 93.9888, 25.7482 ], [ 93.9895, 25.7547 ], [ 93.9775, 25.7722 ], [ 93.9892, 25.7923 ], [ 93.9772, 25.8233 ], [ 93.9712, 25.8294 ], [ 93.9706, 25.8407 ], [ 93.9751, 25.8685 ], [ 93.9832, 25.8705 ], [ 93.9946, 25.8812 ], [ 93.9854, 25.8888 ], [ 93.9863, 25.8966 ], [ 93.9758, 25.8934 ], [ 93.9671, 25.9019 ], [ 93.9712, 25.9128 ], [ 93.9787, 25.9167 ], [ 93.978, 25.9266 ], [ 93.9794, 25.9224 ], [ 93.9911, 25.9221 ], [ 93.9947, 25.9266 ], [ 93.9903, 25.9277 ], [ 93.9981, 25.9318 ], [ 94.0026, 25.9304 ], [ 94.0068, 25.9363 ], [ 94.0197, 25.941 ], [ 94.0217, 25.9511 ], [ 94.0445, 25.9738 ], [ 94.0659, 25.9802 ], [ 94.0742, 25.9731 ], [ 94.0838, 25.9862 ], [ 94.0954, 25.9915 ], [ 94.1113, 25.9876 ], [ 94.1395, 25.9923 ], [ 94.1409, 25.9868 ], [ 94.1607, 25.973 ], [ 94.1687, 25.9763 ], [ 94.1763, 25.9863 ], [ 94.1927, 25.9894 ], [ 94.201, 26.0022 ], [ 94.2111, 26.0089 ], [ 94.2106, 26.0175 ], [ 94.2146, 26.0218 ], [ 94.2227, 26.0188 ], [ 94.236, 26.0033 ], [ 94.2557, 26.0044 ], [ 94.2692, 25.9879 ] ] ] } },
{ "type": "Feature", "properties": { "unit_id": "IND.24.1.1_1", "name": "Dimapur", "district": "Dimapur", "did": "nagaland:Dimapur", "state_key": "nagaland" }, "geometry": { "type": "Polygon", "coordinates": [ [ [ 93.9741, 25.894 ], [ 93.9863, 25.8966 ], [ 93.9854, 25.8888 ], [ 93.9946, 25.8812 ], [ 93.9832, 25.8705 ], [ 93.9751, 25.8685 ], [ 93.9706, 25.8407 ], [ 93.9712, 25.8294 ], [ 93.9772, 25.8233 ], [ 93.9892, 25.7923 ], [ 93.9775, 25.7722 ], [ 93.9895, 25.7547 ], [ 93.9888, 25.7482 ], [ 93.982, 25.7348 ], [ 93.9606, 25.7145 ], [ 93.947, 25.72 ], [ 93.9373, 25.7155 ], [ 93.9298, 25.7163 ], [ 93.9207, 25.7243 ], [ 93.9187, 25.7218 ], [ 93.9118, 25.7232 ], [ 93.8968, 25.7293 ], [ 93.8907, 25.7385 ], [ 93.8776, 25.7324 ], [ 93.8749, 25.7253 ], [ 93.8951, 25.7094 ], [ 93.9046, 25.7122 ], [ 93.9147, 25.7063 ], [ 93.9201, 25.6982 ], [ 93.9288, 25.6953 ], [ 93.9313, 25.6832 ], [ 93.9428, 25.6793 ], [ 93.9467, 25.6704 ], [ 93.9395, 25.6566 ], [ 93.9489, 25.6583 ], [ 93.9533, 25.6558 ], [ 93.9498, 25.6473 ], [ 93.9364, 25.6377 ], [ 93.928, 25.6207 ], [ 93.9223, 25.6166 ], [ 93.9179, 25.6174 ], [ 93.9157, 25.6143 ], [ 93.912, 25.6186 ], [ 93.8721, 25.6758 ], [ 93.8604, 25.6859 ], [ 93.84, 25.6928 ], [ 93.8363, 25.7016 ], [ 93.821, 25.7174 ], [ 93.8165, 25.7123 ], [ 93.8165, 25.7031 ], [ 93.8098, 25.7022 ], [ 93.8004, 25.6942 ], [ 93.7922, 25.673 ], [ 93.787, 25.6848 ], [ 93.7691, 25.7033 ], [ 93.7444, 25.7137 ], [ 93.7466, 25.7252 ], [ 93.7426, 25.73 ], [ 93.734, 25.7313 ], [ 93.7367, 25.7393 ], [ 93.7269, 25.7516 ], [ 93.7308, 25.7581 ], [ 93.7191, 25.7554 ], [ 93.7167, 25.7642 ], [ 93.7036, 25.769 ], [ 93.6912, 25.7663 ], [ 93.685, 25.7705 ], [ 93.682, 25.7637 ], [ 93.6895, 25.7551 ], [ 93.6883, 25.724 ], [ 93.6927, 25.7184 ], [ 93.682, 25.6971 ], [ 93.677, 25.6941 ], [ 93.6685, 25.6963 ], [ 93.6554, 25.6902 ], [ 93.6534, 25.6857 ], [ 93.6484, 25.6867 ], [ 93.6512, 25.6811 ], [ 93.6466, 25.6791 ], [ 93.6495, 25.677 ], [ 93.6359, 25.6606 ], [ 93.6221, 25.6602 ], [ 93.6014, 25.6507 ], [ 93.5877, 25.6563 ], [ 93.5911, 25.6691 ], [ 93.5843, 25.6678 ], [ 93.5812, 25.671 ], [ 93.5903, 25.6771 ], [ 93.5899, 25.6906 ], [ 93.5774, 25.6943 ], [ 93.5744, 25.7147 ], [ 93.57, 25.7084 ], [ 93.563, 25.7076 ], [ 93.5432, 25.7191 ], [ 93.5396, 25.7226 ], [ 93.5425, 25.7309 ], [ 93.5494, 25.7293 ], [ 93.5496, 25.7327 ], [ 93.5553, 25.7336 ], [ 93.5543, 25.7378 ], [ 93.5615, 25.7378 ], [ 93.567, 25.7473 ], [ 93.5663, 25.7548 ], [ 93.5732, 25.7541 ], [ 93.5679, 25.7584 ], [ 93.5778, 25.7545 ], [ 93.5855, 25.758 ], [ 93.5823, 25.7605 ], [ 93.5859, 25.7661 ], [ 93.5917, 25.7625 ], [ 93.5985, 25.7688 ], [ 93.6027, 25.7651 ], [ 93.605, 25.7749 ], [ 93.6174, 25.776 ], [ 93.6185, 25.7837 ], [ 93.6268, 25.7896 ], [ 93.6247, 25.8026 ], [ 93.6329, 25.8028 ], [ 93.6331, 25.8114 ], [ 93.6386, 25.8098 ], [ 93.6382, 25.8156 ], [ 93.6435, 25.8158 ], [ 93.6461, 25.8224 ], [ 93.6516, 25.8199 ], [ 93.6548, 25.8236 ], [ 93.6683, 25.8218 ], [ 93.6676, 25.826 ], [ 93.6712, 25.824 ], [ 93.6726, 25.8276 ], [ 93.6786, 25.8284 ], [ 93.6806, 25.8383 ], [ 93.6902, 25.8407 ], [ 93.6856, 25.8437 ], [ 93.6883, 25.8459 ], [ 93.6914, 25.8438 ], [ 93.7011, 25.8496 ], [ 93.7009, 25.8433 ], [ 93.7078, 25.8478 ], [ 93.7143, 25.8445 ], [ 93.7021, 25.8515 ], [ 93.6815, 25.9044 ], [ 93.694, 25.9117 ], [ 93.7009, 25.9107 ], [ 93.7066, 25.9188 ], [ 93.7136, 25.9168 ], [ 93.7361, 25.9228 ], [ 93.7395, 25.9318 ], [ 93.7476, 25.9349 ], [ 93.7513, 25.9328 ], [ 93.7451, 25.9423 ], [ 93.7504, 25.9409 ], [ 93.7529, 25.9467 ], [ 93.7585, 25.9455 ], [ 93.7587, 25.9526 ], [ 93.7618, 25.9511 ], [ 93.7642, 25.9544 ], [ 93.7642, 25.9508 ], [ 93.768, 25.951 ], [ 93.7636, 25.9594 ], [ 93.7695, 25.9588 ], [ 93.77, 25.9613 ], [ 93.7654, 25.9698 ], [ 93.7772, 25.9682 ], [ 93.7751, 25.9614 ], [ 93.7873, 25.9466 ], [ 93.7846, 25.9439 ], [ 93.7899, 25.9339 ], [ 93.7865, 25.9321 ], [ 93.791, 25.9262 ], [ 93.7887, 25.9169 ], [ 93.7943, 25.9127 ], [ 93.792, 25.9066 ], [ 93.7957, 25.9065 ], [ 93.7954, 25.8924 ], [ 93.7842, 25.8843 ], [ 93.7873, 25.8769 ], [ 93.7852, 25.87 ], [ 93.7898, 25.8678 ], [ 93.7844, 25.8584 ], [ 93.7785, 25.8569 ], [ 93.7811, 25.854 ], [ 93.7775, 25.8498 ], [ 93.7875, 25.8158 ], [ 93.7955, 25.8089 ], [ 93.8038, 25.8114 ], [ 93.8063, 25.8169 ], [ 93.8164, 25.8226 ], [ 93.8211, 25.8387 ], [ 93.8397, 25.8566 ], [ 93.8523, 25.8582 ], [ 93.8692, 25.8509 ], [ 93.8761, 25.8425 ], [ 93.8818, 25.8433 ], [ 93.89, 25.8586 ], [ 93.896, 25.8579 ], [ 93.9019, 25.8708 ], [ 93.9075, 25.8725 ], [ 93.916, 25.8837 ], [ 93.934, 25.8852 ], [ 93.938, 25.8963 ], [ 93.9611, 25.9012 ], [ 93.9669, 25.9063 ], [ 93.9741, 25.894 ] ] ] } },
{ "type": "Feature", "properties": { "unit_id": "IND.24.10.1_1", "name": "Wokha", "district": "Wokha", "did": "nagaland:Wokha", "state_key": "nagaland" }, "geometry": { "type": "Polygon", "coordinates": [ [ [ 94.2813, 26.5486 ], [ 94.2861, 26.5425 ], [ 94.281, 26.5351 ], [ 94.2897, 26.4797 ], [ 94.2999, 26.4637 ], [ 94.3156, 26.4582 ], [ 94.3051, 26.4394 ], [ 94.2987, 26.4377 ], [ 94.2988, 26.4305 ], [ 94.2902, 26.418 ], [ 94.291, 26.4067 ], [ 94.2972, 26.4061 ], [ 94.304, 26.3943 ], [ 94.3013, 26.3773 ], [ 94.3091, 26.3837 ], [ 94.3119, 26.3925 ], [ 94.3251, 26.4021 ], [ 94.3293, 26.3902 ], [ 94.3506, 26.3724 ], [ 94.3585, 26.357 ], [ 94.3504, 26.3398 ], [ 94.3428, 26.3365 ], [ 94.3435, 26.3315 ], [ 94.3487, 26.3357 ], [ 94.3518, 26.3321 ], [ 94.366, 26.3367 ], [ 94.3563, 26.3247 ], [ 94.3519, 26.31 ], [ 94.3572, 26.3034 ], [ 94.3549, 26.2934 ], [ 94.3593, 26.2689 ], [ 94.3433, 26.2443 ], [ 94.3351, 26.2403 ], [ 94.3414, 26.2387 ], [ 94.3468, 26.2427 ], [ 94.356, 26.242 ], [ 94.3698, 26.2316 ], [ 94.3834, 26.2292 ], [ 94.3848, 26.224 ], [ 94.3712, 26.1931 ], [ 94.3599, 26.1881 ], [ 94.3571, 26.1902 ], [ 94.3403, 26.1771 ], [ 94.3352, 26.1784 ], [ 94.3351, 26.1722 ], [ 94.3473, 26.1711 ], [ 94.3475, 26.1555 ], [ 94.3607, 26.1472 ], [ 94.3634, 26.135 ], [ 94.3849, 26.1256 ], [ 94.387, 26.1159 ], [ 94.3799, 26.1005 ], [ 94.3809, 26.0942 ], [ 94.3844, 26.0955 ], [ 94.3833, 26.0871 ], [ 94.3906, 26.084 ], [ 94.3703, 26.0529 ], [ 94.3602, 26.028 ], [ 94.3624, 26.0261 ], [ 94.3578, 26.0216 ], [ 94.3561, 26.0098 ], [ 94.3628, 26.0087 ], [ 94.3328, 25.9982 ], [ 94.3277, 25.9995 ], [ 94.3233, 26.0168 ], [ 94.317, 26.0185 ], [ 94.2997, 26.0065 ], [ 94.2749, 26.0097 ], [ 94.2442, 26.0019 ], [ 94.2358, 26.0034 ], [ 94.2227, 26.0188 ], [ 94.2146, 26.0218 ], [ 94.2106, 26.0175 ], [ 94.2111, 26.0089 ], [ 94.201, 26.0022 ], [ 94.1927, 25.9894 ], [ 94.1763, 25.9863 ], [ 94.1625, 25.9732 ], [ 94.1468, 25.9815 ], [ 94.1395, 25.9923 ], [ 94.1113, 25.9876 ], [ 94.0954, 25.9915 ], [ 94.0838, 25.9862 ], [ 94.0742, 25.9731 ], [ 94.0659, 25.9802 ], [ 94.0445, 25.9738 ], [ 94.0217, 25.9511 ], [ 94.0195, 25.9408 ], [ 94.0068, 25.9363 ], [ 94.0026, 25.9304 ], [ 93.9981, 25.9318 ], [ 93.9903, 25.9277 ], [ 93.9947, 25.9266 ], [ 93.9911, 25.9221 ], [ 93.9794, 25.9224 ], [ 93.97, 25.9368 ], [ 93.9687, 25.9573 ], [ 93.9542, 25.9693 ], [ 93.9591, 25.9943 ], [ 93.953, 26.003 ], [ 93.9605, 26.0154 ], [ 93.9625, 26.0365 ], [ 93.9704, 26.0403 ], [ 93.9708, 26.0464 ], [ 93.9874, 26.0668 ], [ 93.9815, 26.0812 ], [ 93.9886, 26.0863 ], [ 93.9895, 26.0975 ], [ 93.9979, 26.1096 ], [ 93.9868, 26.1139 ], [ 93.9939, 26.1187 ], [ 93.9978, 26.1288 ], [ 93.9889, 26.1282 ], [ 93.9872, 26.1311 ], [ 93.9909, 26.1336 ], [ 93.9983, 26.1312 ], [ 94.0022, 26.1344 ], [ 94.0036, 26.1442 ], [ 93.9945, 26.1483 ], [ 94.0037, 26.1601 ], [ 94.0011, 26.1723 ], [ 94.0078, 26.1825 ], [ 94.0154, 26.184 ], [ 94.0218, 26.1938 ], [ 94.032, 26.1975 ], [ 94.0365, 26.2261 ], [ 94.0477, 26.2494 ], [ 94.0561, 26.255 ], [ 94.0679, 26.257 ], [ 94.0746, 26.2644 ], [ 94.0747, 26.2836 ], [ 94.0841, 26.2833 ], [ 94.0843, 26.289 ], [ 94.0978, 26.302 ], [ 94.0997, 26.3139 ], [ 94.1051, 26.3199 ], [ 94.1217, 26.3178 ], [ 94.115, 26.324 ], [ 94.1159, 26.3297 ], [ 94.1284, 26.3304 ], [ 94.1387, 26.3363 ], [ 94.1451, 26.3306 ], [ 94.1746, 26.3405 ], [ 94.1776, 26.3464 ], [ 94.1687, 26.3509 ], [ 94.162, 26.3472 ], [ 94.1602, 26.3543 ], [ 94.1711, 26.3628 ], [ 94.1776, 26.382 ], [ 94.1719, 26.4158 ], [ 94.1757, 26.4244 ], [ 94.1717, 26.4298 ], [ 94.1833, 26.4553 ], [ 94.2027, 26.4691 ], [ 94.2075, 26.4865 ], [ 94.2366, 26.5061 ], [ 94.2563, 26.5412 ], [ 94.2847, 26.5611 ], [ 94.2813, 26.5486 ] ] ] } },
{ "type": "Feature", "properties": { "unit_id": "IND.24.7.1_1", "name": "Paren", "district": "Paren", "did": "nagaland:Paren", "state_key": "nagaland" }, "geometry": { "type": "Polygon", "coordinates": [ [ [ 93.9363, 25.6034 ], [ 93.9442, 25.5968 ], [ 93.955, 25.5921 ], [ 93.966, 25.5994 ], [ 93.9791, 25.5962 ], [ 93.9686, 25.5873 ], [ 93.9657, 25.5739 ], [ 93.9667, 25.5685 ], [ 93.9764, 25.5666 ], [ 93.9614, 25.5523 ], [ 93.9397, 25.5592 ], [ 93.8882, 25.5643 ], [ 93.8585, 25.5535 ], [ 93.8328, 25.5591 ], [ 93.8296, 25.5524 ], [ 93.8214, 25.552 ], [ 93.816, 25.5404 ], [ 93.7758, 25.5341 ], [ 93.767, 25.5364 ], [ 93.7656, 25.5138 ], [ 93.7606, 25.5116 ], [ 93.7621, 25.496 ], [ 93.7697, 25.4939 ], [ 93.7847, 25.5025 ], [ 93.8003, 25.4951 ], [ 93.8101, 25.4807 ], [ 93.8052, 25.4616 ], [ 93.7767, 25.4255 ], [ 93.7773, 25.4208 ], [ 93.7606, 25.4142 ], [ 93.7429, 25.4018 ], [ 93.7363, 25.3913 ], [ 93.736, 25.3805 ], [ 93.7193, 25.3717 ], [ 93.7142, 25.3577 ], [ 93.7078, 25.3542 ], [ 93.689, 25.3578 ], [ 93.6833, 25.3274 ], [ 93.6683, 25.3249 ], [ 93.6691, 25.3077 ], [ 93.6623, 25.3045 ], [ 93.6618, 25.2946 ], [ 93.6478, 25.2753 ], [ 93.6461, 25.2654 ], [ 93.6397, 25.2621 ], [ 93.6343, 25.2467 ], [ 93.6042, 25.1984 ], [ 93.5892, 25.2002 ], [ 93.591, 25.2075 ], [ 93.5865, 25.2163 ], [ 93.5711, 25.2239 ], [ 93.5594, 25.243 ], [ 93.551, 25.247 ], [ 93.5375, 25.2418 ], [ 93.5169, 25.2453 ], [ 93.5127, 25.2413 ], [ 93.5015, 25.2407 ], [ 93.5005, 25.2499 ], [ 93.5071, 25.2721 ], [ 93.4731, 25.2756 ], [ 93.469, 25.282 ], [ 93.4706, 25.3051 ], [ 93.4534, 25.3215 ], [ 93.4565, 25.3354 ], [ 93.4485, 25.3403 ], [ 93.4516, 25.354 ], [ 93.4587, 25.3607 ], [ 93.465, 25.3607 ], [ 93.4736, 25.3793 ], [ 93.473, 25.386 ], [ 93.4597, 25.4032 ], [ 93.4623, 25.4179 ], [ 93.4582, 25.431 ], [ 93.4395, 25.441 ], [ 93.4364, 25.4482 ], [ 93.4155, 25.445 ], [ 93.4104, 25.4499 ], [ 93.4025, 25.4508 ], [ 93.3973, 25.4603 ], [ 93.3903, 25.4604 ], [ 93.3845, 25.4692 ], [ 93.3914, 25.4822 ], [ 93.3846, 25.4851 ], [ 93.3855, 25.4904 ], [ 93.3774, 25.493 ], [ 93.3767, 25.4975 ], [ 93.3673, 25.4995 ], [ 93.3692, 25.5035 ], [ 93.3643, 25.5038 ], [ 93.3616, 25.5123 ], [ 93.3569, 25.5137 ], [ 93.3501, 25.5322 ], [ 93.3483, 25.5299 ], [ 93.3451, 25.5342 ], [ 93.3353, 25.5342 ], [ 93.3364, 25.5387 ], [ 93.3267, 25.5453 ], [ 93.338, 25.5569 ], [ 93.3522, 25.56 ], [ 93.3587, 25.5546 ], [ 93.3641, 25.5612 ], [ 93.3625, 25.566 ], [ 93.3754, 25.5731 ], [ 93.3743, 25.5771 ], [ 93.3798, 25.5766 ], [ 93.3816, 25.582 ], [ 93.3783, 25.5826 ], [ 93.3857, 25.5871 ], [ 93.3856, 25.5928 ], [ 93.3893, 25.5911 ], [ 93.3924, 25.5959 ], [ 93.3988, 25.596 ], [ 93.4029, 25.6022 ], [ 93.4015, 25.6111 ], [ 93.411, 25.6136 ], [ 93.4137, 25.621 ], [ 93.4216, 25.6182 ], [ 93.42, 25.6247 ], [ 93.4246, 25.6255 ], [ 93.4274, 25.6325 ], [ 93.4337, 25.6294 ], [ 93.4444, 25.6396 ], [ 93.4467, 25.6346 ], [ 93.4496, 25.6395 ], [ 93.4609, 25.6323 ], [ 93.4573, 25.6411 ], [ 93.4642, 25.6446 ], [ 93.472, 25.6424 ], [ 93.4688, 25.6443 ], [ 93.4738, 25.644 ], [ 93.4767, 25.6478 ], [ 93.4817, 25.6445 ], [ 93.4814, 25.6512 ], [ 93.4852, 25.6483 ], [ 93.488, 25.6543 ], [ 93.4966, 25.6545 ], [ 93.5098, 25.6685 ], [ 93.5074, 25.6725 ], [ 93.5111, 25.6721 ], [ 93.5183, 25.6794 ], [ 93.5127, 25.6846 ], [ 93.5225, 25.6976 ], [ 93.5275, 25.6912 ], [ 93.5363, 25.7018 ], [ 93.5412, 25.6988 ], [ 93.548, 25.7114 ], [ 93.5432, 25.7191 ], [ 93.563, 25.7076 ], [ 93.57, 25.7084 ], [ 93.5744, 25.7147 ], [ 93.5774, 25.6943 ], [ 93.588, 25.6929 ], [ 93.5919, 25.6855 ], [ 93.5898, 25.6764 ], [ 93.5812, 25.671 ], [ 93.5843, 25.6678 ], [ 93.5911, 25.6691 ], [ 93.5873, 25.6572 ], [ 93.5917, 25.6534 ], [ 93.6014, 25.6507 ], [ 93.6221, 25.6602 ], [ 93.6359, 25.6606 ], [ 93.6495, 25.677 ], [ 93.6466, 25.6791 ], [ 93.6512, 25.6811 ], [ 93.6484, 25.6867 ], [ 93.6534, 25.6857 ], [ 93.6554, 25.6902 ], [ 93.6685, 25.6963 ], [ 93.6795, 25.6948 ], [ 93.692, 25.7145 ], [ 93.6883, 25.7242 ], [ 93.6895, 25.7551 ], [ 93.682, 25.7611 ], [ 93.685, 25.7705 ], [ 93.6912, 25.7663 ], [ 93.7036, 25.769 ], [ 93.7167, 25.7642 ], [ 93.7191, 25.7554 ], [ 93.7308, 25.7581 ], [ 93.7269, 25.7516 ], [ 93.7367, 25.7393 ], [ 93.734, 25.7313 ], [ 93.7426, 25.73 ], [ 93.7466, 25.7252 ], [ 93.7444, 25.7137 ], [ 93.7691, 25.7033 ], [ 93.787, 25.6848 ], [ 93.7922, 25.673 ], [ 93.8004, 25.6942 ], [ 93.8098, 25.7022 ], [ 93.8165, 25.7031 ], [ 93.8165, 25.7123 ], [ 93.821, 25.7174 ], [ 93.8363, 25.7016 ], [ 93.84, 25.6928 ], [ 93.8604, 25.6859 ], [ 93.8724, 25.6755 ], [ 93.9157, 25.6143 ], [ 93.9279, 25.6206 ], [ 93.9363, 25.6034 ] ] ] } },
{ "type": "Feature", "properties": { "unit_id": "IND.24.8.1_1", "name": "Phek", "district": "Phek", "did": "nagaland:Phek", "state_key": "nagaland" }, "geometry": { "type": "Polygon", "coordinates": [ [ [ 94.4034, 25.848 ], [ 94.4273, 25.8485 ], [ 94.4339, 25.844 ], [ 94.439, 25.8457 ], [ 94.4457, 25.8424 ], [ 94.463, 25.8463 ], [ 94.4655, 25.8304 ], [ 94.495, 25.8315 ], [ 94.5157, 25.8149 ], [ 94.5181, 25.825 ], [ 94.5295, 25.8224 ], [ 94.5423, 25.8113 ], [ 94.536, 25.7829 ], [ 94.549, 25.7818 ], [ 94.5546, 25.7768 ], [ 94.5518, 25.7462 ], [ 94.5533, 25.738 ], [ 94.5597, 25.732 ], [ 94.5844, 25.7501 ], [ 94.6068, 25.7786 ], [ 94.6221, 25.7707 ], [ 94.6367, 25.7693 ], [ 94.647, 25.7766 ], [ 94.6585, 25.7778 ], [ 94.678, 25.7704 ], [ 94.6958, 25.7575 ], [ 94.7129, 25.7595 ], [ 94.7162, 25.7552 ], [ 94.7137, 25.7412 ], [ 94.718, 25.7218 ], [ 94.727, 25.7252 ], [ 94.7231, 25.7266 ], [ 94.7271, 25.7307 ], [ 94.7216, 25.7332 ], [ 94.7204, 25.7395 ], [ 94.7271, 25.7443 ], [ 94.7251, 25.7481 ], [ 94.7305, 25.7504 ], [ 94.7331, 25.7602 ], [ 94.7419, 25.7655 ], [ 94.7402, 25.7701 ], [ 94.747, 25.772 ], [ 94.7456, 25.7767 ], [ 94.7554, 25.7823 ], [ 94.76, 25.7785 ], [ 94.7902, 25.7775 ], [ 94.8096, 25.765 ], [ 94.8192, 25.7637 ], [ 94.8408, 25.7407 ], [ 94.8468, 25.7291 ], [ 94.8546, 25.7243 ], [ 94.8566, 25.7174 ], [ 94.858, 25.6966 ], [ 94.8461, 25.6501 ], [ 94.8509, 25.6333 ], [ 94.8491, 25.6249 ], [ 94.8539, 25.6184 ], [ 94.8516, 25.6102 ], [ 94.8662, 25.6088 ], [ 94.878, 25.5884 ], [ 94.8914, 25.5782 ], [ 94.8985, 25.5653 ], [ 94.8459, 25.5619 ], [ 94.8258, 25.5425 ], [ 94.8254, 25.5238 ], [ 94.8124, 25.5113 ], [ 94.808, 25.4933 ], [ 94.7887, 25.4896 ], [ 94.7835, 25.4804 ], [ 94.762, 25.482 ], [ 94.7577, 25.4914 ], [ 94.7514, 25.4939 ], [ 94.744, 25.4811 ], [ 94.7283, 25.4766 ], [ 94.7181, 25.4695 ], [ 94.71, 25.4718 ], [ 94.6929, 25.4656 ], [ 94.6836, 25.4664 ], [ 94.6803, 25.454 ], [ 94.6649, 25.4494 ], [ 94.6281, 25.4598 ], [ 94.5861, 25.484 ], [ 94.5699, 25.4995 ], [ 94.5527, 25.5071 ], [ 94.56, 25.5623 ], [ 94.5558, 25.5623 ], [ 94.557, 25.5727 ], [ 94.5511, 25.5802 ], [ 94.5792, 25.6288 ], [ 94.5906, 25.6382 ], [ 94.5824, 25.6409 ], [ 94.5716, 25.6391 ], [ 94.5723, 25.6472 ], [ 94.5807, 25.6562 ], [ 94.5808, 25.6692 ], [ 94.5925, 25.6813 ], [ 94.5911, 25.6857 ], [ 94.5686, 25.6921 ], [ 94.5473, 25.6569 ], [ 94.5351, 25.6456 ], [ 94.5271, 25.6446 ], [ 94.5262, 25.6371 ], [ 94.5197, 25.6379 ], [ 94.5042, 25.6214 ], [ 94.5009, 25.6115 ], [ 94.4974, 25.6146 ], [ 94.489, 25.6089 ], [ 94.4867, 25.6144 ], [ 94.4696, 25.6162 ], [ 94.4434, 25.5927 ], [ 94.4256, 25.5874 ], [ 94.418, 25.5707 ], [ 94.4219, 25.5561 ], [ 94.4158, 25.5373 ], [ 94.4064, 25.5382 ], [ 94.3841, 25.5313 ], [ 94.3603, 25.5163 ], [ 94.3246, 25.5032 ], [ 94.3091, 25.4894 ], [ 94.2983, 25.4896 ], [ 94.2824, 25.5067 ], [ 94.2698, 25.498 ], [ 94.2529, 25.4984 ], [ 94.2478, 25.4941 ], [ 94.2248, 25.4911 ], [ 94.2106, 25.4954 ], [ 94.2087, 25.5033 ], [ 94.186, 25.5298 ], [ 94.1966, 25.5572 ], [ 94.1938, 25.5694 ], [ 94.1968, 25.5819 ], [ 94.2072, 25.592 ], [ 94.2144, 25.61 ], [ 94.2096, 25.6134 ], [ 94.2083, 25.6287 ], [ 94.2142, 25.6313 ], [ 94.2203, 25.6568 ], [ 94.2194, 25.6661 ], [ 94.2133, 25.6725 ], [ 94.2315, 25.6958 ], [ 94.2287, 25.7024 ], [ 94.2334, 25.7046 ], [ 94.2301, 25.714 ], [ 94.2434, 25.7328 ], [ 94.2461, 25.7455 ], [ 94.2582, 25.7586 ], [ 94.2707, 25.7524 ], [ 94.2935, 25.7517 ], [ 94.3205, 25.7459 ], [ 94.3288, 25.7484 ], [ 94.3321, 25.7606 ], [ 94.3225, 25.7656 ], [ 94.3157, 25.7794 ], [ 94.3228, 25.7885 ], [ 94.3265, 25.8057 ], [ 94.333, 25.8116 ], [ 94.3367, 25.8263 ], [ 94.3436, 25.8191 ], [ 94.3539, 25.8188 ], [ 94.371, 25.8271 ], [ 94.3756, 25.8365 ], [ 94.3701, 25.8542 ], [ 94.3773, 25.8565 ], [ 94.4034, 25.848 ] ] ] } }
]
}
