{
"type": "FeatureCollection",
"crs": { "type": "name", "properties": { "name": "urn:ogc:def:crs:OGC:1.3:CRS84" } },
"xy_coordinate_resolution": 0.0001,
"features": [
{ "type": "Feature", "properties": { "unit_id": "Z07.3.3.1_1", "name": "None", "district": "Dibang Valley", "did": "arunachal_pradesh:Dibang Valley", "state_key": "arunachal_pradesh" }, "geometry": { "type": "Polygon", "coordinates": [ [ [ 96.3277, 28.5185 ], [ 96.3244, 28.4899 ], [ 96.3103, 28.4706 ], [ 96.302, 28.4805 ], [ 96.3033, 28.4921 ], [ 96.2939, 28.498 ], [ 96.2564, 28.4907 ], [ 96.24, 28.4975 ], [ 96.2353, 28.4962 ], [ 96.2341, 28.5017 ], [ 96.2153, 28.5204 ], [ 96.1667, 28.5344 ], [ 96.1635, 28.5254 ], [ 96.1693, 28.5186 ], [ 96.168, 28.5133 ], [ 96.1618, 28.5105 ], [ 96.1551, 28.5137 ], [ 96.1275, 28.5106 ], [ 96.1249, 28.5055 ], [ 96.1186, 28.5044 ], [ 96.1159, 28.487 ], [ 96.108, 28.4814 ], [ 96.0844, 28.4889 ], [ 96.064, 28.4882 ], [ 96.0578, 28.4833 ], [ 96.0521, 28.4652 ], [ 96.041, 28.4531 ], [ 96.0362, 28.4243 ], [ 96.0212, 28.4211 ], [ 96.0116, 28.4082 ], [ 96.0025, 28.4076 ], [ 95.9983, 28.4028 ], [ 95.9923, 28.4055 ], [ 95.9758, 28.4 ], [ 95.9686, 28.3909 ], [ 95.9589, 28.3915 ], [ 95.9476, 28.3838 ], [ 95.9354, 28.3835 ], [ 95.9138, 28.3976 ], [ 95.905, 28.3962 ], [ 95.8961, 28.4004 ], [ 95.8983, 28.4101 ], [ 95.89, 28.412 ], [ 95.8845, 28.4214 ], [ 95.8715, 28.4254 ], [ 95.8706, 28.4303 ], [ 95.8509, 28.434 ], [ 95.8167, 28.4272 ], [ 95.8016, 28.4088 ], [ 95.7823, 28.3974 ], [ 95.7757, 28.3857 ], [ 95.765, 28.3789 ], [ 95.7716, 28.3656 ], [ 95.7762, 28.3269 ], [ 95.756, 28.3287 ], [ 95.7476, 28.3191 ], [ 95.7374, 28.3282 ], [ 95.7356, 28.341 ], [ 95.7066, 28.3474 ], [ 95.6944, 28.343 ], [ 95.6907, 28.3505 ], [ 95.6922, 28.3597 ], [ 95.679, 28.3706 ], [ 95.6623, 28.3669 ], [ 95.6389, 28.3677 ], [ 95.6358, 28.374 ], [ 95.6265, 28.3793 ], [ 95.6085, 28.3748 ], [ 95.6052, 28.3783 ], [ 95.589, 28.3718 ], [ 95.5851, 28.3745 ], [ 95.5875, 28.3817 ], [ 95.5733, 28.3904 ], [ 95.5685, 28.4 ], [ 95.5642, 28.3997 ], [ 95.5637, 28.4061 ], [ 95.5759, 28.4299 ], [ 95.5813, 28.4323 ], [ 95.5767, 28.4519 ], [ 95.59, 28.4675 ], [ 95.5891, 28.4846 ], [ 95.5606, 28.5052 ], [ 95.5393, 28.496 ], [ 95.5233, 28.5036 ], [ 95.5259, 28.5128 ], [ 95.5216, 28.5181 ], [ 95.5157, 28.5216 ], [ 95.4999, 28.5186 ], [ 95.4937, 28.531 ], [ 95.4765, 28.5373 ], [ 95.4675, 28.5367 ], [ 95.4595, 28.5416 ], [ 95.4586, 28.5487 ], [ 95.4508, 28.5547 ], [ 95.445, 28.5555 ], [ 95.4268, 28.5452 ], [ 95.4113, 28.5508 ], [ 95.4081, 28.5466 ], [ 95.4092, 28.5537 ], [ 95.4009, 28.5677 ], [ 95.3818, 28.5703 ], [ 95.3752, 28.6143 ], [ 95.3653, 28.626 ], [ 95.3673, 28.644 ], [ 95.3596, 28.6595 ], [ 95.3568, 28.6957 ], [ 95.3508, 28.7044 ], [ 95.3671, 28.7143 ], [ 95.3747, 28.7272 ], [ 95.3846, 28.7307 ], [ 95.3893, 28.7413 ], [ 95.374, 28.7646 ], [ 95.3772, 28.7777 ], [ 95.3626, 28.787 ], [ 95.3535, 28.8182 ], [ 95.3553, 28.8232 ], [ 95.3463, 28.8261 ], [ 95.3385, 28.8347 ], [ 95.3303, 28.8339 ], [ 95.3241, 28.8433 ], [ 95.323, 28.8506 ], [ 95.3278, 28.8538 ], [ 95.3218, 28.8622 ], [ 95.3232, 28.8743 ], [ 95.3162, 28.886 ], [ 95.3259, 28.8944 ], [ 95.3252, 28.9065 ], [ 95.3182, 28.9098 ], [ 95.328, 28.9189 ], [ 95.3241, 28.9297 ], [ 95.3125, 28.9341 ], [ 95.3128, 28.94 ], [ 95.306, 28.9459 ], [ 95.307, 28.9543 ], [ 95.2997, 28.9567 ], [ 95.2834, 28.9466 ], [ 95.2728, 28.9452 ], [ 95.256, 28.9511 ], [ 95.2618, 28.9637 ], [ 95.2555, 28.9699 ], [ 95.2555, 28.9806 ], [ 95.245, 28.9875 ], [ 95.2436, 29.0007 ], [ 95.2519, 29.0033 ], [ 95.2655, 29.0249 ], [ 95.2779, 29.0325 ], [ 95.2756, 29.0439 ], [ 95.2688, 29.048 ], [ 95.2714, 29.0587 ], [ 95.2879, 29.0626 ], [ 95.3046, 29.0597 ], [ 95.3481, 29.0411 ], [ 95.3987, 29.0312 ], [ 95.4107, 29.0305 ], [ 95.4212, 29.0414 ], [ 95.4403, 29.0366 ], [ 95.4665, 29.0665 ], [ 95.4772, 29.0871 ], [ 95.481, 29.1431 ], [ 95.4967, 29.1423 ], [ 95.5307, 29.1305 ], [ 95.5367, 29.1692 ], [ 95.5269, 29.2157 ], [ 95.5637, 29.2167 ], [ 95.5722, 29.2228 ], [ 95.5781, 29.2539 ], [ 95.583, 29.2606 ], [ 95.5972, 29.2598 ], [ 95.6193, 29.2497 ], [ 95.6315, 29.26 ], [ 95.6598, 29.2716 ], [ 95.689, 29.3046 ], [ 95.7056, 29.3045 ], [ 95.721, 29.3127 ], [ 95.7372, 29.3319 ], [ 95.7595, 29.3468 ], [ 95.7657, 29.3564 ], [ 95.7769, 29.3617 ], [ 95.7821, 29.3414 ], [ 95.8027, 29.3494 ], [ 95.8111, 29.3596 ], [ 95.831, 29.3588 ], [ 95.8617, 29.3951 ], [ 95.9197, 29.3871 ], [ 95.9418, 29.3877 ], [ 95.9767, 29.4135 ], [ 96.0088, 29.4277 ], [ 96.0306, 29.4533 ], [ 96.0428, 29.4607 ], [ 96.0673, 29.4659 ], [ 96.0812, 29.4611 ], [ 96.1208, 29.4141 ], [ 96.1406, 29.4021 ], [ 96.1535, 29.3738 ], [ 96.1765, 29.3452 ], [ 96.1785, 29.3372 ], [ 96.1745, 29.323 ], [ 96.1799, 29.3075 ], [ 96.2237, 29.2512 ], [ 96.2355, 29.2419 ], [ 96.2541, 29.2394 ], [ 96.2896, 29.2446 ], [ 96.2953, 29.2547 ], [ 96.3094, 29.2643 ], [ 96.3405, 29.274 ], [ 96.3465, 29.2893 ], [ 96.3543, 29.2921 ], [ 96.3638, 29.2916 ], [ 96.3696, 29.2873 ], [ 96.3791, 29.2671 ], [ 96.3791, 29.2435 ], [ 96.3653, 29.2252 ], [ 96.3502, 29.1845 ], [ 96.342, 29.1784 ], [ 96.3163, 29.1706 ], [ 96.245, 29.1658 ], [ 96.2325, 29.152 ], [ 96.2105, 29.1481 ], [ 96.1916, 29.1159 ], [ 96.1736, 29.0992 ], [ 96.1561, 29.0918 ], [ 96.1021, 29.079 ], [ 96.1288, 29.0705 ], [ 96.1409, 29.0583 ], [ 96.1715, 28.9992 ], [ 96.1718, 28.9698 ], [ 96.1423, 28.9567 ], [ 96.1404, 28.9424 ], [ 96.1349, 28.9352 ], [ 96.1554, 28.9179 ], [ 96.1609, 28.8978 ], [ 96.1683, 28.8987 ], [ 96.2114, 28.928 ], [ 96.2202, 28.9298 ], [ 96.294, 29.0081 ], [ 96.3269, 29.028 ], [ 96.3565, 29.037 ], [ 96.4231, 29.0375 ], [ 96.4537, 29.0491 ], [ 96.4771, 29.0631 ], [ 96.5136, 29.074 ], [ 96.4659, 28.9953 ], [ 96.4647, 28.9831 ], [ 96.4694, 28.9712 ], [ 96.4812, 28.9585 ], [ 96.5094, 28.9664 ], [ 96.508, 28.9518 ], [ 96.5301, 28.9102 ], [ 96.5261, 28.8825 ], [ 96.5569, 28.8414 ], [ 96.6032, 28.793 ], [ 96.609, 28.7798 ], [ 96.6101, 28.7669 ], [ 96.6042, 28.7444 ], [ 96.5925, 28.7246 ], [ 96.5793, 28.7116 ], [ 96.5557, 28.7012 ], [ 96.525, 28.7011 ], [ 96.5074, 28.6956 ], [ 96.491, 28.6844 ], [ 96.4706, 28.6788 ], [ 96.4669, 28.6752 ], [ 96.4825, 28.6532 ], [ 96.4873, 28.6334 ], [ 96.4297, 28.591 ], [ 96.4248, 28.5821 ], [ 96.402, 28.5809 ], [ 96.4, 28.5593 ], [ 96.3917, 28.5558 ], [ 96.3448, 28.554 ], [ 96.3186, 28.526 ], [ 96.3277, 28.5185 ] ] ] } },
{ "type": "Feature", "properties": { "unit_id": "Z07.3.9.1_1", "name": "None", "district": "Lower Dibang Valley", "did": "arunachal_pradesh:Lower Dibang Valley", "state_key": "arunachal_pradesh" }, "geometry": { "type": "Polygon", "coordinates": [ [ [ 96.2905, 28.3446 ], [ 96.2668, 28.3303 ], [ 96.2553, 28.3091 ], [ 96.2382, 28.2995 ], [ 96.2679, 28.2389 ], [ 96.2302, 28.2387 ], [ 96.2155, 28.2309 ], [ 96.1905, 28.2066 ], [ 96.1747, 28.1966 ], [ 96.1684, 28.187 ], [ 96.1439, 28.1752 ], [ 96.142, 28.1699 ], [ 96.1177, 28.1779 ], [ 96.1046, 28.1896 ], [ 96.0828, 28.1893 ], [ 96.0517, 28.1972 ], [ 96.0467, 28.1715 ], [ 96.0383, 28.1625 ], [ 96.0303, 28.1601 ], [ 96.0328, 28.147 ], [ 96.0254, 28.1299 ], [ 96.0099, 28.1177 ], [ 96.0017, 28.0955 ], [ 95.9799, 28.0721 ], [ 95.9934, 28.0523 ], [ 95.9937, 28.0421 ], [ 95.9875, 28.0004 ], [ 95.9913, 27.9747 ], [ 95.9831, 27.9667 ], [ 95.9718, 27.9622 ], [ 95.8239, 27.9715 ], [ 95.6053, 27.9546 ], [ 95.5861, 27.9367 ], [ 95.576, 27.9397 ], [ 95.5686, 27.9359 ], [ 95.5635, 27.9193 ], [ 95.5447, 27.9108 ], [ 95.5443, 27.8998 ], [ 95.5399, 27.8965 ], [ 95.534, 27.8981 ], [ 95.5223, 27.883 ], [ 95.5154, 27.8797 ], [ 95.5183, 27.8863 ], [ 95.5147, 27.912 ], [ 95.4987, 27.9462 ], [ 95.5, 27.9518 ], [ 95.5067, 27.9686 ], [ 95.5334, 27.9902 ], [ 95.5442, 28.018 ], [ 95.5582, 28.0353 ], [ 95.5675, 28.0785 ], [ 95.5692, 28.1313 ], [ 95.5596, 28.168 ], [ 95.5637, 28.2549 ], [ 95.552, 28.2642 ], [ 95.5485, 28.2754 ], [ 95.5417, 28.2753 ], [ 95.5354, 28.2862 ], [ 95.5116, 28.274 ], [ 95.4858, 28.2722 ], [ 95.4655, 28.2592 ], [ 95.4612, 28.2651 ], [ 95.4604, 28.2788 ], [ 95.4497, 28.2897 ], [ 95.4458, 28.3045 ], [ 95.435, 28.3145 ], [ 95.3971, 28.3148 ], [ 95.3852, 28.308 ], [ 95.3751, 28.3196 ], [ 95.3766, 28.3338 ], [ 95.3695, 28.339 ], [ 95.3685, 28.3566 ], [ 95.3379, 28.3658 ], [ 95.3379, 28.4059 ], [ 95.32, 28.4258 ], [ 95.3387, 28.4389 ], [ 95.3346, 28.4522 ], [ 95.3366, 28.4769 ], [ 95.3531, 28.4901 ], [ 95.366, 28.492 ], [ 95.3768, 28.5082 ], [ 95.3926, 28.5122 ], [ 95.3926, 28.5291 ], [ 95.4113, 28.5508 ], [ 95.4268, 28.5452 ], [ 95.4478, 28.5556 ], [ 95.4586, 28.5487 ], [ 95.4595, 28.5416 ], [ 95.4675, 28.5367 ], [ 95.4765, 28.5373 ], [ 95.4937, 28.531 ], [ 95.4999, 28.5186 ], [ 95.5157, 28.5216 ], [ 95.5216, 28.5181 ], [ 95.5259, 28.5128 ], [ 95.5233, 28.5036 ], [ 95.5393, 28.496 ], [ 95.5606, 28.5052 ], [ 95.5891, 28.4846 ], [ 95.59, 28.4675 ], [ 95.5767, 28.4519 ], [ 95.5813, 28.4323 ], [ 95.5759, 28.4299 ], [ 95.5637, 28.4061 ], [ 95.5642, 28.3997 ], [ 95.5685, 28.4 ], [ 95.5733, 28.3904 ], [ 95.5875, 28.3817 ], [ 95.5854, 28.3738 ], [ 95.5906, 28.3712 ], [ 95.6052, 28.3783 ], [ 95.6085, 28.3748 ], [ 95.6265, 28.3793 ], [ 95.6358, 28.374 ], [ 95.6389, 28.3677 ], [ 95.6623, 28.3669 ], [ 95.679, 28.3706 ], [ 95.6922, 28.3597 ], [ 95.6907, 28.3505 ], [ 95.6944, 28.343 ], [ 95.7066, 28.3474 ], [ 95.7356, 28.341 ], [ 95.7374, 28.3282 ], [ 95.7476, 28.3191 ], [ 95.756, 28.3287 ], [ 95.7762, 28.3269 ], [ 95.7716, 28.3656 ], [ 95.765, 28.3789 ], [ 95.7757, 28.3857 ], [ 95.7823, 28.3974 ], [ 95.8016, 28.4088 ], [ 95.8167, 28.4272 ], [ 95.8509, 28.434 ], [ 95.8706, 28.4303 ], [ 95.8715, 28.4254 ], [ 95.8845, 28.4214 ], [ 95.89, 28.412 ], [ 95.8983, 28.4101 ], [ 95.8961, 28.4004 ], [ 95.905, 28.3962 ], [ 95.9138, 28.3976 ], [ 95.9354, 28.3835 ], [ 95.9476, 28.3838 ], [ 95.9589, 28.3915 ], [ 95.9686, 28.3909 ], [ 95.9758, 28.4 ], [ 95.9923, 28.4055 ], [ 95.9983, 28.4028 ], [ 96.0025, 28.4076 ], [ 96.0116, 28.4082 ], [ 96.0212, 28.4211 ], [ 96.0362, 28.4243 ], [ 96.041, 28.4531 ], [ 96.0521, 28.4652 ], [ 96.0578, 28.4833 ], [ 96.064, 28.4882 ], [ 96.0844, 28.4889 ], [ 96.108, 28.4814 ], [ 96.1159, 28.487 ], [ 96.1186, 28.5044 ], [ 96.1249, 28.5055 ], [ 96.1275, 28.5106 ], [ 96.1551, 28.5137 ], [ 96.1618, 28.5105 ], [ 96.168, 28.5133 ], [ 96.1693, 28.5186 ], [ 96.1635, 28.5254 ], [ 96.1667, 28.5344 ], [ 96.1707, 28.5343 ], [ 96.2153, 28.5204 ], [ 96.2341, 28.5017 ], [ 96.2353, 28.4962 ], [ 96.24, 28.4975 ], [ 96.2564, 28.4907 ], [ 96.2939, 28.498 ], [ 96.3033, 28.4921 ], [ 96.302, 28.4805 ], [ 96.3103, 28.4706 ], [ 96.3244, 28.4899 ], [ 96.3277, 28.5185 ], [ 96.3515, 28.5038 ], [ 96.3601, 28.4938 ], [ 96.3621, 28.4803 ], [ 96.3495, 28.4673 ], [ 96.2534, 28.407 ], [ 96.2906, 28.3997 ], [ 96.301, 28.3928 ], [ 96.3072, 28.3825 ], [ 96.2965, 28.3666 ], [ 96.2905, 28.3446 ] ] ] } },
{ "type": "Feature", "properties": { "unit_id": "IND.3.7.1_1", "name": "None", "district": "Namsai", "did": "arunachal_pradesh:Namsai", "state_key": "arunachal_pradesh" }, "geometry": { "type": "Polygon", "coordinates": [ [ [ 96.289, 27.5554 ], [ 96.2685, 27.5578 ], [ 96.2643, 27.5633 ], [ 96.2427, 27.5636 ], [ 96.2248, 27.5682 ], [ 96.2158, 27.5772 ], [ 96.1969, 27.5831 ], [ 96.1924, 27.5883 ], [ 96.1818, 27.5901 ], [ 96.17, 27.5979 ], [ 96.1402, 27.6071 ], [ 96.1328, 27.6064 ], [ 96.1332, 27.6151 ], [ 96.1258, 27.6196 ], [ 96.0615, 27.6063 ], [ 96.0535, 27.5929 ], [ 96.0019, 27.5567 ], [ 95.9987, 27.5596 ], [ 95.8737, 27.547 ], [ 95.8609, 27.5431 ], [ 95.8413, 27.5621 ], [ 95.8334, 27.56 ], [ 95.8234, 27.5745 ], [ 95.8143, 27.5742 ], [ 95.8119, 27.5832 ], [ 95.8177, 27.597 ], [ 95.8056, 27.6009 ], [ 95.7925, 27.5979 ], [ 95.7903, 27.6118 ], [ 95.7785, 27.6189 ], [ 95.7792, 27.6255 ], [ 95.7895, 27.6263 ], [ 95.7883, 27.6348 ], [ 95.796, 27.6379 ], [ 95.7958, 27.6417 ], [ 95.7743, 27.6508 ], [ 95.7704, 27.6579 ], [ 95.7751, 27.6743 ], [ 95.7905, 27.6801 ], [ 95.7829, 27.6872 ], [ 95.7733, 27.6849 ], [ 95.7676, 27.6873 ], [ 95.7638, 27.6938 ], [ 95.768, 27.7021 ], [ 95.7629, 27.709 ], [ 95.7654, 27.7147 ], [ 95.7537, 27.7187 ], [ 95.7525, 27.7242 ], [ 95.8048, 27.736 ], [ 95.8291, 27.7532 ], [ 95.8976, 27.7903 ], [ 96.0232, 27.8502 ], [ 96.0489, 27.8502 ], [ 96.2079, 27.8775 ], [ 96.2734, 27.7878 ], [ 96.2751, 27.7795 ], [ 96.2609, 27.7194 ], [ 96.27, 27.6867 ], [ 96.27, 27.6516 ], [ 96.292, 27.6278 ], [ 96.2855, 27.5951 ], [ 96.3117, 27.5698 ], [ 96.289, 27.5554 ] ] ] } },
{ "type": "Feature", "properties": { "unit_id": "IND.3.7.1_1", "name": "None", "district": "Lohit", "did": "arunachal_pradesh:Lohit", "state_key": "arunachal_pradesh" }, "geometry": { "type": "Polygon", "coordinates": [ [ [ 96.3679, 28.3453 ], [ 96.3846, 28.2989 ], [ 96.38, 28.2912 ], [ 96.3806, 28.275 ], [ 96.3727, 28.2699 ], [ 96.3685, 28.2544 ], [ 96.38, 28.2391 ], [ 96.3884, 28.2355 ], [ 96.3953, 28.2158 ], [ 96.3943, 28.2035 ], [ 96.4162, 28.1796 ], [ 96.418, 28.1688 ], [ 96.3895, 28.1526 ], [ 96.3918, 28.1396 ], [ 96.3876, 28.133 ], [ 96.3888, 28.1267 ], [ 96.3677, 28.1194 ], [ 96.3672, 28.0988 ], [ 96.3625, 28.0933 ], [ 96.3736, 28.0794 ], [ 96.3862, 28.0475 ], [ 96.3849, 28.0345 ], [ 96.3772, 28.0255 ], [ 96.3768, 28.0075 ], [ 96.3628, 28.0006 ], [ 96.3796, 27.9906 ], [ 96.3927, 27.9878 ], [ 96.3916, 27.9788 ], [ 96.408, 27.9673 ], [ 96.4095, 27.9551 ], [ 96.4172, 27.9429 ], [ 96.4145, 27.9358 ], [ 96.4277, 27.9166 ], [ 96.4395, 27.9184 ], [ 96.449, 27.9096 ], [ 96.4655, 27.9031 ], [ 96.471, 27.9056 ], [ 96.4752, 27.903 ], [ 96.5036, 27.9043 ], [ 96.5179, 27.8954 ], [ 96.528, 27.9001 ], [ 96.5468, 27.9014 ], [ 96.5523, 27.9139 ], [ 96.5595, 27.9122 ], [ 96.5821, 27.9207 ], [ 96.5883, 27.9119 ], [ 96.5986, 27.9092 ], [ 96.6165, 27.8934 ], [ 96.6181, 27.8821 ], [ 96.6351, 27.88 ], [ 96.6624, 27.8665 ], [ 96.6727, 27.8503 ], [ 96.6791, 27.8476 ], [ 96.6811, 27.8298 ], [ 96.7105, 27.8244 ], [ 96.7122, 27.8 ], [ 96.7191, 27.7842 ], [ 96.7015, 27.7768 ], [ 96.7105, 27.7657 ], [ 96.6963, 27.7449 ], [ 96.7114, 27.7226 ], [ 96.7112, 27.7125 ], [ 96.7165, 27.7034 ], [ 96.7069, 27.6824 ], [ 96.7083, 27.6749 ], [ 96.6992, 27.6639 ], [ 96.7015, 27.661 ], [ 96.6823, 27.6547 ], [ 96.6692, 27.6473 ], [ 96.6582, 27.6337 ], [ 96.6408, 27.6279 ], [ 96.6139, 27.6381 ], [ 96.6089, 27.6466 ], [ 96.6036, 27.6467 ], [ 96.5963, 27.654 ], [ 96.5821, 27.6561 ], [ 96.5665, 27.6568 ], [ 96.5496, 27.6468 ], [ 96.5307, 27.6467 ], [ 96.5192, 27.6366 ], [ 96.5086, 27.6431 ], [ 96.4803, 27.646 ], [ 96.4525, 27.6411 ], [ 96.4441, 27.6521 ], [ 96.4398, 27.6524 ], [ 96.4227, 27.6484 ], [ 96.413, 27.6512 ], [ 96.3941, 27.6487 ], [ 96.3838, 27.6388 ], [ 96.3728, 27.645 ], [ 96.3519, 27.6245 ], [ 96.3484, 27.6061 ], [ 96.3363, 27.5984 ], [ 96.3277, 27.5792 ], [ 96.3117, 27.5698 ], [ 96.2855, 27.5951 ], [ 96.292, 27.6278 ], [ 96.27, 27.6516 ], [ 96.27, 27.6867 ], [ 96.2609, 27.7194 ], [ 96.2751, 27.7795 ], [ 96.2734, 27.7878 ], [ 96.2079, 27.8775 ], [ 96.0489, 27.8502 ], [ 96.0232, 27.8502 ], [ 95.8976, 27.7903 ], [ 95.8291, 27.7532 ], [ 95.8048, 27.736 ], [ 95.7743, 27.7309 ], [ 95.7805, 27.7363 ], [ 95.776, 27.7536 ], [ 95.8003, 27.7737 ], [ 95.8117, 27.7976 ], [ 95.8249, 27.8079 ], [ 95.8377, 27.8098 ], [ 95.8378, 27.8241 ], [ 95.8714, 27.8335 ], [ 95.8837, 27.8461 ], [ 95.8903, 27.86 ], [ 95.8953, 27.8574 ], [ 95.8948, 27.862 ], [ 95.9049, 27.8621 ], [ 95.9017, 27.8685 ], [ 95.9066, 27.866 ], [ 95.9073, 27.8704 ], [ 95.9107, 27.8702 ], [ 95.9156, 27.8838 ], [ 95.9194, 27.8806 ], [ 95.9251, 27.8817 ], [ 95.9168, 27.885 ], [ 95.9155, 27.8894 ], [ 95.9237, 27.8881 ], [ 95.9192, 27.895 ], [ 95.926, 27.8953 ], [ 95.9263, 27.8989 ], [ 95.9285, 27.8951 ], [ 95.9377, 27.8982 ], [ 95.9298, 27.9027 ], [ 95.941, 27.9056 ], [ 95.9355, 27.9075 ], [ 95.9382, 27.9125 ], [ 95.9427, 27.9107 ], [ 95.9529, 27.9204 ], [ 95.9486, 27.9244 ], [ 95.9548, 27.9312 ], [ 95.9492, 27.9312 ], [ 95.9483, 27.9371 ], [ 95.9718, 27.9622 ], [ 95.9913, 27.9747 ], [ 95.9875, 28.0004 ], [ 95.9934, 28.0523 ], [ 95.9799, 28.0721 ], [ 96.0017, 28.0955 ], [ 96.0099, 28.1177 ], [ 96.0254, 28.1299 ], [ 96.0328, 28.147 ], [ 96.0303, 28.1601 ], [ 96.0383, 28.1625 ], [ 96.0467, 28.1715 ], [ 96.0517, 28.1972 ], [ 96.0828, 28.1893 ], [ 96.1046, 28.1896 ], [ 96.1177, 28.1779 ], [ 96.142, 28.1699 ], [ 96.1439, 28.1752 ], [ 96.1684, 28.187 ], [ 96.1747, 28.1966 ], [ 96.1905, 28.2066 ], [ 96.2155, 28.2309 ], [ 96.2302, 28.2387 ], [ 96.2679, 28.2389 ], [ 96.2382, 28.2995 ], [ 96.2553, 28.3091 ], [ 96.2668, 28.3303 ], [ 96.2905, 28.3446 ], [ 96.2965, 28.3666 ], [ 96.3072, 28.3825 ], [ 96.3167, 28.3776 ], [ 96.3626, 28.3864 ], [ 96.3689, 28.3789 ], [ 96.3719, 28.3616 ], [ 96.3679, 28.3453 ] ] ] } },
{ "type": "Feature", "properties": { "unit_id": "Z07.3.1.1_1", "name": "None", "district": "Anjaw", "did": "arunachal_pradesh:Anjaw", "state_key": "arunachal_pradesh" }, "geometry": { "type": "Polygon", "coordinates": [ [ [ 96.8512, 28.3633 ], [ 96.8636, 28.3716 ], [ 96.8897, 28.3785 ], [ 96.904, 28.3692 ], [ 96.9258, 28.3369 ], [ 96.9532, 28.3284 ], [ 96.9788, 28.314 ], [ 96.9876, 28.3033 ], [ 97.0118, 28.3103 ], [ 97.0479, 28.339 ], [ 97.0648, 28.342 ], [ 97.0753, 28.3496 ], [ 97.1057, 28.347 ], [ 97.1405, 28.3276 ], [ 97.1711, 28.2857 ], [ 97.1837, 28.2836 ], [ 97.2093, 28.2876 ], [ 97.2267, 28.2846 ], [ 97.2304, 28.2739 ], [ 97.2395, 28.2682 ], [ 97.2953, 28.2619 ], [ 97.3366, 28.2364 ], [ 97.3784, 28.2178 ], [ 97.401, 28.1923 ], [ 97.4028, 28.1819 ], [ 97.3638, 28.1891 ], [ 97.3566, 28.1725 ], [ 97.3279, 28.1502 ], [ 97.3244, 28.1375 ], [ 97.3472, 28.1105 ], [ 97.3226, 28.0921 ], [ 97.3104, 28.0745 ], [ 97.3175, 28.0579 ], [ 97.3258, 28.0527 ], [ 97.3809, 28.0593 ], [ 97.3757, 28.0402 ], [ 97.3871, 28.0295 ], [ 97.3974, 28.029 ], [ 97.4038, 28.0246 ], [ 97.4129, 28.0148 ], [ 97.4101, 28.0052 ], [ 97.3926, 28.001 ], [ 97.3913, 27.9889 ], [ 97.373, 27.968 ], [ 97.3824, 27.951 ], [ 97.3764, 27.9329 ], [ 97.3807, 27.9248 ], [ 97.3773, 27.9135 ], [ 97.3798, 27.8971 ], [ 97.3736, 27.8802 ], [ 97.3571, 27.8789 ], [ 97.3253, 27.896 ], [ 97.3158, 27.9034 ], [ 97.3132, 27.9138 ], [ 97.309, 27.915 ], [ 97.249, 27.8993 ], [ 97.2196, 27.8637 ], [ 97.1885, 27.8436 ], [ 97.1646, 27.8106 ], [ 97.1457, 27.8046 ], [ 97.1325, 27.7877 ], [ 97.1191, 27.7834 ], [ 97.1134, 27.7743 ], [ 97.104, 27.7697 ], [ 97.0938, 27.7401 ], [ 97.0849, 27.7386 ], [ 97.0695, 27.747 ], [ 97.056, 27.7419 ], [ 97.0426, 27.7466 ], [ 96.9979, 27.6918 ], [ 96.9831, 27.6643 ], [ 96.9417, 27.6607 ], [ 96.9168, 27.6251 ], [ 96.9002, 27.6147 ], [ 96.8614, 27.6309 ], [ 96.8489, 27.624 ], [ 96.826, 27.6327 ], [ 96.8024, 27.6325 ], [ 96.7827, 27.6425 ], [ 96.7684, 27.6161 ], [ 96.7565, 27.6213 ], [ 96.727, 27.6473 ], [ 96.7056, 27.6507 ], [ 96.6992, 27.6639 ], [ 96.7083, 27.6749 ], [ 96.7069, 27.6824 ], [ 96.7164, 27.7041 ], [ 96.7112, 27.7125 ], [ 96.7114, 27.7226 ], [ 96.6963, 27.7449 ], [ 96.7105, 27.7657 ], [ 96.7015, 27.7768 ], [ 96.7191, 27.7842 ], [ 96.7122, 27.8 ], [ 96.7105, 27.8244 ], [ 96.6811, 27.8298 ], [ 96.6791, 27.8476 ], [ 96.6727, 27.8503 ], [ 96.6624, 27.8665 ], [ 96.6351, 27.88 ], [ 96.6181, 27.8821 ], [ 96.6165, 27.8934 ], [ 96.5986, 27.9092 ], [ 96.5883, 27.9119 ], [ 96.5821, 27.9207 ], [ 96.5595, 27.9122 ], [ 96.5523, 27.9139 ], [ 96.5468, 27.9014 ], [ 96.528, 27.9001 ], [ 96.5179, 27.8954 ], [ 96.5036, 27.9043 ], [ 96.4752, 27.903 ], [ 96.471, 27.9056 ], [ 96.4655, 27.9031 ], [ 96.449, 27.9096 ], [ 96.4395, 27.9184 ], [ 96.4277, 27.9166 ], [ 96.4145, 27.9358 ], [ 96.4172, 27.9429 ], [ 96.4095, 27.9551 ], [ 96.408, 27.9673 ], [ 96.3916, 27.9788 ], [ 96.3927, 27.9878 ], [ 96.3796, 27.9906 ], [ 96.3628, 28.0006 ], [ 96.3768, 28.0075 ], [ 96.3772, 28.0255 ], [ 96.3849, 28.0345 ], [ 96.3862, 28.0475 ], [ 96.3736, 28.0794 ], [ 96.3625, 28.0933 ], [ 96.3672, 28.0988 ], [ 96.3677, 28.1194 ], [ 96.3888, 28.1267 ], [ 96.3876, 28.133 ], [ 96.3918, 28.1396 ], [ 96.3895, 28.1526 ], [ 96.418, 28.1688 ], [ 96.4162, 28.1796 ], [ 96.3943, 28.2035 ], [ 96.3953, 28.2158 ], [ 96.3884, 28.2355 ], [ 96.38, 28.2391 ], [ 96.3685, 28.2544 ], [ 96.3727, 28.2699 ], [ 96.3806, 28.275 ], [ 96.38, 28.2912 ], [ 96.3846, 28.2989 ], [ 96.3679, 28.3453 ], [ 96.3719, 28.3616 ], [ 96.3955, 28.3359 ], [ 96.4174, 28.3409 ], [ 96.4236, 28.3512 ], [ 96.4277, 28.3756 ], [ 96.4571, 28.4138 ], [ 96.4713, 28.4158 ], [ 96.5054, 28.411 ], [ 96.5707, 28.4523 ], [ 96.6411, 28.4578 ], [ 96.6582, 28.4527 ], [ 96.6818, 28.4356 ], [ 96.7273, 28.4221 ], [ 96.7408, 28.4138 ], [ 96.7568, 28.3999 ], [ 96.7615, 28.3746 ], [ 96.7703, 28.367 ], [ 96.835, 28.3608 ], [ 96.8512, 28.3633 ] ] ] } },
{ "type": "Feature", "properties": { "unit_id": "IND.3.2.1_1", "name": "None", "district": "Changlang", "did": "arunachal_pradesh:Changlang", "state_key": "arunachal_pradesh" }, "geometry": { "type": "Polygon", "coordinates": [ [ [ 96.727, 27.6473 ], [ 96.7565, 27.6213 ], [ 96.7684, 27.6161 ], [ 96.7827, 27.6425 ], [ 96.8024, 27.6325 ], [ 96.826, 27.6327 ], [ 96.8489, 27.624 ], [ 96.8614, 27.6309 ], [ 96.9002, 27.6147 ], [ 96.8967, 27.6093 ], [ 96.8967, 27.5815 ], [ 96.9122, 27.5805 ], [ 96.913, 27.5439 ], [ 96.9298, 27.5242 ], [ 96.9283, 27.5116 ], [ 96.9071, 27.4776 ], [ 96.9032, 27.4527 ], [ 96.9163, 27.4464 ], [ 96.9326, 27.4309 ], [ 96.9344, 27.4158 ], [ 96.9623, 27.4016 ], [ 96.9603, 27.3943 ], [ 96.9675, 27.3815 ], [ 96.9621, 27.3731 ], [ 96.9785, 27.3566 ], [ 96.9807, 27.3455 ], [ 96.9905, 27.3438 ], [ 96.9981, 27.319 ], [ 97.0092, 27.3105 ], [ 97.0153, 27.3131 ], [ 97.0222, 27.307 ], [ 97.0283, 27.3079 ], [ 97.0411, 27.2822 ], [ 97.0548, 27.2751 ], [ 97.0549, 27.2657 ], [ 97.0689, 27.2572 ], [ 97.074, 27.2468 ], [ 97.0885, 27.2382 ], [ 97.0927, 27.226 ], [ 97.0905, 27.2136 ], [ 97.1221, 27.1899 ], [ 97.1245, 27.1743 ], [ 97.1386, 27.1641 ], [ 97.1467, 27.1649 ], [ 97.1509, 27.1498 ], [ 97.1639, 27.1422 ], [ 97.1659, 27.1351 ], [ 97.1618, 27.1229 ], [ 97.1497, 27.1168 ], [ 97.1485, 27.1072 ], [ 97.1385, 27.091 ], [ 97.1246, 27.0957 ], [ 97.1193, 27.1039 ], [ 97.1064, 27.1039 ], [ 97.1003, 27.1084 ], [ 97.0949, 27.1035 ], [ 97.0963, 27.0959 ], [ 97.0872, 27.0948 ], [ 97.0767, 27.0987 ], [ 97.0712, 27.0892 ], [ 97.0634, 27.0915 ], [ 97.0622, 27.0986 ], [ 97.0446, 27.1079 ], [ 97.0407, 27.1162 ], [ 97.0335, 27.1183 ], [ 97.036, 27.1243 ], [ 97.0303, 27.1315 ], [ 97.026, 27.1295 ], [ 97.0053, 27.1409 ], [ 96.9933, 27.14 ], [ 96.9848, 27.1543 ], [ 96.965, 27.158 ], [ 96.9553, 27.1644 ], [ 96.932, 27.1616 ], [ 96.9011, 27.1687 ], [ 96.8575, 27.1923 ], [ 96.8588, 27.2032 ], [ 96.8549, 27.2104 ], [ 96.8608, 27.2107 ], [ 96.8852, 27.2265 ], [ 96.8877, 27.2357 ], [ 96.8814, 27.2393 ], [ 96.8877, 27.2467 ], [ 96.8849, 27.2594 ], [ 96.8626, 27.2596 ], [ 96.847, 27.2711 ], [ 96.8502, 27.2783 ], [ 96.848, 27.2903 ], [ 96.8349, 27.3029 ], [ 96.8224, 27.3082 ], [ 96.7965, 27.3457 ], [ 96.7891, 27.3457 ], [ 96.7669, 27.3571 ], [ 96.7517, 27.3523 ], [ 96.7458, 27.3582 ], [ 96.7299, 27.3594 ], [ 96.7045, 27.3721 ], [ 96.7021, 27.3597 ], [ 96.6975, 27.3577 ], [ 96.6753, 27.3613 ], [ 96.6724, 27.357 ], [ 96.6609, 27.3643 ], [ 96.6477, 27.3592 ], [ 96.6246, 27.3666 ], [ 96.6061, 27.3658 ], [ 96.6004, 27.355 ], [ 96.5913, 27.3484 ], [ 96.5957, 27.3339 ], [ 96.5841, 27.3341 ], [ 96.5641, 27.3185 ], [ 96.5512, 27.3185 ], [ 96.5505, 27.3129 ], [ 96.5425, 27.309 ], [ 96.5427, 27.3021 ], [ 96.5314, 27.2966 ], [ 96.5239, 27.2865 ], [ 96.5178, 27.2856 ], [ 96.5081, 27.2991 ], [ 96.4906, 27.3026 ], [ 96.4886, 27.2963 ], [ 96.4574, 27.3066 ], [ 96.4512, 27.3014 ], [ 96.4441, 27.3019 ], [ 96.4406, 27.3063 ], [ 96.4355, 27.3024 ], [ 96.4218, 27.3017 ], [ 96.408, 27.2877 ], [ 96.4029, 27.2932 ], [ 96.3868, 27.2846 ], [ 96.375, 27.2853 ], [ 96.3702, 27.29 ], [ 96.3672, 27.2868 ], [ 96.3525, 27.2951 ], [ 96.3459, 27.2855 ], [ 96.3397, 27.285 ], [ 96.3063, 27.2941 ], [ 96.2746, 27.2834 ], [ 96.2714, 27.2717 ], [ 96.2556, 27.2747 ], [ 96.248, 27.2726 ], [ 96.2454, 27.2764 ], [ 96.228, 27.2787 ], [ 96.209, 27.2611 ], [ 96.1936, 27.2615 ], [ 96.1853, 27.2489 ], [ 96.1556, 27.2484 ], [ 96.1211, 27.2316 ], [ 96.1119, 27.2318 ], [ 96.0996, 27.2243 ], [ 96.0906, 27.2233 ], [ 96.0774, 27.2084 ], [ 96.0641, 27.2059 ], [ 96.0543, 27.196 ], [ 96.023, 27.1801 ], [ 96.0105, 27.1422 ], [ 95.9986, 27.135 ], [ 95.9857, 27.1131 ], [ 95.9686, 27.0999 ], [ 95.946, 27.0516 ], [ 95.911, 27.0367 ], [ 95.9042, 27.0387 ], [ 95.8949, 27.026 ], [ 95.8791, 27.0229 ], [ 95.8758, 27.0144 ], [ 95.8701, 27.0127 ], [ 95.8425, 27.0139 ], [ 95.8301, 27.0075 ], [ 95.8121, 27.0146 ], [ 95.802, 27.0145 ], [ 95.8022, 27.0065 ], [ 95.7963, 26.9977 ], [ 95.7834, 26.9901 ], [ 95.7811, 26.9778 ], [ 95.7681, 26.9765 ], [ 95.7591, 26.9546 ], [ 95.755, 26.9538 ], [ 95.7601, 26.9368 ], [ 95.7479, 26.9258 ], [ 95.7467, 26.9163 ], [ 95.7513, 26.909 ], [ 95.7468, 26.9041 ], [ 95.7075, 26.9298 ], [ 95.6484, 26.9509 ], [ 95.6491, 26.957 ], [ 95.7303, 26.9666 ], [ 95.7329, 26.9729 ], [ 95.716, 26.9946 ], [ 95.7034, 27.0363 ], [ 95.6519, 27.1273 ], [ 95.6481, 27.1462 ], [ 95.6495, 27.1745 ], [ 95.6477, 27.1845 ], [ 95.6407, 27.193 ], [ 95.641, 27.2087 ], [ 95.6339, 27.2303 ], [ 95.6815, 27.2517 ], [ 95.6924, 27.2532 ], [ 95.7015, 27.2486 ], [ 95.712, 27.2528 ], [ 95.7202, 27.2495 ], [ 95.7271, 27.2596 ], [ 95.7347, 27.2604 ], [ 95.7421, 27.2667 ], [ 95.7796, 27.2698 ], [ 95.7879, 27.2786 ], [ 95.8009, 27.2843 ], [ 95.7994, 27.2766 ], [ 95.8055, 27.2758 ], [ 95.8052, 27.273 ], [ 95.8154, 27.2785 ], [ 95.8593, 27.2872 ], [ 95.8538, 27.2792 ], [ 95.8564, 27.2711 ], [ 95.8694, 27.26 ], [ 95.8924, 27.2553 ], [ 95.8936, 27.2676 ], [ 95.8995, 27.2687 ], [ 95.9001, 27.2743 ], [ 95.9044, 27.2739 ], [ 95.8972, 27.2822 ], [ 95.9061, 27.2822 ], [ 95.9072, 27.289 ], [ 95.96, 27.311 ], [ 95.955, 27.3177 ], [ 95.961, 27.3164 ], [ 95.9628, 27.3231 ], [ 95.9756, 27.3245 ], [ 95.9653, 27.3279 ], [ 95.9716, 27.3365 ], [ 95.9869, 27.3456 ], [ 95.9892, 27.3565 ], [ 96.0178, 27.3649 ], [ 96.0179, 27.3694 ], [ 95.9982, 27.3879 ], [ 95.9901, 27.4024 ], [ 95.9846, 27.4045 ], [ 95.9833, 27.4118 ], [ 95.9741, 27.4114 ], [ 95.9702, 27.4149 ], [ 95.9754, 27.4194 ], [ 95.9694, 27.4279 ], [ 95.9655, 27.427 ], [ 95.9646, 27.4181 ], [ 95.9618, 27.418 ], [ 95.9632, 27.4272 ], [ 95.9603, 27.429 ], [ 95.9547, 27.4196 ], [ 95.9452, 27.4266 ], [ 95.9474, 27.433 ], [ 95.9413, 27.4373 ], [ 95.9344, 27.4356 ], [ 95.9279, 27.4385 ], [ 95.908, 27.4343 ], [ 95.8987, 27.4129 ], [ 95.8857, 27.3982 ], [ 95.884, 27.4025 ], [ 95.8883, 27.409 ], [ 95.884, 27.414 ], [ 95.8832, 27.4353 ], [ 95.8757, 27.4348 ], [ 95.8709, 27.4264 ], [ 95.8571, 27.4199 ], [ 95.8624, 27.4115 ], [ 95.8601, 27.408 ], [ 95.8445, 27.4216 ], [ 95.8423, 27.4277 ], [ 95.8468, 27.4386 ], [ 95.8568, 27.4449 ], [ 95.8533, 27.4569 ], [ 95.8707, 27.4667 ], [ 95.8743, 27.4932 ], [ 95.8869, 27.4971 ], [ 95.8758, 27.5124 ], [ 95.8785, 27.5188 ], [ 95.8758, 27.5465 ], [ 95.9987, 27.5596 ], [ 96.0019, 27.5567 ], [ 96.0535, 27.5929 ], [ 96.0615, 27.6063 ], [ 96.1258, 27.6196 ], [ 96.1332, 27.6151 ], [ 96.1328, 27.6064 ], [ 96.1402, 27.6071 ], [ 96.17, 27.5979 ], [ 96.1818, 27.5901 ], [ 96.1924, 27.5883 ], [ 96.1969, 27.5831 ], [ 96.2158, 27.5772 ], [ 96.2248, 27.5682 ], [ 96.2427, 27.5636 ], [ 96.2643, 27.5633 ], [ 96.2685, 27.5578 ], [ 96.289, 27.5554 ], [ 96.3277, 27.5792 ], [ 96.3363, 27.5984 ], [ 96.3484, 27.6061 ], [ 96.3519, 27.6245 ], [ 96.3728, 27.645 ], [ 96.3838, 27.6388 ], [ 96.3941, 27.6487 ], [ 96.413, 27.6512 ], [ 96.4227, 27.6484 ], [ 96.4398, 27.6524 ], [ 96.4441, 27.6521 ], [ 96.4525, 27.6411 ], [ 96.4803, 27.646 ], [ 96.5086, 27.6431 ], [ 96.5192, 27.6366 ], [ 96.5307, 27.6467 ], [ 96.5496, 27.6468 ], [ 96.5665, 27.6568 ], [ 96.5821, 27.6561 ], [ 96.5963, 27.654 ], [ 96.6036, 27.6467 ], [ 96.6089, 27.6466 ], [ 96.6139, 27.6381 ], [ 96.6408, 27.6279 ], [ 96.6582, 27.6337 ], [ 96.6692, 27.6473 ], [ 96.6823, 27.6547 ], [ 96.7, 27.6605 ], [ 96.7056, 27.6507 ], [ 96.727, 27.6473 ] ] ] } },
{ "type": "Feature", "properties": { "unit_id": "IND.3.8.1_1", "name": "None", "district": "Longding", "did": "arunachal_pradesh:Longding", "state_key": "arunachal_pradesh" }, "geometry": { "type": "Polygon", "coordinates": [ [ [ 95.3703, 27.1016 ], [ 95.3704, 27.0941 ], [ 95.387, 27.0843 ], [ 95.3851, 27.0644 ], [ 95.3888, 27.0447 ], [ 95.3698, 27.0395 ], [ 95.3602, 27.0327 ], [ 95.3757, 27.0179 ], [ 95.3772, 27.0088 ], [ 95.3681, 26.9355 ], [ 95.3767, 26.9251 ], [ 95.3791, 26.9127 ], [ 95.4066, 26.8857 ], [ 95.414, 26.8857 ], [ 95.4404, 26.8672 ], [ 95.4718, 26.8679 ], [ 95.5048, 26.8767 ], [ 95.4965, 26.8178 ], [ 95.5057, 26.7996 ], [ 95.505, 26.7925 ], [ 95.4842, 26.7571 ], [ 95.4828, 26.7471 ], [ 95.4739, 26.7412 ], [ 95.4671, 26.7447 ], [ 95.4591, 26.7439 ], [ 95.4462, 26.7268 ], [ 95.4321, 26.7163 ], [ 95.4314, 26.7007 ], [ 95.4175, 26.6942 ], [ 95.403, 26.695 ], [ 95.3948, 26.6853 ], [ 95.3738, 26.6841 ], [ 95.3605, 26.671 ], [ 95.3467, 26.6753 ], [ 95.3358, 26.6745 ], [ 95.3264, 26.6645 ], [ 95.3136, 26.6627 ], [ 95.304, 26.651 ], [ 95.2743, 26.6586 ], [ 95.2595, 26.6553 ], [ 95.2571, 26.6762 ], [ 95.2492, 26.6837 ], [ 95.2322, 26.6822 ], [ 95.2324, 26.7062 ], [ 95.2125, 26.7294 ], [ 95.2174, 26.7415 ], [ 95.2165, 26.754 ], [ 95.2296, 26.7661 ], [ 95.2281, 26.7718 ], [ 95.2414, 26.7815 ], [ 95.2181, 26.7877 ], [ 95.2116, 26.7926 ], [ 95.2034, 26.8059 ], [ 95.1956, 26.8342 ], [ 95.2052, 26.845 ], [ 95.1922, 26.8439 ], [ 95.1811, 26.8592 ], [ 95.2031, 26.8722 ], [ 95.2095, 26.8799 ], [ 95.2266, 26.88 ], [ 95.2305, 26.8852 ], [ 95.2306, 26.9149 ], [ 95.2223, 26.9288 ], [ 95.2112, 26.9314 ], [ 95.206, 26.9511 ], [ 95.2102, 26.9532 ], [ 95.2035, 26.9571 ], [ 95.2118, 26.9648 ], [ 95.202, 26.9767 ], [ 95.2068, 26.9771 ], [ 95.192, 26.9845 ], [ 95.197, 27.0008 ], [ 95.1925, 27.0352 ], [ 95.1948, 27.0312 ], [ 95.1967, 27.037 ], [ 95.2047, 27.0377 ], [ 95.2107, 27.0285 ], [ 95.2235, 27.0361 ], [ 95.2303, 27.0357 ], [ 95.2322, 27.0428 ], [ 95.233, 27.0375 ], [ 95.2395, 27.0364 ], [ 95.2464, 27.0238 ], [ 95.259, 27.0303 ], [ 95.2601, 27.0355 ], [ 95.2771, 27.0424 ], [ 95.2763, 27.0522 ], [ 95.2918, 27.0665 ], [ 95.3548, 27.1039 ], [ 95.3687, 27.1071 ], [ 95.364, 27.1022 ], [ 95.3703, 27.1016 ] ] ] } },
{ "type": "Feature", "properties": { "unit_id": "IND.3.14.1_1", "name": "None", "district": "Tirap", "did": "arunachal_pradesh:Tirap", "state_key": "arunachal_pradesh" }, "geometry": { "type": "Polygon", "coordinates": [ [ [ 95.5454, 27.2599 ], [ 95.5543, 27.2485 ], [ 95.5742, 27.244 ], [ 95.5773, 27.2381 ], [ 95.5746, 27.2344 ], [ 95.5876, 27.2229 ], [ 95.6038, 27.2242 ], [ 95.619, 27.2325 ], [ 95.6339, 27.2304 ], [ 95.641, 27.2087 ], [ 95.6407, 27.193 ], [ 95.6477, 27.1845 ], [ 95.6495, 27.1745 ], [ 95.6481, 27.1462 ], [ 95.6519, 27.1273 ], [ 95.7034, 27.0363 ], [ 95.716, 26.9946 ], [ 95.7329, 26.9729 ], [ 95.7303, 26.9666 ], [ 95.6571, 26.9583 ], [ 95.647, 26.9542 ], [ 95.6532, 26.9482 ], [ 95.7075, 26.9298 ], [ 95.7263, 26.9192 ], [ 95.7467, 26.9012 ], [ 95.7448, 26.8962 ], [ 95.7343, 26.8938 ], [ 95.7162, 26.8785 ], [ 95.7062, 26.8806 ], [ 95.6948, 26.892 ], [ 95.667, 26.9029 ], [ 95.6467, 26.8845 ], [ 95.6446, 26.8764 ], [ 95.6319, 26.8736 ], [ 95.6342, 26.868 ], [ 95.6268, 26.862 ], [ 95.6295, 26.8577 ], [ 95.6273, 26.843 ], [ 95.6126, 26.8251 ], [ 95.6085, 26.8129 ], [ 95.6, 26.8115 ], [ 95.5864, 26.8172 ], [ 95.5705, 26.8159 ], [ 95.5569, 26.8326 ], [ 95.5431, 26.8354 ], [ 95.536, 26.8272 ], [ 95.5245, 26.8221 ], [ 95.5223, 26.8135 ], [ 95.5074, 26.8088 ], [ 95.5057, 26.7996 ], [ 95.4965, 26.8178 ], [ 95.5048, 26.8767 ], [ 95.4718, 26.8679 ], [ 95.4404, 26.8672 ], [ 95.414, 26.8857 ], [ 95.4066, 26.8857 ], [ 95.3791, 26.9127 ], [ 95.3767, 26.9251 ], [ 95.3681, 26.9355 ], [ 95.3772, 27.0088 ], [ 95.3757, 27.0179 ], [ 95.3602, 27.0327 ], [ 95.3698, 27.0395 ], [ 95.3888, 27.0447 ], [ 95.3851, 27.0644 ], [ 95.387, 27.0843 ], [ 95.3753, 27.0931 ], [ 95.383, 27.0982 ], [ 95.3838, 27.1048 ], [ 95.3985, 27.1087 ], [ 95.4206, 27.1258 ], [ 95.4396, 27.1259 ], [ 95.4447, 27.1288 ], [ 95.4444, 27.1352 ], [ 95.4493, 27.1346 ], [ 95.4494, 27.1297 ], [ 95.4527, 27.1292 ], [ 95.4568, 27.1355 ], [ 95.4622, 27.1497 ], [ 95.4533, 27.1573 ], [ 95.4655, 27.1664 ], [ 95.4595, 27.1757 ], [ 95.4666, 27.1816 ], [ 95.4559, 27.2025 ], [ 95.4581, 27.2098 ], [ 95.4724, 27.2189 ], [ 95.4715, 27.2227 ], [ 95.4775, 27.2268 ], [ 95.4843, 27.2412 ], [ 95.5047, 27.2494 ], [ 95.5088, 27.2619 ], [ 95.5171, 27.2575 ], [ 95.5255, 27.2638 ], [ 95.5301, 27.2645 ], [ 95.5316, 27.261 ], [ 95.5345, 27.2646 ], [ 95.535, 27.2617 ], [ 95.5454, 27.2599 ] ] ] } },
{ "type": "Feature", "properties": { "unit_id": "Z07.3.10.1_1", "name": "None", "district": "Lower Subansiri", "did": "arunachal_pradesh:Lower Subansiri", "state_key": "arunachal_pradesh" }, "geometry": { "type": "Polygon", "coordinates": [ [ [ 93.8902, 27.8201 ], [ 93.9078, 27.7972 ], [ 93.8905, 27.7431 ], [ 93.9197, 27.7234 ], [ 93.9256, 27.6591 ], [ 93.9399, 27.6377 ], [ 93.9471, 27.6294 ], [ 94.0161, 27.6116 ], [ 94.0532, 27.608 ], [ 94.0491, 27.5826 ], [ 94.1062, 27.5541 ], [ 94.1062, 27.5441 ], [ 94.072, 27.5155 ], [ 93.9418, 27.5113 ], [ 93.9477, 27.4956 ], [ 93.9366, 27.4879 ], [ 93.9229, 27.4912 ], [ 93.9036, 27.465 ], [ 93.8822, 27.4575 ], [ 93.8747, 27.4583 ], [ 93.8727, 27.445 ], [ 93.8403, 27.4255 ], [ 93.815, 27.3915 ], [ 93.8141, 27.3825 ], [ 93.825, 27.3775 ], [ 93.8301, 27.3582 ], [ 93.8491, 27.3486 ], [ 93.8483, 27.3334 ], [ 93.8334, 27.3241 ], [ 93.8284, 27.3227 ], [ 93.8184, 27.329 ], [ 93.7992, 27.3179 ], [ 93.7755, 27.2963 ], [ 93.7666, 27.2959 ], [ 93.7597, 27.3029 ], [ 93.7424, 27.3104 ], [ 93.7177, 27.2972 ], [ 93.7028, 27.2984 ], [ 93.6969, 27.3068 ], [ 93.6926, 27.3032 ], [ 93.6861, 27.3062 ], [ 93.6477, 27.2915 ], [ 93.6379, 27.2931 ], [ 93.6224, 27.3015 ], [ 93.6211, 27.312 ], [ 93.6094, 27.3226 ], [ 93.5886, 27.3278 ], [ 93.5838, 27.3367 ], [ 93.5966, 27.3492 ], [ 93.5883, 27.355 ], [ 93.5876, 27.3641 ], [ 93.5758, 27.3834 ], [ 93.5751, 27.3935 ], [ 93.5631, 27.3879 ], [ 93.5511, 27.402 ], [ 93.5729, 27.4374 ], [ 93.5832, 27.4391 ], [ 93.5855, 27.4457 ], [ 93.5963, 27.4503 ], [ 93.6119, 27.4507 ], [ 93.6234, 27.4647 ], [ 93.6103, 27.4669 ], [ 93.5881, 27.4637 ], [ 93.5705, 27.4736 ], [ 93.5736, 27.4844 ], [ 93.5854, 27.4965 ], [ 93.5821, 27.5027 ], [ 93.5854, 27.5138 ], [ 93.5673, 27.529 ], [ 93.5671, 27.5369 ], [ 93.5546, 27.5532 ], [ 93.5528, 27.5622 ], [ 93.5449, 27.5637 ], [ 93.5335, 27.5742 ], [ 93.5328, 27.5981 ], [ 93.5469, 27.5977 ], [ 93.5564, 27.6035 ], [ 93.5681, 27.5994 ], [ 93.5987, 27.6115 ], [ 93.6125, 27.6282 ], [ 93.6204, 27.6282 ], [ 93.645, 27.6462 ], [ 93.6616, 27.6464 ], [ 93.6809, 27.6686 ], [ 93.706, 27.6692 ], [ 93.7138, 27.679 ], [ 93.7006, 27.7032 ], [ 93.7043, 27.7279 ], [ 93.7178, 27.7407 ], [ 93.7196, 27.7545 ], [ 93.6993, 27.7583 ], [ 93.6861, 27.7551 ], [ 93.6893, 27.76 ], [ 93.6857, 27.7673 ], [ 93.6735, 27.7782 ], [ 93.665, 27.7798 ], [ 93.6542, 27.7953 ], [ 93.6598, 27.8109 ], [ 93.6748, 27.8209 ], [ 93.6748, 27.8267 ], [ 93.6804, 27.8282 ], [ 93.6855, 27.8352 ], [ 93.6796, 27.8627 ], [ 93.6905, 27.8976 ], [ 93.6844, 27.9164 ], [ 93.6966, 27.9383 ], [ 93.7222, 27.9307 ], [ 93.7299, 27.9004 ], [ 93.7411, 27.8971 ], [ 93.7646, 27.9012 ], [ 93.7768, 27.9127 ], [ 93.7849, 27.9113 ], [ 93.8041, 27.931 ], [ 93.8124, 27.928 ], [ 93.8343, 27.9343 ], [ 93.8426, 27.9329 ], [ 93.8902, 27.8201 ] ] ] } },
{ "type": "Feature", "properties": { "unit_id": "Z07.3.10.1_1", "name": "None", "district": "Kamle", "did": "arunachal_pradesh:Kamle", "state_key": "arunachal_pradesh" }, "geometry": { "type": "Polygon", "coordinates": [ [ [ 93.9621, 27.9819 ], [ 93.9888, 27.976 ], [ 94.0119, 27.958 ], [ 94.0313, 27.9612 ], [ 94.0493, 27.9566 ], [ 94.0682, 27.9391 ], [ 94.0477, 27.9119 ], [ 94.0562, 27.9062 ], [ 94.0602, 27.8694 ], [ 94.0742, 27.8493 ], [ 94.0965, 27.8598 ], [ 94.122, 27.8618 ], [ 94.1286, 27.8578 ], [ 94.1415, 27.8662 ], [ 94.1491, 27.866 ], [ 94.1601, 27.8438 ], [ 94.1704, 27.8454 ], [ 94.1919, 27.8365 ], [ 94.1934, 27.8114 ], [ 94.2575, 27.8077 ], [ 94.2941, 27.7904 ], [ 94.3171, 27.774 ], [ 94.3101, 27.7452 ], [ 94.3142, 27.739 ], [ 94.3386, 27.7252 ], [ 94.3491, 27.7302 ], [ 94.356, 27.7288 ], [ 94.3517, 27.7143 ], [ 94.322, 27.703 ], [ 94.3024, 27.6847 ], [ 94.2669, 27.6658 ], [ 94.2311, 27.6377 ], [ 94.2096, 27.6089 ], [ 94.2122, 27.6009 ], [ 94.2266, 27.5977 ], [ 94.2228, 27.5882 ], [ 94.225, 27.5741 ], [ 94.2348, 27.5692 ], [ 94.2467, 27.5695 ], [ 94.2587, 27.5555 ], [ 94.2575, 27.537 ], [ 94.2683, 27.5208 ], [ 94.2208, 27.5053 ], [ 94.2091, 27.4925 ], [ 94.2025, 27.4945 ], [ 94.207, 27.5353 ], [ 94.1919, 27.544 ], [ 94.1697, 27.5429 ], [ 94.0879, 27.4952 ], [ 94.0492, 27.4953 ], [ 93.9801, 27.503 ], [ 93.9477, 27.4956 ], [ 93.9418, 27.5113 ], [ 94.072, 27.5155 ], [ 94.1062, 27.5441 ], [ 94.1062, 27.5541 ], [ 94.0491, 27.5826 ], [ 94.0532, 27.608 ], [ 94.0161, 27.6116 ], [ 93.9471, 27.6294 ], [ 93.9256, 27.6591 ], [ 93.9197, 27.7234 ], [ 93.8905, 27.7431 ], [ 93.9078, 27.7972 ], [ 93.8902, 27.8201 ], [ 93.8426, 27.9329 ], [ 93.8718, 27.9367 ], [ 93.8762, 27.9432 ], [ 93.889, 27.9455 ], [ 93.9134, 27.972 ], [ 93.9312, 27.9767 ], [ 93.9447, 27.9865 ], [ 93.9546, 27.9795 ], [ 93.9621, 27.9819 ] ] ] } },
{ "type": "Feature", "properties": { "unit_id": "Z07.3.16.1_1", "name": "None", "district": "Upper Subansiri", "did": "arunachal_pradesh:Upper Subansiri", "state_key": "arunachal_pradesh" }, "geometry": { "type": "Polygon", "coordinates": [ [ [ 94.4033, 28.3278 ], [ 94.3776, 28.3089 ], [ 94.3749, 28.2949 ], [ 94.3899, 28.2785 ], [ 94.3916, 28.2658 ], [ 94.417, 28.2542 ], [ 94.4042, 28.2529 ], [ 94.3835, 28.258 ], [ 94.3693, 28.2441 ], [ 94.3678, 28.2114 ], [ 94.3565, 28.1985 ], [ 94.3607, 28.1905 ], [ 94.3745, 28.1811 ], [ 94.3778, 28.1586 ], [ 94.3915, 28.1419 ], [ 94.3865, 28.121 ], [ 94.3977, 28.1047 ], [ 94.3905, 28.0841 ], [ 94.3993, 28.0799 ], [ 94.4083, 28.0691 ], [ 94.4393, 28.0609 ], [ 94.4671, 28.0487 ], [ 94.4754, 28.0393 ], [ 94.4808, 28.0233 ], [ 94.513, 28.0154 ], [ 94.5321, 27.9859 ], [ 94.5228, 27.9664 ], [ 94.5358, 27.9439 ], [ 94.5378, 27.9333 ], [ 94.5581, 27.9024 ], [ 94.5929, 27.89 ], [ 94.5948, 27.8707 ], [ 94.5891, 27.8616 ], [ 94.5772, 27.856 ], [ 94.5592, 27.8562 ], [ 94.5336, 27.8499 ], [ 94.5038, 27.8363 ], [ 94.4832, 27.8361 ], [ 94.4695, 27.8328 ], [ 94.4612, 27.8251 ], [ 94.4483, 27.8252 ], [ 94.4435, 27.8229 ], [ 94.44, 27.811 ], [ 94.418, 27.8064 ], [ 94.4023, 27.7925 ], [ 94.3849, 27.7942 ], [ 94.3467, 27.7641 ], [ 94.3325, 27.7578 ], [ 94.3054, 27.7836 ], [ 94.2575, 27.8077 ], [ 94.1934, 27.8114 ], [ 94.1919, 27.8365 ], [ 94.1704, 27.8454 ], [ 94.1601, 27.8438 ], [ 94.1491, 27.866 ], [ 94.1415, 27.8662 ], [ 94.1286, 27.8578 ], [ 94.122, 27.8618 ], [ 94.0965, 27.8598 ], [ 94.0742, 27.8493 ], [ 94.0602, 27.8694 ], [ 94.0562, 27.9062 ], [ 94.0477, 27.9119 ], [ 94.0682, 27.9391 ], [ 94.0493, 27.9566 ], [ 94.0313, 27.9612 ], [ 94.0119, 27.958 ], [ 93.9888, 27.976 ], [ 93.9621, 27.9819 ], [ 93.9501, 27.9808 ], [ 93.9399, 28.0027 ], [ 93.9273, 28.008 ], [ 93.9183, 28.0063 ], [ 93.9192, 28.0173 ], [ 93.9131, 28.0303 ], [ 93.8955, 28.0445 ], [ 93.8855, 28.0424 ], [ 93.8764, 28.0514 ], [ 93.8765, 28.0672 ], [ 93.8912, 28.1032 ], [ 93.8751, 28.1175 ], [ 93.8779, 28.1367 ], [ 93.8719, 28.1539 ], [ 93.8603, 28.1671 ], [ 93.8452, 28.1738 ], [ 93.8504, 28.1916 ], [ 93.85, 28.2095 ], [ 93.8385, 28.2191 ], [ 93.8424, 28.2394 ], [ 93.8376, 28.2447 ], [ 93.8098, 28.247 ], [ 93.782, 28.2564 ], [ 93.7696, 28.2652 ], [ 93.7663, 28.2787 ], [ 93.7603, 28.2815 ], [ 93.7535, 28.2797 ], [ 93.7442, 28.2879 ], [ 93.736, 28.2861 ], [ 93.7007, 28.2413 ], [ 93.6672, 28.2248 ], [ 93.6507, 28.1974 ], [ 93.6504, 28.2081 ], [ 93.6341, 28.2315 ], [ 93.6299, 28.2625 ], [ 93.6135, 28.2727 ], [ 93.5928, 28.2711 ], [ 93.5716, 28.2559 ], [ 93.5644, 28.262 ], [ 93.557, 28.2605 ], [ 93.5425, 28.2678 ], [ 93.5096, 28.272 ], [ 93.4798, 28.2814 ], [ 93.4687, 28.2737 ], [ 93.453, 28.2719 ], [ 93.4453, 28.2831 ], [ 93.4317, 28.2799 ], [ 93.4143, 28.2884 ], [ 93.4086, 28.3067 ], [ 93.4002, 28.3091 ], [ 93.3863, 28.3063 ], [ 93.384, 28.3127 ], [ 93.3789, 28.3115 ], [ 93.3786, 28.3234 ], [ 93.3609, 28.3298 ], [ 93.3605, 28.3436 ], [ 93.3443, 28.3454 ], [ 93.3369, 28.3533 ], [ 93.2942, 28.3403 ], [ 93.2829, 28.3648 ], [ 93.2777, 28.3665 ], [ 93.2598, 28.367 ], [ 93.2457, 28.3608 ], [ 93.2222, 28.3342 ], [ 93.2242, 28.4055 ], [ 93.2201, 28.4137 ], [ 93.1934, 28.4236 ], [ 93.1805, 28.4349 ], [ 93.2096, 28.4519 ], [ 93.2286, 28.4742 ], [ 93.2777, 28.5013 ], [ 93.2911, 28.5536 ], [ 93.3067, 28.5793 ], [ 93.3016, 28.599 ], [ 93.3146, 28.6094 ], [ 93.3249, 28.6092 ], [ 93.3279, 28.6287 ], [ 93.3392, 28.6433 ], [ 93.3622, 28.6423 ], [ 93.406, 28.6513 ], [ 93.446, 28.6747 ], [ 93.4528, 28.675 ], [ 93.4705, 28.6527 ], [ 93.478, 28.6756 ], [ 93.4841, 28.6831 ], [ 93.4961, 28.686 ], [ 93.5142, 28.6817 ], [ 93.5224, 28.6591 ], [ 93.5357, 28.6607 ], [ 93.6194, 28.6534 ], [ 93.6562, 28.6585 ], [ 93.6878, 28.6744 ], [ 93.7399, 28.6846 ], [ 93.7531, 28.6828 ], [ 93.7841, 28.6634 ], [ 93.8506, 28.707 ], [ 93.8617, 28.7063 ], [ 93.9017, 28.6794 ], [ 93.9356, 28.6661 ], [ 93.9467, 28.6739 ], [ 93.9677, 28.7073 ], [ 94.0042, 28.6746 ], [ 94.0156, 28.6685 ], [ 94.0234, 28.6512 ], [ 94.0062, 28.6217 ], [ 94.0014, 28.5777 ], [ 94.058, 28.5495 ], [ 94.0807, 28.5343 ], [ 94.0969, 28.536 ], [ 94.1088, 28.5213 ], [ 94.1091, 28.5031 ], [ 94.1056, 28.4975 ], [ 94.1149, 28.4757 ], [ 94.1264, 28.467 ], [ 94.1392, 28.4444 ], [ 94.1626, 28.4323 ], [ 94.1733, 28.435 ], [ 94.1846, 28.4294 ], [ 94.1925, 28.4298 ], [ 94.2192, 28.4362 ], [ 94.2316, 28.4281 ], [ 94.2418, 28.4467 ], [ 94.2676, 28.4322 ], [ 94.2928, 28.4287 ], [ 94.2965, 28.4227 ], [ 94.3085, 28.4169 ], [ 94.3018, 28.3959 ], [ 94.3086, 28.3755 ], [ 94.3221, 28.3686 ], [ 94.3297, 28.3578 ], [ 94.368, 28.3531 ], [ 94.3767, 28.3405 ], [ 94.3861, 28.3358 ], [ 94.4016, 28.3386 ], [ 94.4033, 28.3278 ] ] ] } },
{ "type": "Feature", "properties": { "unit_id": "Z07.3.18.1_1", "name": "None", "district": "West Siang", "did": "arunachal_pradesh:West Siang", "state_key": "arunachal_pradesh" }, "geometry": { "type": "Polygon", "coordinates": [ [ [ 94.5286, 28.3318 ], [ 94.555, 28.3318 ], [ 94.5614, 28.3268 ], [ 94.58, 28.2826 ], [ 94.5964, 28.2769 ], [ 94.6135, 28.2576 ], [ 94.6164, 28.2309 ], [ 94.605, 28.2024 ], [ 94.6164, 28.1833 ], [ 94.6149, 28.1498 ], [ 94.6301, 28.1546 ], [ 94.6415, 28.166 ], [ 94.6605, 28.2069 ], [ 94.691, 28.2164 ], [ 94.7272, 28.2221 ], [ 94.7748, 28.1869 ], [ 94.8005, 28.186 ], [ 94.8366, 28.2193 ], [ 94.8713, 28.2168 ], [ 94.8687, 28.2084 ], [ 94.8754, 28.2053 ], [ 94.8995, 28.178 ], [ 94.8981, 28.1478 ], [ 94.918, 28.127 ], [ 94.9279, 28.127 ], [ 94.934, 28.1216 ], [ 94.9434, 28.1207 ], [ 94.9288, 28.0927 ], [ 94.9145, 28.0914 ], [ 94.9139, 28.0868 ], [ 94.9031, 28.0784 ], [ 94.9083, 28.0672 ], [ 94.9214, 28.0598 ], [ 94.9302, 28.0494 ], [ 94.9057, 28.0288 ], [ 94.9065, 28.0164 ], [ 94.8975, 28.0169 ], [ 94.8197, 27.9859 ], [ 94.7909, 27.9871 ], [ 94.7524, 28.0114 ], [ 94.7381, 28.0092 ], [ 94.6996, 28.0192 ], [ 94.6689, 28.0414 ], [ 94.6403, 28.0435 ], [ 94.6253, 28.0556 ], [ 94.6032, 28.0621 ], [ 94.5932, 28.0528 ], [ 94.5675, 28.0492 ], [ 94.5332, 28.0492 ], [ 94.5061, 28.0556 ], [ 94.4842, 28.0217 ], [ 94.4671, 28.0487 ], [ 94.4393, 28.0609 ], [ 94.4083, 28.0691 ], [ 94.3993, 28.0799 ], [ 94.3918, 28.0827 ], [ 94.3977, 28.1047 ], [ 94.3865, 28.121 ], [ 94.3915, 28.1419 ], [ 94.3778, 28.1586 ], [ 94.3745, 28.1811 ], [ 94.3607, 28.1905 ], [ 94.3565, 28.1985 ], [ 94.3678, 28.2114 ], [ 94.3693, 28.2441 ], [ 94.3835, 28.258 ], [ 94.4042, 28.2529 ], [ 94.417, 28.2542 ], [ 94.3916, 28.2658 ], [ 94.3899, 28.2785 ], [ 94.3749, 28.2949 ], [ 94.3776, 28.3089 ], [ 94.4033, 28.3278 ], [ 94.4016, 28.3386 ], [ 94.4133, 28.3579 ], [ 94.4347, 28.3736 ], [ 94.4462, 28.4036 ], [ 94.4854, 28.3958 ], [ 94.4893, 28.3754 ], [ 94.5065, 28.3482 ], [ 94.5286, 28.3318 ] ] ] } },
{ "type": "Feature", "properties": { "unit_id": "Z07.3.18.1_1", "name": "None", "district": "Lower Siang", "did": "arunachal_pradesh:Lower Siang", "state_key": "arunachal_pradesh" }, "geometry": { "type": "Polygon", "coordinates": [ [ [ 95.0738, 27.9905 ], [ 95.0857, 27.981 ], [ 95.0891, 27.9677 ], [ 95.0881, 27.952 ], [ 95.0753, 27.9401 ], [ 95.0719, 27.916 ], [ 95.0858, 27.9099 ], [ 95.1207, 27.9035 ], [ 95.1152, 27.8568 ], [ 95.1228, 27.8482 ], [ 95.1364, 27.8156 ], [ 94.8523, 27.7276 ], [ 94.8478, 27.7056 ], [ 94.841, 27.7006 ], [ 94.8208, 27.6921 ], [ 94.7937, 27.6952 ], [ 94.789, 27.6852 ], [ 94.7787, 27.6797 ], [ 94.7692, 27.6795 ], [ 94.7543, 27.6605 ], [ 94.7414, 27.6599 ], [ 94.7251, 27.669 ], [ 94.716, 27.6575 ], [ 94.709, 27.6566 ], [ 94.6879, 27.6651 ], [ 94.6838, 27.6602 ], [ 94.6867, 27.651 ], [ 94.6827, 27.6459 ], [ 94.6627, 27.6453 ], [ 94.6467, 27.6381 ], [ 94.6332, 27.6242 ], [ 94.6235, 27.6278 ], [ 94.6066, 27.6186 ], [ 94.6029, 27.6212 ], [ 94.6, 27.6182 ], [ 94.5875, 27.6185 ], [ 94.5741, 27.6038 ], [ 94.5446, 27.601 ], [ 94.536, 27.5925 ], [ 94.5321, 27.5946 ], [ 94.5296, 27.5914 ], [ 94.522, 27.5914 ], [ 94.5215, 27.5846 ], [ 94.5025, 27.5774 ], [ 94.499, 27.5722 ], [ 94.4778, 27.5761 ], [ 94.4617, 27.5552 ], [ 94.4513, 27.5718 ], [ 94.4333, 27.5884 ], [ 94.4317, 27.6003 ], [ 94.4185, 27.5975 ], [ 94.4016, 27.585 ], [ 94.3914, 27.5886 ], [ 94.3668, 27.5743 ], [ 94.3507, 27.5771 ], [ 94.3449, 27.5821 ], [ 94.337, 27.5792 ], [ 94.3336, 27.5866 ], [ 94.3243, 27.5846 ], [ 94.3228, 27.5886 ], [ 94.3093, 27.5908 ], [ 94.2983, 27.6019 ], [ 94.2898, 27.5962 ], [ 94.2883, 27.5893 ], [ 94.2776, 27.5893 ], [ 94.2725, 27.6029 ], [ 94.2543, 27.6142 ], [ 94.2609, 27.6181 ], [ 94.2674, 27.6295 ], [ 94.2617, 27.6359 ], [ 94.2515, 27.6376 ], [ 94.2485, 27.634 ], [ 94.237, 27.6324 ], [ 94.2184, 27.608 ], [ 94.2104, 27.6084 ], [ 94.2311, 27.6377 ], [ 94.2669, 27.6658 ], [ 94.3024, 27.6847 ], [ 94.322, 27.703 ], [ 94.3517, 27.7143 ], [ 94.3555, 27.7192 ], [ 94.356, 27.7288 ], [ 94.3491, 27.7302 ], [ 94.3386, 27.7252 ], [ 94.3142, 27.739 ], [ 94.3101, 27.7452 ], [ 94.3171, 27.774 ], [ 94.3325, 27.7578 ], [ 94.3467, 27.7641 ], [ 94.3849, 27.7942 ], [ 94.4023, 27.7925 ], [ 94.418, 27.8064 ], [ 94.44, 27.811 ], [ 94.4435, 27.8229 ], [ 94.4612, 27.8251 ], [ 94.4695, 27.8328 ], [ 94.5038, 27.8363 ], [ 94.5336, 27.8499 ], [ 94.5592, 27.8562 ], [ 94.5772, 27.856 ], [ 94.5891, 27.8616 ], [ 94.5948, 27.8708 ], [ 94.6318, 27.8667 ], [ 94.646, 27.8501 ], [ 94.6853, 27.8405 ], [ 94.7174, 27.8251 ], [ 94.7241, 27.7949 ], [ 94.746, 27.773 ], [ 94.7688, 27.7739 ], [ 94.809, 27.7858 ], [ 94.8388, 27.8037 ], [ 94.8992, 27.8226 ], [ 94.8984, 27.8281 ], [ 94.9068, 27.8354 ], [ 94.9018, 27.841 ], [ 94.923, 27.8516 ], [ 94.9262, 27.8592 ], [ 94.9237, 27.8624 ], [ 94.9058, 27.8611 ], [ 94.9017, 27.8776 ], [ 94.8952, 27.8851 ], [ 94.8877, 27.8871 ], [ 94.884, 27.8949 ], [ 94.8771, 27.8957 ], [ 94.8776, 27.903 ], [ 94.866, 27.9149 ], [ 94.8733, 27.9347 ], [ 94.8838, 27.9428 ], [ 94.8856, 27.9508 ], [ 94.8942, 27.9538 ], [ 94.8998, 27.9716 ], [ 94.8807, 28.0 ], [ 94.8922, 28.0007 ], [ 94.8945, 28.008 ], [ 94.9086, 28.0198 ], [ 94.9039, 28.0259 ], [ 94.9057, 28.0288 ], [ 94.9235, 28.0417 ], [ 94.9294, 28.0504 ], [ 94.9622, 28.0413 ], [ 95.0346, 28.0331 ], [ 95.0674, 28.0234 ], [ 95.0738, 27.9905 ] ] ] } },
{ "type": "Feature", "properties": { "unit_id": "Z07.3.18.1_1", "name": "None", "district": "Lepa Rada", "did": "arunachal_pradesh:Lepa Rada", "state_key": "arunachal_pradesh" }, "geometry": { "type": "Polygon", "coordinates": [ [ [ 94.8945, 28.008 ], [ 94.8913, 28.0 ], [ 94.8807, 28.0 ], [ 94.8998, 27.9716 ], [ 94.8942, 27.9538 ], [ 94.8856, 27.9508 ], [ 94.8838, 27.9428 ], [ 94.8733, 27.9347 ], [ 94.8659, 27.9157 ], [ 94.8776, 27.903 ], [ 94.8771, 27.8957 ], [ 94.884, 27.8949 ], [ 94.8877, 27.8871 ], [ 94.8952, 27.8851 ], [ 94.9017, 27.8776 ], [ 94.9058, 27.8611 ], [ 94.9252, 27.8613 ], [ 94.9231, 27.8518 ], [ 94.9018, 27.841 ], [ 94.9068, 27.8354 ], [ 94.8984, 27.8281 ], [ 94.8992, 27.8226 ], [ 94.8388, 27.8037 ], [ 94.809, 27.7858 ], [ 94.7688, 27.7739 ], [ 94.746, 27.773 ], [ 94.7241, 27.7949 ], [ 94.7174, 27.8251 ], [ 94.6853, 27.8405 ], [ 94.646, 27.8501 ], [ 94.6318, 27.8667 ], [ 94.5948, 27.8708 ], [ 94.5929, 27.89 ], [ 94.5581, 27.9024 ], [ 94.5251, 27.9582 ], [ 94.5254, 27.9771 ], [ 94.5321, 27.9859 ], [ 94.513, 28.0154 ], [ 94.5063, 28.0193 ], [ 94.4843, 28.022 ], [ 94.5061, 28.0556 ], [ 94.5332, 28.0492 ], [ 94.5675, 28.0492 ], [ 94.5932, 28.0528 ], [ 94.6032, 28.0621 ], [ 94.6253, 28.0556 ], [ 94.6403, 28.0435 ], [ 94.6689, 28.0414 ], [ 94.6996, 28.0192 ], [ 94.7381, 28.0092 ], [ 94.7524, 28.0114 ], [ 94.7909, 27.9871 ], [ 94.8197, 27.9859 ], [ 94.8975, 28.0169 ], [ 94.9064, 28.0163 ], [ 94.8945, 28.008 ] ] ] } },
{ "type": "Feature", "properties": { "unit_id": "IND.3.5.1_1", "name": "None", "district": "East Siang", "did": "arunachal_pradesh:East Siang", "state_key": "arunachal_pradesh" }, "geometry": { "type": "Polygon", "coordinates": [ [ [ 95.3796, 27.8392 ], [ 95.3088, 27.868 ], [ 95.1364, 27.8156 ], [ 95.1228, 27.8482 ], [ 95.1152, 27.8568 ], [ 95.1207, 27.9035 ], [ 95.0858, 27.9099 ], [ 95.0719, 27.916 ], [ 95.0753, 27.9401 ], [ 95.0881, 27.952 ], [ 95.0891, 27.9677 ], [ 95.0857, 27.981 ], [ 95.0738, 27.9905 ], [ 95.0674, 28.0234 ], [ 95.1151, 28.0242 ], [ 95.177, 28.0481 ], [ 95.2172, 28.0563 ], [ 95.2239, 28.0481 ], [ 95.2404, 28.0473 ], [ 95.2888, 28.0906 ], [ 95.2881, 28.1032 ], [ 95.2955, 28.1211 ], [ 95.2508, 28.1502 ], [ 95.2305, 28.1549 ], [ 95.2239, 28.1521 ], [ 95.1924, 28.1646 ], [ 95.1851, 28.1736 ], [ 95.2011, 28.1632 ], [ 95.2012, 28.1735 ], [ 95.2069, 28.1782 ], [ 95.229, 28.1734 ], [ 95.2464, 28.1789 ], [ 95.255, 28.1864 ], [ 95.2555, 28.194 ], [ 95.2611, 28.1993 ], [ 95.289, 28.203 ], [ 95.2907, 28.2166 ], [ 95.2827, 28.2321 ], [ 95.2915, 28.2392 ], [ 95.3147, 28.2386 ], [ 95.3129, 28.2507 ], [ 95.3285, 28.266 ], [ 95.3202, 28.2883 ], [ 95.3334, 28.3018 ], [ 95.356, 28.301 ], [ 95.3634, 28.304 ], [ 95.3687, 28.3202 ], [ 95.3744, 28.3227 ], [ 95.3852, 28.308 ], [ 95.3971, 28.3148 ], [ 95.435, 28.3145 ], [ 95.4458, 28.3045 ], [ 95.4497, 28.2897 ], [ 95.4604, 28.2788 ], [ 95.4612, 28.2651 ], [ 95.4655, 28.2592 ], [ 95.4858, 28.2722 ], [ 95.5116, 28.274 ], [ 95.5354, 28.2862 ], [ 95.5417, 28.2753 ], [ 95.5485, 28.2754 ], [ 95.552, 28.2642 ], [ 95.5637, 28.2549 ], [ 95.5596, 28.168 ], [ 95.5692, 28.1313 ], [ 95.5675, 28.0785 ], [ 95.5582, 28.0353 ], [ 95.5442, 28.018 ], [ 95.5334, 27.9902 ], [ 95.5067, 27.9686 ], [ 95.5, 27.9518 ], [ 95.4987, 27.9462 ], [ 95.5147, 27.912 ], [ 95.5183, 27.8863 ], [ 95.5153, 27.8797 ], [ 95.3796, 27.8392 ] ] ] } },
{ "type": "Feature", "properties": { "unit_id": "Z07.3.18.1_1", "name": "None", "district": "Siang", "did": "arunachal_pradesh:Siang", "state_key": "arunachal_pradesh" }, "geometry": { "type": "Polygon", "coordinates": [ [ [ 94.5616, 28.8102 ], [ 94.5923, 28.7918 ], [ 94.6078, 28.797 ], [ 94.6202, 28.7938 ], [ 94.6333, 28.7842 ], [ 94.634, 28.7666 ], [ 94.6967, 28.7283 ], [ 94.7456, 28.6863 ], [ 94.7467, 28.5879 ], [ 94.7602, 28.5599 ], [ 94.7807, 28.5566 ], [ 94.7659, 28.5486 ], [ 94.789, 28.557 ], [ 94.804, 28.5729 ], [ 94.8265, 28.5766 ], [ 94.8414, 28.5745 ], [ 94.8488, 28.5659 ], [ 94.8621, 28.5614 ], [ 94.8636, 28.5546 ], [ 94.8747, 28.5473 ], [ 94.8834, 28.555 ], [ 94.9014, 28.5627 ], [ 94.9176, 28.5625 ], [ 94.9254, 28.5681 ], [ 94.9309, 28.5799 ], [ 94.9437, 28.5818 ], [ 94.95, 28.5795 ], [ 94.9499, 28.575 ], [ 94.9562, 28.572 ], [ 94.9652, 28.5582 ], [ 94.9762, 28.5567 ], [ 94.9838, 28.5645 ], [ 94.9919, 28.5629 ], [ 95.0011, 28.5518 ], [ 95.0122, 28.5511 ], [ 95.0184, 28.5313 ], [ 95.015, 28.5219 ], [ 95.0479, 28.5258 ], [ 95.0545, 28.5343 ], [ 95.0784, 28.5289 ], [ 95.08, 28.5081 ], [ 95.1007, 28.4975 ], [ 95.093, 28.4761 ], [ 95.102, 28.4576 ], [ 95.0899, 28.4478 ], [ 95.0885, 28.4324 ], [ 95.0657, 28.4134 ], [ 95.0753, 28.4034 ], [ 95.0773, 28.3951 ], [ 95.0689, 28.3718 ], [ 95.0697, 28.3631 ], [ 95.0615, 28.3553 ], [ 95.0737, 28.3397 ], [ 95.0863, 28.3307 ], [ 95.103, 28.3278 ], [ 95.1052, 28.3098 ], [ 95.0962, 28.2989 ], [ 95.103, 28.2867 ], [ 95.0939, 28.2783 ], [ 95.1093, 28.2536 ], [ 95.112, 28.24 ], [ 95.1207, 28.2252 ], [ 95.1385, 28.2238 ], [ 95.1519, 28.2159 ], [ 95.1629, 28.2159 ], [ 95.168, 28.2016 ], [ 95.1671, 28.1876 ], [ 95.1924, 28.1646 ], [ 95.2239, 28.1521 ], [ 95.2305, 28.1549 ], [ 95.2508, 28.1502 ], [ 95.2955, 28.1211 ], [ 95.2881, 28.1032 ], [ 95.2888, 28.0906 ], [ 95.2404, 28.0473 ], [ 95.2239, 28.0481 ], [ 95.2172, 28.0563 ], [ 95.177, 28.0481 ], [ 95.1151, 28.0242 ], [ 95.0674, 28.0234 ], [ 95.0346, 28.0331 ], [ 94.9622, 28.0413 ], [ 94.9294, 28.0504 ], [ 94.9083, 28.0672 ], [ 94.9031, 28.0784 ], [ 94.9139, 28.0868 ], [ 94.9145, 28.0914 ], [ 94.9288, 28.0927 ], [ 94.9434, 28.1207 ], [ 94.934, 28.1216 ], [ 94.9279, 28.127 ], [ 94.918, 28.127 ], [ 94.8981, 28.1478 ], [ 94.8995, 28.178 ], [ 94.8754, 28.2053 ], [ 94.8687, 28.2084 ], [ 94.8713, 28.2168 ], [ 94.8366, 28.2193 ], [ 94.8005, 28.186 ], [ 94.7748, 28.1869 ], [ 94.7272, 28.2221 ], [ 94.691, 28.2164 ], [ 94.6605, 28.2069 ], [ 94.6415, 28.166 ], [ 94.6301, 28.1546 ], [ 94.6149, 28.1498 ], [ 94.6164, 28.1833 ], [ 94.605, 28.2024 ], [ 94.6164, 28.2309 ], [ 94.6135, 28.2576 ], [ 94.5964, 28.2769 ], [ 94.58, 28.2826 ], [ 94.5614, 28.3268 ], [ 94.555, 28.3318 ], [ 94.5286, 28.3318 ], [ 94.5065, 28.3482 ], [ 94.4893, 28.3754 ], [ 94.4854, 28.3958 ], [ 94.4968, 28.4128 ], [ 94.5004, 28.4607 ], [ 94.5118, 28.4664 ], [ 94.5448, 28.4687 ], [ 94.5429, 28.4813 ], [ 94.561, 28.4898 ], [ 94.56, 28.4965 ], [ 94.5438, 28.5127 ], [ 94.5381, 28.5336 ], [ 94.5419, 28.5774 ], [ 94.5362, 28.5888 ], [ 94.5134, 28.5964 ], [ 94.481, 28.6002 ], [ 94.4572, 28.5913 ], [ 94.4504, 28.6155 ], [ 94.4675, 28.6259 ], [ 94.4807, 28.6653 ], [ 94.4845, 28.691 ], [ 94.4769, 28.7053 ], [ 94.4588, 28.7186 ], [ 94.4436, 28.7462 ], [ 94.4341, 28.7548 ], [ 94.4338, 28.7641 ], [ 94.4427, 28.7772 ], [ 94.4362, 28.8099 ], [ 94.4237, 28.8129 ], [ 94.4124, 28.8373 ], [ 94.3946, 28.854 ], [ 94.3827, 28.8784 ], [ 94.3785, 28.892 ], [ 94.3957, 28.9321 ], [ 94.48, 28.8584 ], [ 94.5171, 28.8365 ], [ 94.5153, 28.8208 ], [ 94.5254, 28.8115 ], [ 94.5616, 28.8102 ] ] ] } },
{ "type": "Feature", "properties": { "unit_id": "Z07.3.15.1_1", "name": "None", "district": "Upper Siang", "did": "arunachal_pradesh:Upper Siang", "state_key": "arunachal_pradesh" }, "geometry": { "type": "Polygon", "coordinates": [ [ [ 95.1064, 29.1189 ], [ 95.1212, 29.1155 ], [ 95.1663, 29.109 ], [ 95.2417, 29.1106 ], [ 95.2456, 29.0763 ], [ 95.242, 29.0636 ], [ 95.2601, 29.0541 ], [ 95.2714, 29.0587 ], [ 95.2688, 29.048 ], [ 95.2756, 29.0439 ], [ 95.2779, 29.0325 ], [ 95.2655, 29.0249 ], [ 95.2519, 29.0033 ], [ 95.2436, 29.0007 ], [ 95.245, 28.9875 ], [ 95.2555, 28.9806 ], [ 95.2555, 28.9699 ], [ 95.2618, 28.9637 ], [ 95.256, 28.9511 ], [ 95.2728, 28.9452 ], [ 95.2834, 28.9466 ], [ 95.2997, 28.9567 ], [ 95.307, 28.9543 ], [ 95.306, 28.9459 ], [ 95.3128, 28.94 ], [ 95.3125, 28.9341 ], [ 95.3241, 28.9297 ], [ 95.328, 28.9189 ], [ 95.3182, 28.9098 ], [ 95.3252, 28.9065 ], [ 95.3259, 28.8944 ], [ 95.3162, 28.886 ], [ 95.3232, 28.8743 ], [ 95.3218, 28.8622 ], [ 95.3278, 28.8538 ], [ 95.323, 28.8506 ], [ 95.3241, 28.8433 ], [ 95.3303, 28.8339 ], [ 95.3385, 28.8347 ], [ 95.3463, 28.8261 ], [ 95.3553, 28.8232 ], [ 95.3535, 28.8182 ], [ 95.3626, 28.787 ], [ 95.3772, 28.7777 ], [ 95.374, 28.7646 ], [ 95.3893, 28.7413 ], [ 95.3846, 28.7307 ], [ 95.3747, 28.7272 ], [ 95.3671, 28.7143 ], [ 95.3508, 28.7044 ], [ 95.3568, 28.6957 ], [ 95.3596, 28.6595 ], [ 95.3673, 28.644 ], [ 95.3653, 28.626 ], [ 95.3752, 28.6143 ], [ 95.3818, 28.5703 ], [ 95.4009, 28.5677 ], [ 95.4096, 28.5495 ], [ 95.3926, 28.5291 ], [ 95.3926, 28.5122 ], [ 95.3768, 28.5082 ], [ 95.366, 28.492 ], [ 95.3531, 28.4901 ], [ 95.3366, 28.4769 ], [ 95.3346, 28.4522 ], [ 95.3387, 28.4389 ], [ 95.32, 28.4258 ], [ 95.3379, 28.4059 ], [ 95.3379, 28.3658 ], [ 95.3685, 28.3566 ], [ 95.3695, 28.339 ], [ 95.3766, 28.3338 ], [ 95.3742, 28.3221 ], [ 95.3687, 28.3202 ], [ 95.3634, 28.304 ], [ 95.356, 28.301 ], [ 95.3334, 28.3018 ], [ 95.3202, 28.2883 ], [ 95.3285, 28.266 ], [ 95.3129, 28.2507 ], [ 95.3147, 28.2386 ], [ 95.2915, 28.2392 ], [ 95.2827, 28.2321 ], [ 95.2907, 28.2166 ], [ 95.2899, 28.2038 ], [ 95.2611, 28.1993 ], [ 95.2555, 28.194 ], [ 95.255, 28.1864 ], [ 95.2464, 28.1789 ], [ 95.229, 28.1734 ], [ 95.2069, 28.1782 ], [ 95.2012, 28.1735 ], [ 95.2011, 28.1632 ], [ 95.1671, 28.1876 ], [ 95.168, 28.2016 ], [ 95.1629, 28.2159 ], [ 95.1516, 28.2159 ], [ 95.1385, 28.2238 ], [ 95.1197, 28.2262 ], [ 95.1096, 28.2445 ], [ 95.1093, 28.2536 ], [ 95.094, 28.2777 ], [ 95.103, 28.2867 ], [ 95.0962, 28.2989 ], [ 95.1052, 28.3098 ], [ 95.103, 28.3278 ], [ 95.0863, 28.3307 ], [ 95.0737, 28.3397 ], [ 95.0615, 28.3553 ], [ 95.0697, 28.3631 ], [ 95.0689, 28.3718 ], [ 95.0773, 28.3951 ], [ 95.0753, 28.4034 ], [ 95.0657, 28.4134 ], [ 95.0885, 28.4324 ], [ 95.0899, 28.4478 ], [ 95.102, 28.4576 ], [ 95.093, 28.4761 ], [ 95.1007, 28.4975 ], [ 95.08, 28.5081 ], [ 95.0784, 28.5289 ], [ 95.0545, 28.5343 ], [ 95.0479, 28.5258 ], [ 95.015, 28.5219 ], [ 95.0184, 28.5313 ], [ 95.0122, 28.5511 ], [ 95.0011, 28.5518 ], [ 94.9919, 28.5629 ], [ 94.9838, 28.5645 ], [ 94.9762, 28.5567 ], [ 94.9652, 28.5582 ], [ 94.9562, 28.572 ], [ 94.9499, 28.575 ], [ 94.95, 28.5795 ], [ 94.9437, 28.5818 ], [ 94.9309, 28.5799 ], [ 94.9254, 28.5681 ], [ 94.9176, 28.5625 ], [ 94.9014, 28.5627 ], [ 94.8834, 28.555 ], [ 94.8747, 28.5473 ], [ 94.8636, 28.5546 ], [ 94.8621, 28.5614 ], [ 94.8488, 28.5659 ], [ 94.8414, 28.5745 ], [ 94.8265, 28.5766 ], [ 94.804, 28.5729 ], [ 94.789, 28.557 ], [ 94.7659, 28.5486 ], [ 94.7807, 28.5566 ], [ 94.7602, 28.5599 ], [ 94.7467, 28.5879 ], [ 94.7456, 28.6863 ], [ 94.6967, 28.7283 ], [ 94.634, 28.7666 ], [ 94.6333, 28.7842 ], [ 94.6202, 28.7938 ], [ 94.6078, 28.797 ], [ 94.5923, 28.7918 ], [ 94.5616, 28.8102 ], [ 94.5254, 28.8115 ], [ 94.5153, 28.8208 ], [ 94.5171, 28.8365 ], [ 94.48, 28.8584 ], [ 94.3676, 28.9565 ], [ 94.3428, 28.9838 ], [ 94.1916, 29.0372 ], [ 94.2241, 29.0878 ], [ 94.2578, 29.1086 ], [ 94.2931, 29.1449 ], [ 94.3528, 29.1481 ], [ 94.3625, 29.1526 ], [ 94.3679, 29.1584 ], [ 94.3749, 29.185 ], [ 94.4298, 29.2196 ], [ 94.4381, 29.2232 ], [ 94.4867, 29.2134 ], [ 94.5131, 29.2128 ], [ 94.5344, 29.2146 ], [ 94.5507, 29.2208 ], [ 94.5739, 29.2496 ], [ 94.5787, 29.2746 ], [ 94.6046, 29.2891 ], [ 94.6225, 29.3143 ], [ 94.631, 29.3412 ], [ 94.6451, 29.3394 ], [ 94.6886, 29.3179 ], [ 94.7413, 29.2747 ], [ 94.793, 29.2153 ], [ 94.7956, 29.1734 ], [ 94.8041, 29.1624 ], [ 94.8106, 29.162 ], [ 94.8435, 29.1743 ], [ 94.8787, 29.175 ], [ 94.8939, 29.1693 ], [ 94.9158, 29.1521 ], [ 94.9584, 29.1564 ], [ 94.9883, 29.1375 ], [ 95.0136, 29.1302 ], [ 95.0224, 29.1339 ], [ 95.0121, 29.1469 ], [ 94.9816, 29.1516 ], [ 94.9753, 29.1565 ], [ 94.973, 29.1659 ], [ 94.9798, 29.1733 ], [ 95.0366, 29.1521 ], [ 95.0951, 29.1396 ], [ 95.1064, 29.1189 ] ] ] } },
{ "type": "Feature", "properties": { "unit_id": "Z07.3.18.1_1", "name": "None", "district": "Shi Yomi", "did": "arunachal_pradesh:Shi Yomi", "state_key": "arunachal_pradesh" }, "geometry": { "type": "Polygon", "coordinates": [ [ [ 93.973, 28.7432 ], [ 94.0103, 28.7728 ], [ 94.0105, 28.7788 ], [ 93.9867, 28.8038 ], [ 94.0025, 28.8227 ], [ 94.0072, 28.8407 ], [ 94.0366, 28.8511 ], [ 94.0537, 28.8726 ], [ 94.0747, 28.8909 ], [ 94.1645, 28.9575 ], [ 94.1766, 29.007 ], [ 94.1916, 29.0372 ], [ 94.3428, 28.9838 ], [ 94.3957, 28.9321 ], [ 94.3785, 28.892 ], [ 94.3827, 28.8784 ], [ 94.3946, 28.854 ], [ 94.4124, 28.8373 ], [ 94.4237, 28.8129 ], [ 94.4362, 28.8099 ], [ 94.4427, 28.7772 ], [ 94.4338, 28.7641 ], [ 94.4341, 28.7548 ], [ 94.4436, 28.7462 ], [ 94.4588, 28.7186 ], [ 94.4769, 28.7053 ], [ 94.4845, 28.691 ], [ 94.4807, 28.6653 ], [ 94.4675, 28.6259 ], [ 94.4504, 28.6155 ], [ 94.4572, 28.5913 ], [ 94.481, 28.6002 ], [ 94.5134, 28.5964 ], [ 94.5362, 28.5888 ], [ 94.5419, 28.5774 ], [ 94.5381, 28.5336 ], [ 94.5438, 28.5127 ], [ 94.56, 28.4965 ], [ 94.561, 28.4898 ], [ 94.5429, 28.4813 ], [ 94.5448, 28.4687 ], [ 94.5118, 28.4664 ], [ 94.5004, 28.4607 ], [ 94.4968, 28.4128 ], [ 94.4854, 28.3958 ], [ 94.4462, 28.4036 ], [ 94.4347, 28.3736 ], [ 94.4133, 28.3579 ], [ 94.4016, 28.3386 ], [ 94.3861, 28.3358 ], [ 94.3728, 28.3442 ], [ 94.3709, 28.3517 ], [ 94.3297, 28.3578 ], [ 94.3221, 28.3686 ], [ 94.3086, 28.3755 ], [ 94.3018, 28.3959 ], [ 94.3085, 28.4169 ], [ 94.2965, 28.4227 ], [ 94.2928, 28.4287 ], [ 94.2676, 28.4322 ], [ 94.2418, 28.4467 ], [ 94.2316, 28.4281 ], [ 94.2192, 28.4362 ], [ 94.1925, 28.4298 ], [ 94.1846, 28.4294 ], [ 94.1733, 28.435 ], [ 94.1626, 28.4323 ], [ 94.1392, 28.4444 ], [ 94.1264, 28.467 ], [ 94.1149, 28.4757 ], [ 94.1056, 28.4975 ], [ 94.1091, 28.5031 ], [ 94.1088, 28.5213 ], [ 94.0969, 28.536 ], [ 94.0807, 28.5343 ], [ 94.058, 28.5495 ], [ 94.0014, 28.5777 ], [ 94.0062, 28.6217 ], [ 94.0234, 28.6512 ], [ 94.0156, 28.6685 ], [ 94.0042, 28.6746 ], [ 93.9677, 28.7073 ], [ 93.973, 28.7432 ] ] ] } },
{ "type": "Feature", "properties": { "unit_id": "Z07.3.6.1_1", "name": "None", "district": "Kra Daadi", "did": "arunachal_pradesh:Kra Daadi", "state_key": "arunachal_pradesh" }, "geometry": { "type": "Polygon", "coordinates": [ [ [ 93.5147, 27.6502 ], [ 93.5376, 27.6739 ], [ 93.5323, 27.722 ], [ 93.5095, 27.7429 ], [ 93.5485, 27.7857 ], [ 93.5637, 27.7953 ], [ 93.5799, 27.8124 ], [ 93.5923, 27.8333 ], [ 93.6018, 27.8809 ], [ 93.6018, 27.9076 ], [ 93.5847, 27.9057 ], [ 93.6185, 27.9536 ], [ 93.588, 27.9775 ], [ 93.5702, 28.0572 ], [ 93.5475, 28.0656 ], [ 93.5059, 28.0692 ], [ 93.5059, 28.0767 ], [ 93.4859, 28.1034 ], [ 93.4602, 28.1129 ], [ 93.4469, 28.2005 ], [ 93.4478, 28.282 ], [ 93.453, 28.2719 ], [ 93.4687, 28.2737 ], [ 93.4798, 28.2814 ], [ 93.5096, 28.272 ], [ 93.5425, 28.2678 ], [ 93.557, 28.2605 ], [ 93.5644, 28.262 ], [ 93.5716, 28.2559 ], [ 93.5928, 28.2711 ], [ 93.614, 28.2725 ], [ 93.6299, 28.2625 ], [ 93.6341, 28.2315 ], [ 93.6504, 28.2081 ], [ 93.6507, 28.1974 ], [ 93.6672, 28.2248 ], [ 93.7007, 28.2413 ], [ 93.7351, 28.2856 ], [ 93.7442, 28.2879 ], [ 93.7535, 28.2797 ], [ 93.7603, 28.2815 ], [ 93.7663, 28.2787 ], [ 93.7732, 28.2601 ], [ 93.8098, 28.247 ], [ 93.8305, 28.2463 ], [ 93.8417, 28.2419 ], [ 93.8385, 28.2191 ], [ 93.85, 28.2095 ], [ 93.8504, 28.1916 ], [ 93.8452, 28.1738 ], [ 93.8603, 28.1671 ], [ 93.8719, 28.1539 ], [ 93.8779, 28.1367 ], [ 93.8751, 28.1175 ], [ 93.8912, 28.1032 ], [ 93.8765, 28.0672 ], [ 93.8753, 28.0535 ], [ 93.8855, 28.0424 ], [ 93.8955, 28.0445 ], [ 93.9131, 28.0303 ], [ 93.9192, 28.0173 ], [ 93.9183, 28.0063 ], [ 93.9273, 28.008 ], [ 93.9399, 28.0027 ], [ 93.9462, 27.9898 ], [ 93.9333, 27.9777 ], [ 93.9134, 27.972 ], [ 93.893, 27.9479 ], [ 93.8762, 27.9432 ], [ 93.8718, 27.9367 ], [ 93.8343, 27.9343 ], [ 93.8124, 27.928 ], [ 93.8041, 27.931 ], [ 93.7849, 27.9113 ], [ 93.7768, 27.9127 ], [ 93.7612, 27.9001 ], [ 93.7411, 27.8971 ], [ 93.7299, 27.9004 ], [ 93.7222, 27.9307 ], [ 93.6966, 27.9383 ], [ 93.6844, 27.9164 ], [ 93.6905, 27.8976 ], [ 93.6796, 27.8627 ], [ 93.6855, 27.8352 ], [ 93.6804, 27.8282 ], [ 93.6748, 27.8267 ], [ 93.6748, 27.8209 ], [ 93.6598, 27.8109 ], [ 93.6542, 27.7953 ], [ 93.665, 27.7798 ], [ 93.6735, 27.7782 ], [ 93.6857, 27.7673 ], [ 93.6893, 27.76 ], [ 93.6861, 27.7551 ], [ 93.6993, 27.7583 ], [ 93.7196, 27.7545 ], [ 93.7178, 27.7407 ], [ 93.7043, 27.7279 ], [ 93.7006, 27.7032 ], [ 93.7138, 27.679 ], [ 93.706, 27.6692 ], [ 93.6809, 27.6686 ], [ 93.6616, 27.6464 ], [ 93.645, 27.6462 ], [ 93.6204, 27.6282 ], [ 93.6125, 27.6282 ], [ 93.5987, 27.6115 ], [ 93.5681, 27.5994 ], [ 93.5584, 27.6034 ], [ 93.5147, 27.6502 ] ] ] } },
{ "type": "Feature", "properties": { "unit_id": "Z07.3.6.1_1", "name": "None", "district": "Kurung Kumey", "did": "arunachal_pradesh:Kurung Kumey", "state_key": "arunachal_pradesh" }, "geometry": { "type": "Polygon", "coordinates": [ [ [ 92.8185, 28.2103 ], [ 92.8181, 28.1912 ], [ 92.8256, 28.1791 ], [ 92.8526, 28.1826 ], [ 92.9057, 28.2119 ], [ 92.9135, 28.2318 ], [ 92.9228, 28.24 ], [ 92.9627, 28.2586 ], [ 92.9759, 28.2588 ], [ 92.9841, 28.2524 ], [ 92.9973, 28.2294 ], [ 93.0283, 28.2687 ], [ 93.0223, 28.3104 ], [ 93.0497, 28.3027 ], [ 93.0719, 28.3077 ], [ 93.0905, 28.3059 ], [ 93.1104, 28.3121 ], [ 93.1222, 28.3284 ], [ 93.1608, 28.3192 ], [ 93.1894, 28.3183 ], [ 93.2065, 28.3216 ], [ 93.218, 28.3261 ], [ 93.2294, 28.3444 ], [ 93.2395, 28.3508 ], [ 93.2457, 28.3608 ], [ 93.2598, 28.367 ], [ 93.2829, 28.3648 ], [ 93.2942, 28.3403 ], [ 93.3369, 28.3533 ], [ 93.3443, 28.3454 ], [ 93.3605, 28.3436 ], [ 93.3609, 28.3298 ], [ 93.3786, 28.3234 ], [ 93.3789, 28.3115 ], [ 93.384, 28.3127 ], [ 93.3863, 28.3063 ], [ 93.4002, 28.3091 ], [ 93.4086, 28.3067 ], [ 93.4143, 28.2884 ], [ 93.4317, 28.2799 ], [ 93.4478, 28.282 ], [ 93.4469, 28.2005 ], [ 93.4602, 28.1129 ], [ 93.4859, 28.1034 ], [ 93.5059, 28.0767 ], [ 93.5059, 28.0692 ], [ 93.5475, 28.0656 ], [ 93.5702, 28.0572 ], [ 93.588, 27.9775 ], [ 93.6185, 27.9536 ], [ 93.5847, 27.9057 ], [ 93.6018, 27.9076 ], [ 93.6018, 27.8809 ], [ 93.5923, 27.8333 ], [ 93.5799, 27.8124 ], [ 93.5637, 27.7953 ], [ 93.5485, 27.7857 ], [ 93.5095, 27.7429 ], [ 93.5323, 27.722 ], [ 93.5376, 27.6739 ], [ 93.5147, 27.6502 ], [ 93.5584, 27.6034 ], [ 93.5469, 27.5977 ], [ 93.5328, 27.5981 ], [ 93.5256, 27.61 ], [ 93.5057, 27.6154 ], [ 93.4681, 27.6043 ], [ 93.4619, 27.6139 ], [ 93.4304, 27.6305 ], [ 93.4213, 27.6276 ], [ 93.4066, 27.6297 ], [ 93.379, 27.6208 ], [ 93.3589, 27.631 ], [ 93.3502, 27.6297 ], [ 93.3408, 27.6332 ], [ 93.3036, 27.6188 ], [ 93.2823, 27.5993 ], [ 93.2788, 27.6007 ], [ 93.2783, 27.5968 ], [ 93.2719, 27.5947 ], [ 93.2569, 27.5952 ], [ 93.2451, 27.5996 ], [ 93.2418, 27.6045 ], [ 93.23, 27.6044 ], [ 93.2389, 27.6148 ], [ 93.228, 27.638 ], [ 93.2283, 27.6481 ], [ 93.2129, 27.6565 ], [ 93.1948, 27.6761 ], [ 93.2068, 27.6859 ], [ 93.2098, 27.6906 ], [ 93.2074, 27.6954 ], [ 93.2115, 27.6952 ], [ 93.2236, 27.7133 ], [ 93.2031, 27.7298 ], [ 93.2303, 27.7749 ], [ 93.2369, 27.7966 ], [ 93.2218, 27.8307 ], [ 93.2069, 27.836 ], [ 93.1969, 27.8461 ], [ 93.1884, 27.8446 ], [ 93.186, 27.8321 ], [ 93.1745, 27.8212 ], [ 93.1597, 27.8184 ], [ 93.1307, 27.8231 ], [ 93.125, 27.819 ], [ 93.109, 27.8193 ], [ 93.0955, 27.8106 ], [ 93.0726, 27.8288 ], [ 93.0124, 27.8189 ], [ 93.0044, 27.8252 ], [ 92.9829, 27.8202 ], [ 92.9669, 27.826 ], [ 92.9602, 27.8424 ], [ 92.9473, 27.8414 ], [ 92.945, 27.845 ], [ 92.938, 27.8706 ], [ 92.9316, 27.875 ], [ 92.9307, 27.9196 ], [ 92.8799, 27.9382 ], [ 92.8593, 27.9488 ], [ 92.8597, 27.9563 ], [ 92.8219, 27.9589 ], [ 92.788, 27.9504 ], [ 92.758, 27.957 ], [ 92.7383, 27.9723 ], [ 92.7326, 27.9791 ], [ 92.7424, 27.9926 ], [ 92.7353, 28.0114 ], [ 92.7207, 28.0305 ], [ 92.7004, 28.0486 ], [ 92.6702, 28.0608 ], [ 92.6653, 28.07 ], [ 92.6797, 28.1192 ], [ 92.6879, 28.1274 ], [ 92.7461, 28.1581 ], [ 92.7859, 28.1865 ], [ 92.806, 28.2069 ], [ 92.8185, 28.2103 ] ] ] } },
{ "type": "Feature", "properties": { "unit_id": "Z07.3.13.1_1", "name": "None", "district": "Tawang", "did": "arunachal_pradesh:Tawang", "state_key": "arunachal_pradesh" }, "geometry": { "type": "Polygon", "coordinates": [ [ [ 92.4705, 27.7844 ], [ 92.4654, 27.7714 ], [ 92.4686, 27.7652 ], [ 92.4567, 27.7555 ], [ 92.4646, 27.751 ], [ 92.462, 27.7425 ], [ 92.4468, 27.7342 ], [ 92.4409, 27.7394 ], [ 92.4145, 27.7465 ], [ 92.4132, 27.7335 ], [ 92.4047, 27.724 ], [ 92.4088, 27.7025 ], [ 92.4003, 27.6939 ], [ 92.3957, 27.6778 ], [ 92.3905, 27.6731 ], [ 92.3612, 27.6634 ], [ 92.3325, 27.6653 ], [ 92.289, 27.6528 ], [ 92.2662, 27.6553 ], [ 92.2441, 27.6681 ], [ 92.2389, 27.6548 ], [ 92.2396, 27.6431 ], [ 92.2441, 27.6397 ], [ 92.2327, 27.6347 ], [ 92.2182, 27.6182 ], [ 92.2313, 27.6031 ], [ 92.2346, 27.5808 ], [ 92.2308, 27.5728 ], [ 92.2095, 27.5609 ], [ 92.1947, 27.5666 ], [ 92.1906, 27.5742 ], [ 92.1683, 27.5728 ], [ 92.1614, 27.5601 ], [ 92.1484, 27.5597 ], [ 92.1408, 27.5424 ], [ 92.1322, 27.5424 ], [ 92.1343, 27.5333 ], [ 92.127, 27.5223 ], [ 92.118, 27.5193 ], [ 92.1158, 27.5149 ], [ 92.1078, 27.5143 ], [ 92.1112, 27.5081 ], [ 92.1088, 27.5033 ], [ 92.104, 27.5038 ], [ 92.1013, 27.4982 ], [ 92.0834, 27.4936 ], [ 92.0487, 27.4748 ], [ 92.026, 27.4698 ], [ 92.0219, 27.4501 ], [ 92.0234, 27.462 ], [ 92.0163, 27.4808 ], [ 92.007, 27.4766 ], [ 91.9947, 27.4785 ], [ 91.9891, 27.4675 ], [ 91.9789, 27.4633 ], [ 91.9728, 27.4672 ], [ 91.9534, 27.46 ], [ 91.9436, 27.4597 ], [ 91.9231, 27.474 ], [ 91.8979, 27.4712 ], [ 91.8877, 27.4762 ], [ 91.8716, 27.4708 ], [ 91.8644, 27.4829 ], [ 91.8551, 27.4821 ], [ 91.8486, 27.4865 ], [ 91.8416, 27.4768 ], [ 91.8253, 27.4679 ], [ 91.8137, 27.4744 ], [ 91.7982, 27.4743 ], [ 91.7808, 27.466 ], [ 91.767, 27.4648 ], [ 91.7681, 27.4737 ], [ 91.763, 27.475 ], [ 91.7522, 27.4757 ], [ 91.7327, 27.4694 ], [ 91.7146, 27.4745 ], [ 91.7178, 27.4851 ], [ 91.7136, 27.4935 ], [ 91.6951, 27.5053 ], [ 91.6592, 27.4835 ], [ 91.6525, 27.483 ], [ 91.645, 27.502 ], [ 91.624, 27.5141 ], [ 91.6139, 27.5318 ], [ 91.6123, 27.5437 ], [ 91.5937, 27.5421 ], [ 91.5822, 27.5568 ], [ 91.5834, 27.5655 ], [ 91.5663, 27.5831 ], [ 91.5702, 27.5945 ], [ 91.5844, 27.6082 ], [ 91.5647, 27.6258 ], [ 91.5641, 27.6414 ], [ 91.5731, 27.6607 ], [ 91.5938, 27.6701 ], [ 91.5962, 27.6798 ], [ 91.6043, 27.6835 ], [ 91.6072, 27.6908 ], [ 91.6285, 27.6994 ], [ 91.6268, 27.7158 ], [ 91.6319, 27.7168 ], [ 91.6389, 27.7358 ], [ 91.635, 27.7469 ], [ 91.6419, 27.7523 ], [ 91.6454, 27.7634 ], [ 91.6378, 27.7803 ], [ 91.6351, 27.8029 ], [ 91.6146, 27.8218 ], [ 91.6004, 27.8227 ], [ 91.5977, 27.818 ], [ 91.5858, 27.8173 ], [ 91.581, 27.812 ], [ 91.566, 27.8186 ], [ 91.567, 27.8259 ], [ 91.5536, 27.8514 ], [ 91.5579, 27.8563 ], [ 91.5699, 27.848 ], [ 91.5755, 27.8643 ], [ 91.5849, 27.8622 ], [ 91.5928, 27.8541 ], [ 91.6023, 27.8641 ], [ 91.6173, 27.8566 ], [ 91.6294, 27.8598 ], [ 91.6632, 27.853 ], [ 91.7098, 27.808 ], [ 91.7613, 27.8 ], [ 91.7878, 27.8078 ], [ 91.8124, 27.8048 ], [ 91.8207, 27.816 ], [ 91.8363, 27.7852 ], [ 91.8507, 27.7762 ], [ 91.852, 27.7597 ], [ 91.8622, 27.7397 ], [ 91.8713, 27.7381 ], [ 91.8824, 27.7272 ], [ 91.8883, 27.7262 ], [ 91.9037, 27.7322 ], [ 91.9277, 27.7226 ], [ 91.95, 27.7374 ], [ 91.9577, 27.7485 ], [ 91.9698, 27.75 ], [ 91.9715, 27.7569 ], [ 91.9935, 27.7712 ], [ 92.0514, 27.7639 ], [ 92.1095, 27.8095 ], [ 92.1587, 27.8396 ], [ 92.2187, 27.8695 ], [ 92.2685, 27.8721 ], [ 92.2775, 27.8691 ], [ 92.2912, 27.8249 ], [ 92.3128, 27.7885 ], [ 92.3851, 27.8006 ], [ 92.3878, 27.8059 ], [ 92.3854, 27.8172 ], [ 92.3898, 27.8214 ], [ 92.4163, 27.8306 ], [ 92.423, 27.8307 ], [ 92.432, 27.821 ], [ 92.4505, 27.8144 ], [ 92.4705, 27.7844 ] ] ] } },
{ "type": "Feature", "properties": { "unit_id": "Z07.3.17.1_1", "name": "None", "district": "West Kameng", "did": "arunachal_pradesh:West Kameng", "state_key": "arunachal_pradesh" }, "geometry": { "type": "Polygon", "coordinates": [ [ [ 92.4409, 27.7394 ], [ 92.4468, 27.7342 ], [ 92.4561, 27.7393 ], [ 92.4731, 27.74 ], [ 92.5121, 27.7216 ], [ 92.512, 27.6972 ], [ 92.5263, 27.6836 ], [ 92.5364, 27.6663 ], [ 92.5308, 27.6365 ], [ 92.5411, 27.6296 ], [ 92.5391, 27.6102 ], [ 92.551, 27.6039 ], [ 92.5696, 27.6135 ], [ 92.5873, 27.6173 ], [ 92.5884, 27.6056 ], [ 92.5967, 27.6048 ], [ 92.6128, 27.5936 ], [ 92.6139, 27.5893 ], [ 92.6099, 27.5864 ], [ 92.6222, 27.5717 ], [ 92.6171, 27.5531 ], [ 92.6191, 27.5452 ], [ 92.6388, 27.5437 ], [ 92.6502, 27.532 ], [ 92.6535, 27.5199 ], [ 92.6483, 27.5114 ], [ 92.6538, 27.4908 ], [ 92.6711, 27.4755 ], [ 92.685, 27.473 ], [ 92.6842, 27.4635 ], [ 92.6924, 27.455 ], [ 92.7021, 27.4496 ], [ 92.7143, 27.4504 ], [ 92.7364, 27.4666 ], [ 92.7544, 27.4457 ], [ 92.774, 27.4436 ], [ 92.7858, 27.453 ], [ 92.8037, 27.4464 ], [ 92.8048, 27.4368 ], [ 92.8082, 27.435 ], [ 92.8047, 27.4292 ], [ 92.8108, 27.4256 ], [ 92.8051, 27.419 ], [ 92.8148, 27.4136 ], [ 92.8162, 27.4168 ], [ 92.8205, 27.4119 ], [ 92.8229, 27.3794 ], [ 92.8202, 27.3769 ], [ 92.8119, 27.3789 ], [ 92.8145, 27.3546 ], [ 92.8056, 27.3579 ], [ 92.8055, 27.3512 ], [ 92.8002, 27.3502 ], [ 92.8051, 27.3461 ], [ 92.8043, 27.3297 ], [ 92.8204, 27.3129 ], [ 92.84, 27.3038 ], [ 92.8442, 27.2929 ], [ 92.8427, 27.2892 ], [ 92.8239, 27.2869 ], [ 92.8169, 27.2893 ], [ 92.8119, 27.2964 ], [ 92.8057, 27.2951 ], [ 92.8026, 27.2794 ], [ 92.8073, 27.2729 ], [ 92.8004, 27.2673 ], [ 92.7994, 27.2602 ], [ 92.8022, 27.2555 ], [ 92.8174, 27.2535 ], [ 92.8253, 27.2394 ], [ 92.8363, 27.2328 ], [ 92.8278, 27.2247 ], [ 92.8334, 27.2145 ], [ 92.8231, 27.2142 ], [ 92.8156, 27.2037 ], [ 92.8088, 27.2018 ], [ 92.8084, 27.1974 ], [ 92.8146, 27.1927 ], [ 92.8143, 27.1779 ], [ 92.7817, 27.181 ], [ 92.7684, 27.1941 ], [ 92.75, 27.1953 ], [ 92.7168, 27.1759 ], [ 92.6973, 27.1726 ], [ 92.6881, 27.1657 ], [ 92.65, 27.1519 ], [ 92.6247, 27.1488 ], [ 92.6081, 27.1402 ], [ 92.6019, 27.1081 ], [ 92.5943, 27.1046 ], [ 92.6003, 27.0971 ], [ 92.5903, 27.079 ], [ 92.5978, 27.0529 ], [ 92.6239, 27.0287 ], [ 92.6355, 27.0239 ], [ 92.6445, 27.0087 ], [ 92.6448, 26.9867 ], [ 92.6237, 26.9769 ], [ 92.5793, 26.9589 ], [ 92.5542, 26.9574 ], [ 92.4969, 26.9634 ], [ 92.4475, 26.9588 ], [ 92.4258, 26.941 ], [ 92.412, 26.9428 ], [ 92.3983, 26.9247 ], [ 92.3671, 26.9287 ], [ 92.3632, 26.9345 ], [ 92.3231, 26.9275 ], [ 92.3027, 26.9226 ], [ 92.303, 26.9071 ], [ 92.2761, 26.902 ], [ 92.2552, 26.9096 ], [ 92.1948, 26.89 ], [ 92.12, 26.889 ], [ 92.1144, 26.8936 ], [ 92.1178, 26.9089 ], [ 92.1152, 26.9342 ], [ 92.1186, 26.9423 ], [ 92.1135, 26.9505 ], [ 92.121, 26.9604 ], [ 92.1181, 26.9744 ], [ 92.1048, 26.9799 ], [ 92.1082, 26.9898 ], [ 92.1035, 27.004 ], [ 92.0951, 27.0123 ], [ 92.0784, 27.0174 ], [ 92.0817, 27.0408 ], [ 92.0562, 27.0514 ], [ 92.0441, 27.0514 ], [ 92.0308, 27.0799 ], [ 92.0302, 27.0998 ], [ 92.0231, 27.1096 ], [ 92.0358, 27.1349 ], [ 92.0267, 27.1683 ], [ 92.0371, 27.1793 ], [ 92.0584, 27.1903 ], [ 92.0624, 27.2089 ], [ 92.0693, 27.2137 ], [ 92.0726, 27.2331 ], [ 92.0592, 27.2518 ], [ 92.0384, 27.2544 ], [ 92.038, 27.2584 ], [ 92.0452, 27.2686 ], [ 92.0671, 27.2772 ], [ 92.0753, 27.2782 ], [ 92.0869, 27.2693 ], [ 92.0945, 27.2713 ], [ 92.1035, 27.2687 ], [ 92.1199, 27.2718 ], [ 92.125, 27.282 ], [ 92.1202, 27.2903 ], [ 92.0998, 27.3024 ], [ 92.089, 27.3046 ], [ 92.0646, 27.327 ], [ 92.0625, 27.3422 ], [ 92.0528, 27.3513 ], [ 92.055, 27.3527 ], [ 92.0482, 27.3631 ], [ 92.049, 27.3768 ], [ 92.0544, 27.3828 ], [ 92.0548, 27.3961 ], [ 92.0585, 27.3997 ], [ 92.0437, 27.4148 ], [ 92.0425, 27.4352 ], [ 92.0268, 27.4401 ], [ 92.0222, 27.448 ], [ 92.0256, 27.4693 ], [ 92.0487, 27.4748 ], [ 92.0834, 27.4936 ], [ 92.1013, 27.4982 ], [ 92.104, 27.5038 ], [ 92.1088, 27.5033 ], [ 92.1112, 27.5081 ], [ 92.1078, 27.5143 ], [ 92.1158, 27.5149 ], [ 92.118, 27.5193 ], [ 92.127, 27.5223 ], [ 92.1343, 27.5333 ], [ 92.1322, 27.5424 ], [ 92.1408, 27.5424 ], [ 92.1484, 27.5597 ], [ 92.1614, 27.5601 ], [ 92.1683, 27.5728 ], [ 92.1906, 27.5742 ], [ 92.1947, 27.5666 ], [ 92.2095, 27.5609 ], [ 92.2308, 27.5728 ], [ 92.2346, 27.5808 ], [ 92.2313, 27.6031 ], [ 92.2182, 27.6182 ], [ 92.2327, 27.6347 ], [ 92.2441, 27.6397 ], [ 92.2396, 27.6431 ], [ 92.2389, 27.6548 ], [ 92.2441, 27.6681 ], [ 92.2662, 27.6553 ], [ 92.289, 27.6528 ], [ 92.3325, 27.6653 ], [ 92.3606, 27.6634 ], [ 92.3823, 27.6696 ], [ 92.3955, 27.6775 ], [ 92.4, 27.6934 ], [ 92.4088, 27.7025 ], [ 92.4047, 27.724 ], [ 92.4132, 27.7335 ], [ 92.4145, 27.7465 ], [ 92.4232, 27.746 ], [ 92.4359, 27.7387 ], [ 92.4409, 27.7394 ] ] ] } },
{ "type": "Feature", "properties": { "unit_id": "Z07.3.4.1_1", "name": "None", "district": "Pakke Kessang", "did": "arunachal_pradesh:Pakke Kessang", "state_key": "arunachal_pradesh" }, "geometry": { "type": "Polygon", "coordinates": [ [ [ 93.3068, 27.3443 ], [ 93.3001, 27.3343 ], [ 93.2895, 27.3293 ], [ 93.2947, 27.3121 ], [ 93.2944, 27.2905 ], [ 93.2694, 27.2768 ], [ 93.2579, 27.2746 ], [ 93.2513, 27.2662 ], [ 93.2251, 27.2506 ], [ 93.2334, 27.2389 ], [ 93.2245, 27.2369 ], [ 93.2224, 27.2283 ], [ 93.2258, 27.2229 ], [ 93.2199, 27.2155 ], [ 93.2212, 27.2035 ], [ 93.2287, 27.1986 ], [ 93.273, 27.2111 ], [ 93.2999, 27.1869 ], [ 93.2997, 27.1797 ], [ 93.3094, 27.1723 ], [ 93.2943, 27.1633 ], [ 93.2832, 27.163 ], [ 93.2701, 27.1538 ], [ 93.2449, 27.1541 ], [ 93.2289, 27.1406 ], [ 93.2161, 27.1388 ], [ 93.2107, 27.1309 ], [ 93.2155, 27.1142 ], [ 93.2294, 27.1096 ], [ 93.2424, 27.1114 ], [ 93.2593, 27.1081 ], [ 93.272, 27.1035 ], [ 93.2931, 27.0778 ], [ 93.2994, 27.0761 ], [ 93.3125, 27.0793 ], [ 93.3428, 27.0382 ], [ 93.3401, 27.0322 ], [ 93.3441, 27.0108 ], [ 93.3394, 27.0068 ], [ 93.3397, 27.0011 ], [ 93.3606, 26.9818 ], [ 93.3852, 26.9835 ], [ 93.3803, 26.9746 ], [ 93.3866, 26.9723 ], [ 93.3896, 26.9582 ], [ 93.3241, 26.9601 ], [ 93.2617, 26.9535 ], [ 93.1074, 26.9258 ], [ 93.0882, 26.9144 ], [ 93.0627, 26.9223 ], [ 93.0219, 26.9134 ], [ 92.9819, 26.936 ], [ 92.9171, 26.9629 ], [ 92.9184, 26.9823 ], [ 92.8891, 26.9986 ], [ 92.8389, 27.0048 ], [ 92.7935, 27.0228 ], [ 92.7784, 27.0228 ], [ 92.7632, 27.0273 ], [ 92.7229, 27.0182 ], [ 92.6725, 27.0316 ], [ 92.6454, 26.9879 ], [ 92.6445, 27.0087 ], [ 92.6355, 27.0239 ], [ 92.6239, 27.0287 ], [ 92.5978, 27.0529 ], [ 92.5903, 27.079 ], [ 92.6003, 27.0971 ], [ 92.5943, 27.1046 ], [ 92.6019, 27.1081 ], [ 92.6081, 27.1402 ], [ 92.6172, 27.1461 ], [ 92.65, 27.1519 ], [ 92.6881, 27.1657 ], [ 92.6973, 27.1726 ], [ 92.7168, 27.1759 ], [ 92.7466, 27.1943 ], [ 92.7647, 27.1957 ], [ 92.7817, 27.181 ], [ 92.8076, 27.179 ], [ 92.8286, 27.1616 ], [ 92.8393, 27.1319 ], [ 92.8571, 27.1402 ], [ 92.875, 27.1343 ], [ 92.8952, 27.1343 ], [ 92.9583, 27.1581 ], [ 92.9892, 27.1533 ], [ 93.0118, 27.1426 ], [ 93.0297, 27.1569 ], [ 93.0689, 27.1712 ], [ 93.0808, 27.1866 ], [ 93.0725, 27.2033 ], [ 93.0094, 27.2009 ], [ 92.9844, 27.2199 ], [ 93.0023, 27.2497 ], [ 93.1653, 27.3116 ], [ 93.195, 27.3782 ], [ 93.289, 27.3936 ], [ 93.2997, 27.3996 ], [ 93.3299, 27.3547 ], [ 93.3068, 27.3443 ] ] ] } },
{ "type": "Feature", "properties": { "unit_id": "Z07.3.4.1_1", "name": "None", "district": "East Kameng", "did": "arunachal_pradesh:East Kameng", "state_key": "arunachal_pradesh" }, "geometry": { "type": "Polygon", "coordinates": [ [ [ 92.758, 27.957 ], [ 92.788, 27.9504 ], [ 92.8219, 27.9589 ], [ 92.8597, 27.9563 ], [ 92.8593, 27.9488 ], [ 92.8799, 27.9382 ], [ 92.9307, 27.9196 ], [ 92.9316, 27.875 ], [ 92.938, 27.8706 ], [ 92.945, 27.845 ], [ 92.9473, 27.8414 ], [ 92.9602, 27.8424 ], [ 92.9669, 27.826 ], [ 92.9829, 27.8202 ], [ 93.0044, 27.8252 ], [ 93.0124, 27.8189 ], [ 93.0726, 27.8288 ], [ 93.0955, 27.8106 ], [ 93.109, 27.8193 ], [ 93.125, 27.819 ], [ 93.1307, 27.8231 ], [ 93.1597, 27.8184 ], [ 93.1745, 27.8212 ], [ 93.186, 27.8321 ], [ 93.1884, 27.8446 ], [ 93.1969, 27.8461 ], [ 93.2069, 27.836 ], [ 93.2218, 27.8307 ], [ 93.2369, 27.7966 ], [ 93.2303, 27.7749 ], [ 93.2031, 27.7298 ], [ 93.2236, 27.7133 ], [ 93.2115, 27.6952 ], [ 93.2074, 27.6954 ], [ 93.2098, 27.6906 ], [ 93.2068, 27.6859 ], [ 93.1948, 27.6761 ], [ 93.2129, 27.6565 ], [ 93.2283, 27.6481 ], [ 93.228, 27.638 ], [ 93.2389, 27.6148 ], [ 93.23, 27.6044 ], [ 93.2418, 27.6045 ], [ 93.2451, 27.5996 ], [ 93.2569, 27.5952 ], [ 93.2693, 27.5953 ], [ 93.2849, 27.5872 ], [ 93.2814, 27.5782 ], [ 93.2998, 27.5784 ], [ 93.3116, 27.567 ], [ 93.3216, 27.5655 ], [ 93.3301, 27.5545 ], [ 93.3291, 27.5488 ], [ 93.3189, 27.5441 ], [ 93.3162, 27.5338 ], [ 93.2946, 27.523 ], [ 93.3002, 27.5195 ], [ 93.305, 27.5058 ], [ 93.3123, 27.5038 ], [ 93.3268, 27.4627 ], [ 93.3243, 27.4516 ], [ 93.3151, 27.4432 ], [ 93.3302, 27.4437 ], [ 93.3382, 27.433 ], [ 93.3681, 27.4164 ], [ 93.3728, 27.3869 ], [ 93.368, 27.3794 ], [ 93.3719, 27.3713 ], [ 93.3394, 27.3551 ], [ 93.3299, 27.3547 ], [ 93.2997, 27.3996 ], [ 93.289, 27.3936 ], [ 93.195, 27.3782 ], [ 93.1653, 27.3116 ], [ 93.0023, 27.2497 ], [ 92.9844, 27.2199 ], [ 93.0094, 27.2009 ], [ 93.0725, 27.2033 ], [ 93.0808, 27.1866 ], [ 93.0689, 27.1712 ], [ 93.0297, 27.1569 ], [ 93.0118, 27.1426 ], [ 92.9892, 27.1533 ], [ 92.9583, 27.1581 ], [ 92.8952, 27.1343 ], [ 92.875, 27.1343 ], [ 92.8571, 27.1402 ], [ 92.8393, 27.1319 ], [ 92.8286, 27.1616 ], [ 92.8076, 27.179 ], [ 92.8143, 27.1779 ], [ 92.8146, 27.1927 ], [ 92.8084, 27.1974 ], [ 92.8088, 27.2018 ], [ 92.8156, 27.2037 ], [ 92.8231, 27.2142 ], [ 92.8334, 27.2145 ], [ 92.8278, 27.2247 ], [ 92.8363, 27.2328 ], [ 92.8253, 27.2394 ], [ 92.8174, 27.2535 ], [ 92.8011, 27.2561 ], [ 92.8002, 27.2669 ], [ 92.8073, 27.2729 ], [ 92.8026, 27.2794 ], [ 92.8057, 27.2951 ], [ 92.8119, 27.2964 ], [ 92.8169, 27.2893 ], [ 92.8239, 27.2869 ], [ 92.8427, 27.2892 ], [ 92.8442, 27.2929 ], [ 92.84, 27.3038 ], [ 92.8204, 27.3129 ], [ 92.8043, 27.3297 ], [ 92.8051, 27.3461 ], [ 92.8002, 27.3502 ], [ 92.8055, 27.3512 ], [ 92.8056, 27.3579 ], [ 92.8145, 27.3546 ], [ 92.8119, 27.3789 ], [ 92.8202, 27.3769 ], [ 92.8229, 27.3794 ], [ 92.8205, 27.4119 ], [ 92.8162, 27.4168 ], [ 92.8148, 27.4136 ], [ 92.8051, 27.419 ], [ 92.8108, 27.4256 ], [ 92.8047, 27.4292 ], [ 92.8082, 27.435 ], [ 92.8048, 27.4368 ], [ 92.8037, 27.4464 ], [ 92.7858, 27.453 ], [ 92.774, 27.4436 ], [ 92.7544, 27.4457 ], [ 92.7364, 27.4666 ], [ 92.7143, 27.4504 ], [ 92.7021, 27.4496 ], [ 92.6924, 27.455 ], [ 92.6842, 27.4635 ], [ 92.685, 27.473 ], [ 92.6711, 27.4755 ], [ 92.6538, 27.4908 ], [ 92.6483, 27.5114 ], [ 92.6535, 27.5199 ], [ 92.6502, 27.532 ], [ 92.6388, 27.5437 ], [ 92.6191, 27.5452 ], [ 92.6171, 27.5531 ], [ 92.6222, 27.5717 ], [ 92.6099, 27.5864 ], [ 92.6139, 27.5893 ], [ 92.6128, 27.5936 ], [ 92.5967, 27.6048 ], [ 92.5884, 27.6056 ], [ 92.5873, 27.6173 ], [ 92.5696, 27.6135 ], [ 92.551, 27.6039 ], [ 92.5391, 27.6102 ], [ 92.5411, 27.6296 ], [ 92.5308, 27.6365 ], [ 92.5364, 27.6663 ], [ 92.5263, 27.6836 ], [ 92.512, 27.6972 ], [ 92.5121, 27.7216 ], [ 92.474, 27.7397 ], [ 92.4561, 27.7393 ], [ 92.4619, 27.7423 ], [ 92.4648, 27.7505 ], [ 92.4567, 27.7555 ], [ 92.4686, 27.7652 ], [ 92.4654, 27.7714 ], [ 92.4705, 27.7844 ], [ 92.4505, 27.8144 ], [ 92.466, 27.8178 ], [ 92.4838, 27.8428 ], [ 92.4925, 27.8506 ], [ 92.5034, 27.854 ], [ 92.5277, 27.8485 ], [ 92.5562, 27.8244 ], [ 92.6153, 27.8945 ], [ 92.6577, 27.9019 ], [ 92.6879, 27.9267 ], [ 92.7326, 27.9791 ], [ 92.758, 27.957 ] ] ] } },
{ "type": "Feature", "properties": { "unit_id": "Z07.3.12.1_1", "name": "None", "district": "Papumpare", "did": "arunachal_pradesh:Papumpare", "state_key": "arunachal_pradesh" }, "geometry": { "type": "Polygon", "coordinates": [ [ [ 93.5335, 27.5742 ], [ 93.5449, 27.5637 ], [ 93.5528, 27.5622 ], [ 93.5546, 27.5532 ], [ 93.5671, 27.5369 ], [ 93.5673, 27.529 ], [ 93.5854, 27.5138 ], [ 93.5821, 27.5027 ], [ 93.5854, 27.4965 ], [ 93.5736, 27.4844 ], [ 93.5705, 27.4736 ], [ 93.5881, 27.4637 ], [ 93.6103, 27.4669 ], [ 93.6234, 27.4647 ], [ 93.6119, 27.4507 ], [ 93.5963, 27.4503 ], [ 93.5855, 27.4457 ], [ 93.5832, 27.4391 ], [ 93.5729, 27.4374 ], [ 93.5511, 27.402 ], [ 93.5631, 27.3879 ], [ 93.5751, 27.3935 ], [ 93.5758, 27.3834 ], [ 93.5876, 27.3641 ], [ 93.5883, 27.355 ], [ 93.5966, 27.3492 ], [ 93.5838, 27.3367 ], [ 93.5886, 27.3278 ], [ 93.6094, 27.3226 ], [ 93.6211, 27.312 ], [ 93.6224, 27.3015 ], [ 93.6477, 27.2915 ], [ 93.6861, 27.3062 ], [ 93.6926, 27.3032 ], [ 93.698, 27.3067 ], [ 93.7028, 27.2984 ], [ 93.7177, 27.2972 ], [ 93.7424, 27.3104 ], [ 93.7597, 27.3029 ], [ 93.7666, 27.2959 ], [ 93.7755, 27.2963 ], [ 93.7992, 27.3179 ], [ 93.8184, 27.329 ], [ 93.8295, 27.3226 ], [ 93.8472, 27.3326 ], [ 93.8491, 27.3486 ], [ 93.8301, 27.3582 ], [ 93.825, 27.3775 ], [ 93.8141, 27.3825 ], [ 93.815, 27.3915 ], [ 93.8403, 27.4255 ], [ 93.8727, 27.445 ], [ 93.8747, 27.4583 ], [ 93.8822, 27.4575 ], [ 93.9036, 27.465 ], [ 93.9229, 27.4912 ], [ 93.9366, 27.4879 ], [ 93.9448, 27.4952 ], [ 93.9801, 27.503 ], [ 94.0492, 27.4953 ], [ 94.0879, 27.4952 ], [ 94.1697, 27.5429 ], [ 94.1919, 27.544 ], [ 94.207, 27.5353 ], [ 94.2025, 27.4945 ], [ 94.1893, 27.4924 ], [ 94.1762, 27.4822 ], [ 94.1567, 27.4749 ], [ 94.1594, 27.4616 ], [ 94.1179, 27.4297 ], [ 94.1049, 27.414 ], [ 94.0896, 27.407 ], [ 94.0598, 27.3615 ], [ 94.0303, 27.3457 ], [ 94.0221, 27.3462 ], [ 93.9913, 27.3283 ], [ 93.8994, 27.2391 ], [ 93.8642, 27.1962 ], [ 93.8387, 27.1723 ], [ 93.8253, 27.1685 ], [ 93.806, 27.1488 ], [ 93.8054, 27.1371 ], [ 93.796, 27.1376 ], [ 93.7966, 27.1291 ], [ 93.8032, 27.1328 ], [ 93.8121, 27.1311 ], [ 93.8094, 27.1233 ], [ 93.8199, 27.1228 ], [ 93.8251, 27.1164 ], [ 93.8267, 27.097 ], [ 93.8315, 27.0868 ], [ 93.8378, 27.0854 ], [ 93.8332, 27.0816 ], [ 93.8357, 27.0743 ], [ 93.8292, 27.0668 ], [ 93.822, 27.0678 ], [ 93.815, 27.0615 ], [ 93.8107, 27.0675 ], [ 93.8114, 27.0589 ], [ 93.8034, 27.0581 ], [ 93.7938, 27.0723 ], [ 93.793, 27.0683 ], [ 93.8002, 27.0579 ], [ 93.7952, 27.057 ], [ 93.7944, 27.0619 ], [ 93.7938, 27.0545 ], [ 93.7894, 27.0506 ], [ 93.7838, 27.0515 ], [ 93.7812, 27.0655 ], [ 93.7783, 27.0489 ], [ 93.7709, 27.062 ], [ 93.7719, 27.0541 ], [ 93.7667, 27.0529 ], [ 93.7674, 27.0394 ], [ 93.7234, 27.0208 ], [ 93.6937, 26.989 ], [ 93.6651, 26.9685 ], [ 93.6147, 26.9603 ], [ 93.5867, 26.9505 ], [ 93.5449, 26.9512 ], [ 93.5211, 26.9477 ], [ 93.4891, 26.9362 ], [ 93.4863, 26.9423 ], [ 93.4706, 26.9366 ], [ 93.4625, 26.9379 ], [ 93.4488, 26.9508 ], [ 93.3896, 26.9582 ], [ 93.3866, 26.9723 ], [ 93.3803, 26.9746 ], [ 93.3852, 26.9835 ], [ 93.3606, 26.9818 ], [ 93.3397, 27.0011 ], [ 93.3394, 27.0068 ], [ 93.3441, 27.0108 ], [ 93.3401, 27.0322 ], [ 93.3428, 27.0382 ], [ 93.3125, 27.0793 ], [ 93.2994, 27.0761 ], [ 93.2931, 27.0778 ], [ 93.272, 27.1035 ], [ 93.2593, 27.1081 ], [ 93.2424, 27.1114 ], [ 93.2294, 27.1096 ], [ 93.2155, 27.1142 ], [ 93.2107, 27.1309 ], [ 93.2161, 27.1388 ], [ 93.2289, 27.1406 ], [ 93.2449, 27.1541 ], [ 93.2701, 27.1538 ], [ 93.2832, 27.163 ], [ 93.2943, 27.1633 ], [ 93.3094, 27.1723 ], [ 93.2997, 27.1797 ], [ 93.2999, 27.1869 ], [ 93.273, 27.2111 ], [ 93.2287, 27.1986 ], [ 93.2212, 27.2035 ], [ 93.2199, 27.2155 ], [ 93.2258, 27.2229 ], [ 93.2224, 27.2283 ], [ 93.2245, 27.2369 ], [ 93.2334, 27.2389 ], [ 93.2251, 27.2506 ], [ 93.2513, 27.2662 ], [ 93.2579, 27.2746 ], [ 93.2694, 27.2768 ], [ 93.2944, 27.2905 ], [ 93.2947, 27.3121 ], [ 93.2895, 27.3293 ], [ 93.3001, 27.3343 ], [ 93.3068, 27.3443 ], [ 93.322, 27.3524 ], [ 93.3394, 27.3551 ], [ 93.3719, 27.3713 ], [ 93.368, 27.3794 ], [ 93.3728, 27.3869 ], [ 93.3681, 27.4164 ], [ 93.3382, 27.433 ], [ 93.3302, 27.4437 ], [ 93.3151, 27.4432 ], [ 93.3243, 27.4516 ], [ 93.3268, 27.4627 ], [ 93.3123, 27.5038 ], [ 93.305, 27.5058 ], [ 93.3002, 27.5195 ], [ 93.2946, 27.523 ], [ 93.3162, 27.5338 ], [ 93.3189, 27.5441 ], [ 93.3291, 27.5488 ], [ 93.3301, 27.5545 ], [ 93.3216, 27.5655 ], [ 93.3116, 27.567 ], [ 93.2998, 27.5784 ], [ 93.2814, 27.5782 ], [ 93.2849, 27.5872 ], [ 93.2695, 27.5952 ], [ 93.2783, 27.5968 ], [ 93.2788, 27.6007 ], [ 93.2823, 27.5993 ], [ 93.3036, 27.6188 ], [ 93.3408, 27.6332 ], [ 93.3502, 27.6297 ], [ 93.3589, 27.631 ], [ 93.379, 27.6208 ], [ 93.4066, 27.6297 ], [ 93.4213, 27.6276 ], [ 93.4304, 27.6305 ], [ 93.4619, 27.6139 ], [ 93.467, 27.6047 ], [ 93.4751, 27.6043 ], [ 93.4795, 27.6082 ], [ 93.5092, 27.6153 ], [ 93.5262, 27.6096 ], [ 93.5328, 27.5981 ], [ 93.5335, 27.5742 ] ] ] } }
]
}
