{
"type": "FeatureCollection",
"crs": { "type": "name", "properties": { "name": "urn:ogc:def:crs:OGC:1.3:CRS84" } },
"xy_coordinate_resolution": 0.0001,
"features": [
{ "type": "Feature", "properties": { "unit_id": "IND.25.1.1_1", "name": "Seemapuri", "district": "Shahadra", "did": "delhi:Shahadra", "state_key": "delhi" }, "geometry": { "type": "Polygon", "coordinates": [ [ [ 77.3254, 28.7089 ], [ 77.3233, 28.6986 ], [ 77.3329, 28.682 ], [ 77.3239, 28.6772 ], [ 77.321, 28.6642 ], [ 77.2999, 28.6675 ], [ 77.3044, 28.6893 ], [ 77.2971, 28.6923 ], [ 77.2967, 28.7036 ], [ 77.3048, 28.7129 ], [ 77.3311, 28.7131 ], [ 77.3254, 28.7089 ] ] ] } },
{ "type": "Feature", "properties": { "unit_id": "IND.34.30.1_1", "name": "Karwal Nagar", "district": "North East", "did": "delhi:North East", "state_key": "delhi" }, "geometry": { "type": "Polygon", "coordinates": [ [ [ 77.2219, 28.7774 ], [ 77.2361, 28.7694 ], [ 77.2214, 28.7702 ], [ 77.216, 28.7852 ], [ 77.2285, 28.7865 ], [ 77.2341, 28.7837 ], [ 77.2219, 28.7774 ] ] ] } },
{ "type": "Feature", "properties": { "unit_id": "IND.25.1.1_1", "name": "Karawal Nagar", "district": "North East", "did": "delhi:North East", "state_key": "delhi" }, "geometry": { "type": "Polygon", "coordinates": [ [ [ 77.2361, 28.7694 ], [ 77.2356, 28.7609 ], [ 77.2488, 28.7553 ], [ 77.2564, 28.7562 ], [ 77.2592, 28.75 ], [ 77.2556, 28.7389 ], [ 77.2608, 28.7342 ], [ 77.2775, 28.7346 ], [ 77.2908, 28.7224 ], [ 77.2874, 28.7116 ], [ 77.2807, 28.7112 ], [ 77.2657, 28.7193 ], [ 77.2613, 28.7112 ], [ 77.2554, 28.714 ], [ 77.2378, 28.7123 ], [ 77.2418, 28.7434 ], [ 77.2281, 28.7488 ], [ 77.2277, 28.7447 ], [ 77.2217, 28.7449 ], [ 77.222, 28.7587 ], [ 77.2179, 28.767 ], [ 77.2212, 28.7704 ], [ 77.2361, 28.7694 ] ] ] } },
{ "type": "Feature", "properties": { "unit_id": "IND.25.1.1_1", "name": "Civil Lines", "district": "Central", "did": "delhi:Central", "state_key": "delhi" }, "geometry": { "type": "Polygon", "coordinates": [ [ [ 77.2212, 28.7708 ], [ 77.2179, 28.767 ], [ 77.222, 28.7587 ], [ 77.2217, 28.7449 ], [ 77.2277, 28.7447 ], [ 77.2281, 28.7488 ], [ 77.2418, 28.7434 ], [ 77.2377, 28.7157 ], [ 77.2318, 28.7109 ], [ 77.2299, 28.6995 ], [ 77.2345, 28.6708 ], [ 77.2186, 28.6669 ], [ 77.2173, 28.6638 ], [ 77.2076, 28.6663 ], [ 77.1933, 28.6611 ], [ 77.1869, 28.6488 ], [ 77.1802, 28.6529 ], [ 77.1686, 28.6534 ], [ 77.1791, 28.6743 ], [ 77.1747, 28.6742 ], [ 77.1686, 28.6886 ], [ 77.176, 28.6836 ], [ 77.1882, 28.6946 ], [ 77.197, 28.6847 ], [ 77.204, 28.6852 ], [ 77.2025, 28.6884 ], [ 77.2221, 28.7159 ], [ 77.2154, 28.7266 ], [ 77.1954, 28.7287 ], [ 77.1919, 28.7257 ], [ 77.1902, 28.7318 ], [ 77.1767, 28.7405 ], [ 77.1755, 28.746 ], [ 77.1826, 28.7534 ], [ 77.1745, 28.7597 ], [ 77.1715, 28.7719 ], [ 77.1852, 28.7709 ], [ 77.1982, 28.7839 ], [ 77.2078, 28.7881 ], [ 77.2185, 28.7824 ], [ 77.2212, 28.7708 ] ] ] } },
{ "type": "Feature", "properties": { "unit_id": "IND.25.1.1_1", "name": "Shahdra", "district": "Shahadra", "did": "delhi:Shahadra", "state_key": "delhi" }, "geometry": { "type": "Polygon", "coordinates": [ [ [ 77.2977, 28.6849 ], [ 77.2935, 28.6784 ], [ 77.2798, 28.6818 ], [ 77.274, 28.6725 ], [ 77.2687, 28.6734 ], [ 77.272, 28.697 ], [ 77.2993, 28.692 ], [ 77.2977, 28.6849 ] ] ] } },
{ "type": "Feature", "properties": { "unit_id": "IND.25.1.1_1", "name": "Seelampur", "district": "North East", "did": "delhi:North East", "state_key": "delhi" }, "geometry": { "type": "Polygon", "coordinates": [ [ [ 77.2683, 28.7057 ], [ 77.2652, 28.703 ], [ 77.2712, 28.7012 ], [ 77.272, 28.697 ], [ 77.27, 28.6729 ], [ 77.2587, 28.6701 ], [ 77.2544, 28.6708 ], [ 77.2577, 28.6836 ], [ 77.2505, 28.6833 ], [ 77.2495, 28.6877 ], [ 77.242, 28.6908 ], [ 77.2465, 28.7072 ], [ 77.2509, 28.7059 ], [ 77.2511, 28.7124 ], [ 77.2648, 28.7107 ], [ 77.2683, 28.7057 ] ] ] } },
{ "type": "Feature", "properties": { "unit_id": "IND.25.1.1_1", "name": "Yamuna Vihar", "district": "North East", "did": "delhi:North East", "state_key": "delhi" }, "geometry": { "type": "Polygon", "coordinates": [ [ [ 77.2968, 28.7045 ], [ 77.2971, 28.6923 ], [ 77.2865, 28.6958 ], [ 77.2846, 28.6933 ], [ 77.2798, 28.698 ], [ 77.2715, 28.6971 ], [ 77.2712, 28.7012 ], [ 77.2653, 28.7028 ], [ 77.2683, 28.7057 ], [ 77.2613, 28.711 ], [ 77.2657, 28.7193 ], [ 77.2872, 28.7118 ], [ 77.2968, 28.7045 ] ] ] } },
{ "type": "Feature", "properties": { "unit_id": "IND.25.1.1_1", "name": "Vivek Vihar", "district": "Shahadra", "did": "delhi:Shahadra", "state_key": "delhi" }, "geometry": { "type": "Polygon", "coordinates": [ [ [ 77.2999, 28.6675 ], [ 77.321, 28.6642 ], [ 77.3154, 28.64 ], [ 77.3017, 28.6438 ], [ 77.2892, 28.6579 ], [ 77.2746, 28.6516 ], [ 77.2722, 28.6623 ], [ 77.2612, 28.6563 ], [ 77.2508, 28.6638 ], [ 77.2537, 28.671 ], [ 77.274, 28.6725 ], [ 77.2798, 28.6818 ], [ 77.2935, 28.6784 ], [ 77.2992, 28.6898 ], [ 77.3038, 28.6899 ], [ 77.2999, 28.6675 ] ] ] } },
{ "type": "Feature", "properties": { "unit_id": "IND.25.1.1_1", "name": "Nazul", "district": "Central", "did": "delhi:Central", "state_key": "delhi" }, "geometry": { "type": "Polygon", "coordinates": [ [ [ 77.2527, 28.7104 ], [ 77.2509, 28.7059 ], [ 77.2465, 28.7072 ], [ 77.242, 28.6908 ], [ 77.2495, 28.6877 ], [ 77.2505, 28.6833 ], [ 77.2577, 28.6836 ], [ 77.2501, 28.6654 ], [ 77.2612, 28.6563 ], [ 77.2722, 28.6623 ], [ 77.2745, 28.6516 ], [ 77.2699, 28.6478 ], [ 77.2733, 28.643 ], [ 77.2699, 28.633 ], [ 77.3032, 28.5838 ], [ 77.2984, 28.5802 ], [ 77.2985, 28.5712 ], [ 77.2878, 28.5855 ], [ 77.2781, 28.5851 ], [ 77.2792, 28.5986 ], [ 77.2739, 28.602 ], [ 77.2654, 28.5958 ], [ 77.2652, 28.5917 ], [ 77.2559, 28.6089 ], [ 77.2557, 28.6136 ], [ 77.2595, 28.6146 ], [ 77.2584, 28.6299 ], [ 77.2665, 28.6469 ], [ 77.2629, 28.6544 ], [ 77.2405, 28.6644 ], [ 77.2329, 28.6739 ], [ 77.2299, 28.6995 ], [ 77.2318, 28.7109 ], [ 77.2369, 28.7145 ], [ 77.2505, 28.7133 ], [ 77.2527, 28.7104 ] ] ] } },
{ "type": "Feature", "properties": { "unit_id": "IND.25.1.1_1", "name": "Gandhi Nagar", "district": "East", "did": "delhi:East", "state_key": "delhi" }, "geometry": { "type": "Polygon", "coordinates": [ [ [ 77.2809, 28.6182 ], [ 77.271, 28.6313 ], [ 77.2813, 28.6341 ], [ 77.2864, 28.6211 ], [ 77.2809, 28.6182 ] ] ] } },
{ "type": "Feature", "properties": { "unit_id": "IND.25.1.1_1", "name": "Preet Vihar", "district": "East", "did": "delhi:East", "state_key": "delhi" }, "geometry": { "type": "Polygon", "coordinates": [ [ [ 77.3017, 28.6438 ], [ 77.3163, 28.6412 ], [ 77.3321, 28.6303 ], [ 77.3217, 28.6243 ], [ 77.3032, 28.6251 ], [ 77.2962, 28.6174 ], [ 77.2884, 28.6185 ], [ 77.2813, 28.6341 ], [ 77.2707, 28.6313 ], [ 77.2696, 28.6386 ], [ 77.2733, 28.643 ], [ 77.2707, 28.6498 ], [ 77.2886, 28.6579 ], [ 77.3017, 28.6438 ] ] ] } },
{ "type": "Feature", "properties": { "unit_id": "IND.25.1.1_1", "name": "Mayur Vihar", "district": "East", "did": "delhi:East", "state_key": "delhi" }, "geometry": { "type": "Polygon", "coordinates": [ [ [ 77.3417, 28.6061 ], [ 77.3368, 28.6018 ], [ 77.3134, 28.5966 ], [ 77.3032, 28.5838 ], [ 77.2809, 28.6183 ], [ 77.2864, 28.6211 ], [ 77.2962, 28.6174 ], [ 77.3032, 28.6251 ], [ 77.3217, 28.6243 ], [ 77.3321, 28.6303 ], [ 77.3426, 28.622 ], [ 77.3417, 28.6061 ] ] ] } },
{ "type": "Feature", "properties": { "unit_id": "IND.25.1.1_1", "name": "Defence Colony", "district": "South East", "did": "delhi:South East", "state_key": "delhi" }, "geometry": { "type": "MultiPolygon", "coordinates": [ [ [ [ 77.3013, 28.5281 ], [ 77.294, 28.5192 ], [ 77.2772, 28.5314 ], [ 77.2868, 28.536 ], [ 77.3013, 28.5281 ] ] ], [ [ [ 77.2654, 28.5958 ], [ 77.2739, 28.602 ], [ 77.2793, 28.5985 ], [ 77.2781, 28.5851 ], [ 77.2849, 28.5868 ], [ 77.2893, 28.584 ], [ 77.2985, 28.5712 ], [ 77.2971, 28.566 ], [ 77.303, 28.5542 ], [ 77.2788, 28.5548 ], [ 77.2665, 28.5663 ], [ 77.2489, 28.5521 ], [ 77.2467, 28.559 ], [ 77.2263, 28.5603 ], [ 77.2238, 28.5562 ], [ 77.2229, 28.5613 ], [ 77.2157, 28.5663 ], [ 77.2091, 28.559 ], [ 77.2059, 28.5621 ], [ 77.2102, 28.5802 ], [ 77.2021, 28.5808 ], [ 77.2005, 28.5915 ], [ 77.2061, 28.5875 ], [ 77.2355, 28.5921 ], [ 77.2331, 28.6025 ], [ 77.2426, 28.6082 ], [ 77.2455, 28.6055 ], [ 77.2561, 28.6087 ], [ 77.2652, 28.5917 ], [ 77.2654, 28.5958 ] ] ] ] } },
{ "type": "Feature", "properties": { "unit_id": "IND.25.1.1_1", "name": "Chanakayapuri", "district": "New Delhi", "did": "delhi:New Delhi", "state_key": "delhi" }, "geometry": { "type": "Polygon", "coordinates": [ [ [ 77.2492, 28.6142 ], [ 77.2557, 28.6136 ], [ 77.2561, 28.6087 ], [ 77.2455, 28.6055 ], [ 77.2426, 28.6082 ], [ 77.2331, 28.6025 ], [ 77.2355, 28.5921 ], [ 77.2061, 28.5875 ], [ 77.2005, 28.5915 ], [ 77.2021, 28.5808 ], [ 77.1746, 28.5875 ], [ 77.1684, 28.5954 ], [ 77.1707, 28.6046 ], [ 77.1983, 28.646 ], [ 77.2182, 28.6344 ], [ 77.2236, 28.6364 ], [ 77.2438, 28.625 ], [ 77.2492, 28.6142 ] ] ] } },
{ "type": "Feature", "properties": { "unit_id": "IND.25.1.1_1", "name": "Karol Bagh", "district": "Central", "did": "delhi:Central", "state_key": "delhi" }, "geometry": { "type": "Polygon", "coordinates": [ [ [ 77.2047, 28.6505 ], [ 77.2109, 28.6516 ], [ 77.2117, 28.6441 ], [ 77.2197, 28.6419 ], [ 77.2215, 28.6502 ], [ 77.2345, 28.655 ], [ 77.2302, 28.6323 ], [ 77.2236, 28.6364 ], [ 77.2182, 28.6344 ], [ 77.1984, 28.6461 ], [ 77.1817, 28.6237 ], [ 77.1752, 28.6333 ], [ 77.1754, 28.6421 ], [ 77.1812, 28.6503 ], [ 77.1869, 28.6488 ], [ 77.1931, 28.6576 ], [ 77.2016, 28.6561 ], [ 77.2047, 28.6505 ] ] ] } },
{ "type": "Feature", "properties": { "unit_id": "IND.25.1.1_1", "name": "Kotwali", "district": "Central", "did": "delhi:Central", "state_key": "delhi" }, "geometry": { "type": "Polygon", "coordinates": [ [ [ 77.2659, 28.6492 ], [ 77.2583, 28.6296 ], [ 77.2594, 28.6144 ], [ 77.2492, 28.6142 ], [ 77.2438, 28.625 ], [ 77.2302, 28.6323 ], [ 77.2345, 28.655 ], [ 77.2215, 28.6502 ], [ 77.2197, 28.6419 ], [ 77.2117, 28.6441 ], [ 77.2109, 28.6516 ], [ 77.2047, 28.6505 ], [ 77.2016, 28.6561 ], [ 77.1968, 28.6541 ], [ 77.1931, 28.6576 ], [ 77.1933, 28.6611 ], [ 77.2076, 28.6663 ], [ 77.2173, 28.6638 ], [ 77.2186, 28.6669 ], [ 77.2345, 28.6708 ], [ 77.2629, 28.6544 ], [ 77.2659, 28.6492 ] ] ] } },
{ "type": "Feature", "properties": { "unit_id": "IND.25.1.1_1", "name": "Delhi Cantt", "district": "New Delhi", "did": "delhi:New Delhi", "state_key": "delhi" }, "geometry": { "type": "Polygon", "coordinates": [ [ [ 77.1532, 28.6395 ], [ 77.1655, 28.628 ], [ 77.1767, 28.6301 ], [ 77.1817, 28.6237 ], [ 77.1684, 28.5954 ], [ 77.1834, 28.582 ], [ 77.1686, 28.5846 ], [ 77.1621, 28.5897 ], [ 77.1366, 28.5823 ], [ 77.1428, 28.5757 ], [ 77.1636, 28.5724 ], [ 77.1595, 28.5655 ], [ 77.1648, 28.5604 ], [ 77.163, 28.5572 ], [ 77.1468, 28.5643 ], [ 77.142, 28.5534 ], [ 77.1165, 28.5581 ], [ 77.1102, 28.5529 ], [ 77.0908, 28.563 ], [ 77.0839, 28.5614 ], [ 77.0831, 28.5543 ], [ 77.0705, 28.5482 ], [ 77.0506, 28.5589 ], [ 77.0588, 28.5715 ], [ 77.0656, 28.5698 ], [ 77.0695, 28.5749 ], [ 77.0811, 28.5712 ], [ 77.0962, 28.5915 ], [ 77.1045, 28.5872 ], [ 77.1055, 28.5952 ], [ 77.0988, 28.601 ], [ 77.1039, 28.6128 ], [ 77.1153, 28.6182 ], [ 77.1253, 28.6389 ], [ 77.1497, 28.6373 ], [ 77.1532, 28.6395 ] ] ] } },
{ "type": "Feature", "properties": { "unit_id": "IND.25.1.1_1", "name": "Rajouri Garden", "district": "West", "did": "delhi:West", "state_key": "delhi" }, "geometry": { "type": "Polygon", "coordinates": [ [ [ 77.1253, 28.6384 ], [ 77.1153, 28.6182 ], [ 77.1039, 28.6128 ], [ 77.089, 28.6187 ], [ 77.0837, 28.6288 ], [ 77.0895, 28.629 ], [ 77.092, 28.6351 ], [ 77.0834, 28.6409 ], [ 77.0884, 28.6466 ], [ 77.1002, 28.6408 ], [ 77.1128, 28.6518 ], [ 77.1253, 28.6384 ] ] ] } },
{ "type": "Feature", "properties": { "unit_id": "IND.25.1.1_1", "name": "Patel Nagar", "district": "West", "did": "delhi:West", "state_key": "delhi" }, "geometry": { "type": "Polygon", "coordinates": [ [ [ 77.1639, 28.6623 ], [ 77.1589, 28.6581 ], [ 77.1693, 28.6531 ], [ 77.1802, 28.6529 ], [ 77.1753, 28.6419 ], [ 77.1767, 28.6301 ], [ 77.1655, 28.628 ], [ 77.1532, 28.6395 ], [ 77.1253, 28.6389 ], [ 77.1122, 28.6521 ], [ 77.1002, 28.6408 ], [ 77.0884, 28.6466 ], [ 77.0834, 28.6409 ], [ 77.092, 28.6351 ], [ 77.0895, 28.629 ], [ 77.0837, 28.6287 ], [ 77.0895, 28.6177 ], [ 77.0797, 28.6119 ], [ 77.0641, 28.6212 ], [ 77.0612, 28.6178 ], [ 77.0531, 28.6183 ], [ 77.0523, 28.6074 ], [ 77.0619, 28.5996 ], [ 77.0554, 28.5962 ], [ 77.0363, 28.604 ], [ 77.0342, 28.6165 ], [ 77.0225, 28.621 ], [ 77.0258, 28.6408 ], [ 77.0376, 28.6491 ], [ 77.0534, 28.6498 ], [ 77.0596, 28.6384 ], [ 77.0799, 28.6548 ], [ 77.0929, 28.6547 ], [ 77.1024, 28.661 ], [ 77.1152, 28.6591 ], [ 77.1242, 28.667 ], [ 77.1394, 28.6712 ], [ 77.1485, 28.6692 ], [ 77.1494, 28.6729 ], [ 77.1569, 28.6744 ], [ 77.1639, 28.6623 ] ] ] } },
{ "type": "Feature", "properties": { "unit_id": "IND.25.1.1_1", "name": "Saraswati Vihar", "district": "North West", "did": "delhi:North West", "state_key": "delhi" }, "geometry": { "type": "Polygon", "coordinates": [ [ [ 77.1642, 28.727 ], [ 77.1601, 28.7188 ], [ 77.1641, 28.7126 ], [ 77.1589, 28.7043 ], [ 77.1682, 28.699 ], [ 77.1812, 28.701 ], [ 77.1797, 28.6976 ], [ 77.1857, 28.6939 ], [ 77.176, 28.6836 ], [ 77.1686, 28.6886 ], [ 77.1747, 28.6742 ], [ 77.1791, 28.6743 ], [ 77.1782, 28.6676 ], [ 77.1679, 28.6561 ], [ 77.1589, 28.6581 ], [ 77.1639, 28.6623 ], [ 77.1573, 28.6754 ], [ 77.1494, 28.6729 ], [ 77.1485, 28.6692 ], [ 77.1394, 28.6712 ], [ 77.1221, 28.6823 ], [ 77.1213, 28.6891 ], [ 77.1148, 28.6831 ], [ 77.1077, 28.6885 ], [ 77.1037, 28.6847 ], [ 77.0962, 28.6943 ], [ 77.1023, 28.7055 ], [ 77.1058, 28.7038 ], [ 77.1194, 28.7135 ], [ 77.1257, 28.706 ], [ 77.1453, 28.7291 ], [ 77.1516, 28.7267 ], [ 77.161, 28.7309 ], [ 77.1642, 28.727 ] ] ] } },
{ "type": "Feature", "properties": { "unit_id": "IND.25.1.1_1", "name": "Model Town", "district": "North", "did": "delhi:North", "state_key": "delhi" }, "geometry": { "type": "Polygon", "coordinates": [ [ [ 77.1826, 28.7532 ], [ 77.1755, 28.746 ], [ 77.1767, 28.7405 ], [ 77.1902, 28.7318 ], [ 77.1919, 28.7257 ], [ 77.1954, 28.7287 ], [ 77.2154, 28.7266 ], [ 77.222, 28.7162 ], [ 77.2025, 28.6884 ], [ 77.2038, 28.6851 ], [ 77.197, 28.6847 ], [ 77.1882, 28.6946 ], [ 77.1858, 28.6928 ], [ 77.1797, 28.6976 ], [ 77.1812, 28.701 ], [ 77.1682, 28.699 ], [ 77.1589, 28.7043 ], [ 77.1641, 28.7126 ], [ 77.1601, 28.7188 ], [ 77.1642, 28.727 ], [ 77.1588, 28.7365 ], [ 77.1588, 28.7548 ], [ 77.1747, 28.7595 ], [ 77.1826, 28.7532 ] ] ] } },
{ "type": "Feature", "properties": { "unit_id": "IND.25.1.1_1", "name": "Alipur", "district": "North", "did": "delhi:North", "state_key": "delhi" }, "geometry": { "type": "Polygon", "coordinates": [ [ [ 77.1453, 28.8536 ], [ 77.1424, 28.8389 ], [ 77.1571, 28.8367 ], [ 77.166, 28.8492 ], [ 77.1721, 28.8499 ], [ 77.1754, 28.8583 ], [ 77.2102, 28.8576 ], [ 77.2173, 28.8513 ], [ 77.2166, 28.8415 ], [ 77.2244, 28.8253 ], [ 77.219, 28.8082 ], [ 77.2009, 28.8122 ], [ 77.1993, 28.7977 ], [ 77.2075, 28.7878 ], [ 77.1982, 28.7839 ], [ 77.1863, 28.7712 ], [ 77.1718, 28.7725 ], [ 77.1746, 28.7596 ], [ 77.1588, 28.7548 ], [ 77.1606, 28.7323 ], [ 77.1516, 28.7267 ], [ 77.1453, 28.7291 ], [ 77.1254, 28.706 ], [ 77.1213, 28.7076 ], [ 77.1197, 28.718 ], [ 77.1096, 28.7358 ], [ 77.096, 28.7394 ], [ 77.087, 28.7353 ], [ 77.0835, 28.7391 ], [ 77.1107, 28.7782 ], [ 77.1204, 28.7832 ], [ 77.1218, 28.79 ], [ 77.1124, 28.7941 ], [ 77.12, 28.8014 ], [ 77.1154, 28.8031 ], [ 77.1106, 28.8149 ], [ 77.1179, 28.8144 ], [ 77.1162, 28.8235 ], [ 77.1244, 28.8264 ], [ 77.1312, 28.8343 ], [ 77.1178, 28.8416 ], [ 77.125, 28.8593 ], [ 77.1322, 28.8636 ], [ 77.139, 28.8619 ], [ 77.1453, 28.8536 ] ] ] } },
{ "type": "Feature", "properties": { "unit_id": "IND.25.1.1_1", "name": "Kanjhawala", "district": "North West", "did": "delhi:North West", "state_key": "delhi" }, "geometry": { "type": "Polygon", "coordinates": [ [ [ 76.9693, 28.7971 ], [ 76.9825, 28.7929 ], [ 76.9917, 28.785 ], [ 77.0134, 28.7788 ], [ 77.0117, 28.7632 ], [ 77.0153, 28.755 ], [ 77.0642, 28.7379 ], [ 77.052, 28.7165 ], [ 77.0194, 28.7257 ], [ 77.0058, 28.7117 ], [ 77.0025, 28.7126 ], [ 77.0012, 28.7056 ], [ 77.0127, 28.6953 ], [ 77.0006, 28.6793 ], [ 76.9835, 28.6901 ], [ 76.9745, 28.7021 ], [ 76.968, 28.6994 ], [ 76.9482, 28.713 ], [ 76.9601, 28.7327 ], [ 76.9559, 28.7382 ], [ 76.9583, 28.7432 ], [ 76.9445, 28.7541 ], [ 76.9556, 28.7678 ], [ 76.9498, 28.7771 ], [ 76.9539, 28.7907 ], [ 76.9419, 28.7987 ], [ 76.951, 28.8182 ], [ 76.9677, 28.8113 ], [ 76.9693, 28.7971 ] ] ] } },
{ "type": "Feature", "properties": { "unit_id": "IND.25.1.1_1", "name": "Rohini", "district": "North West", "did": "delhi:North West", "state_key": "delhi" }, "geometry": { "type": "Polygon", "coordinates": [ [ [ 77.1204, 28.715 ], [ 77.1058, 28.7038 ], [ 77.1023, 28.7055 ], [ 77.0962, 28.6943 ], [ 77.0979, 28.6893 ], [ 77.0924, 28.686 ], [ 77.0855, 28.6889 ], [ 77.076, 28.683 ], [ 77.0645, 28.692 ], [ 77.0541, 28.6834 ], [ 77.041, 28.6975 ], [ 77.0127, 28.6953 ], [ 77.0009, 28.7062 ], [ 77.0025, 28.7126 ], [ 77.0058, 28.7117 ], [ 77.0194, 28.7257 ], [ 77.0491, 28.7154 ], [ 77.055, 28.7193 ], [ 77.0642, 28.7379 ], [ 77.0819, 28.7281 ], [ 77.0895, 28.7377 ], [ 77.1096, 28.7358 ], [ 77.1204, 28.715 ] ] ] } },
{ "type": "Feature", "properties": { "unit_id": "IND.25.1.1_1", "name": "Punjabi Bagh", "district": "West", "did": "delhi:West", "state_key": "delhi" }, "geometry": { "type": "Polygon", "coordinates": [ [ [ 77.0001, 28.6792 ], [ 77.0127, 28.6953 ], [ 77.0374, 28.6985 ], [ 77.0451, 28.695 ], [ 77.0541, 28.6834 ], [ 77.0645, 28.692 ], [ 77.076, 28.683 ], [ 77.0837, 28.6884 ], [ 77.0924, 28.686 ], [ 77.0979, 28.6893 ], [ 77.1037, 28.6847 ], [ 77.1077, 28.6885 ], [ 77.1148, 28.6831 ], [ 77.1193, 28.6897 ], [ 77.123, 28.6874 ], [ 77.1221, 28.6823 ], [ 77.1394, 28.6712 ], [ 77.1238, 28.6668 ], [ 77.1152, 28.6591 ], [ 77.1024, 28.661 ], [ 77.0929, 28.6547 ], [ 77.0799, 28.6548 ], [ 77.0596, 28.6384 ], [ 77.0534, 28.6498 ], [ 77.0408, 28.6503 ], [ 77.0258, 28.6408 ], [ 77.022, 28.6265 ], [ 77.0068, 28.6242 ], [ 76.9999, 28.646 ], [ 77.0021, 28.6513 ], [ 76.9887, 28.6608 ], [ 76.9797, 28.6543 ], [ 76.9538, 28.6677 ], [ 76.9648, 28.6963 ], [ 76.9725, 28.7018 ], [ 76.9835, 28.6901 ], [ 77.0001, 28.6792 ] ] ] } },
{ "type": "Feature", "properties": { "unit_id": "IND.25.1.1_1", "name": "Dwarka", "district": "South West", "did": "delhi:South West", "state_key": "delhi" }, "geometry": { "type": "Polygon", "coordinates": [ [ [ 77.022, 28.6265 ], [ 77.0225, 28.621 ], [ 77.0342, 28.6165 ], [ 77.0363, 28.604 ], [ 77.0554, 28.5962 ], [ 77.0619, 28.5996 ], [ 77.0523, 28.6074 ], [ 77.0531, 28.6183 ], [ 77.0612, 28.6178 ], [ 77.0641, 28.6212 ], [ 77.0797, 28.6119 ], [ 77.0895, 28.6181 ], [ 77.0956, 28.6165 ], [ 77.1039, 28.6128 ], [ 77.0988, 28.601 ], [ 77.1055, 28.5952 ], [ 77.1062, 28.5893 ], [ 77.1045, 28.5872 ], [ 77.0962, 28.5915 ], [ 77.0811, 28.5712 ], [ 77.0695, 28.5749 ], [ 77.0656, 28.5698 ], [ 77.0588, 28.5715 ], [ 77.0453, 28.5548 ], [ 77.0382, 28.5556 ], [ 77.0339, 28.5493 ], [ 77.0182, 28.5486 ], [ 77.0139, 28.5502 ], [ 77.0202, 28.5572 ], [ 77.0201, 28.566 ], [ 77.033, 28.5735 ], [ 77.0316, 28.5792 ], [ 77.0187, 28.5846 ], [ 77.0184, 28.592 ], [ 77.0097, 28.5913 ], [ 77.0159, 28.5976 ], [ 77.0112, 28.6061 ], [ 77.0178, 28.6136 ], [ 76.9916, 28.6214 ], [ 77.0016, 28.6294 ], [ 77.0068, 28.6242 ], [ 77.022, 28.6265 ] ] ] } },
{ "type": "Feature", "properties": { "unit_id": "IND.25.1.1_1", "name": "Najafgarh", "district": "South West", "did": "delhi:South West", "state_key": "delhi" }, "geometry": { "type": "Polygon", "coordinates": [ [ [ 76.9797, 28.6543 ], [ 76.9887, 28.6608 ], [ 77.0021, 28.6513 ], [ 76.9999, 28.646 ], [ 77.0069, 28.628 ], [ 77.0046, 28.6252 ], [ 76.9991, 28.6286 ], [ 76.9916, 28.6214 ], [ 77.0178, 28.6136 ], [ 77.0112, 28.6061 ], [ 77.0159, 28.5976 ], [ 76.996, 28.6037 ], [ 76.9849, 28.5938 ], [ 76.981, 28.5966 ], [ 76.9742, 28.5916 ], [ 76.9602, 28.5751 ], [ 76.953, 28.5764 ], [ 76.9515, 28.5884 ], [ 76.9454, 28.5847 ], [ 76.9397, 28.5858 ], [ 76.9374, 28.5732 ], [ 76.9415, 28.5681 ], [ 76.9352, 28.5604 ], [ 76.9377, 28.5577 ], [ 76.9307, 28.5489 ], [ 76.9216, 28.5559 ], [ 76.9088, 28.5576 ], [ 76.904, 28.5463 ], [ 76.9102, 28.5445 ], [ 76.9134, 28.5311 ], [ 76.9107, 28.5279 ], [ 76.8959, 28.5337 ], [ 76.8869, 28.5199 ], [ 76.877, 28.5244 ], [ 76.8647, 28.5435 ], [ 76.8453, 28.5505 ], [ 76.8395, 28.5828 ], [ 76.8643, 28.586 ], [ 76.8883, 28.632 ], [ 76.9065, 28.6238 ], [ 76.9143, 28.6323 ], [ 76.9202, 28.6315 ], [ 76.9348, 28.6184 ], [ 76.9445, 28.6333 ], [ 76.925, 28.6501 ], [ 76.9353, 28.6679 ], [ 76.9527, 28.6688 ], [ 76.9797, 28.6543 ] ] ] } },
{ "type": "Feature", "properties": { "unit_id": "IND.25.1.1_1", "name": "Narela", "district": "North", "did": "delhi:North", "state_key": "delhi" }, "geometry": { "type": "Polygon", "coordinates": [ [ [ 77.1241, 28.8576 ], [ 77.1178, 28.8416 ], [ 77.1312, 28.8343 ], [ 77.1244, 28.8264 ], [ 77.1162, 28.8235 ], [ 77.1179, 28.8144 ], [ 77.1106, 28.8149 ], [ 77.1154, 28.8031 ], [ 77.12, 28.8014 ], [ 77.1124, 28.7941 ], [ 77.1218, 28.79 ], [ 77.1204, 28.7832 ], [ 77.1126, 28.7803 ], [ 77.0938, 28.7568 ], [ 77.0837, 28.7395 ], [ 77.087, 28.7353 ], [ 77.0819, 28.7281 ], [ 77.0582, 28.7422 ], [ 77.0153, 28.755 ], [ 77.0117, 28.7632 ], [ 77.0134, 28.7788 ], [ 76.9917, 28.785 ], [ 76.9825, 28.7929 ], [ 76.9693, 28.7971 ], [ 76.9677, 28.8113 ], [ 76.9618, 28.8149 ], [ 76.9658, 28.8272 ], [ 76.9723, 28.8272 ], [ 76.9797, 28.8212 ], [ 76.9872, 28.8353 ], [ 76.9948, 28.8395 ], [ 77.0233, 28.8394 ], [ 77.0402, 28.8321 ], [ 77.0578, 28.8677 ], [ 77.061, 28.871 ], [ 77.0746, 28.8675 ], [ 77.0827, 28.8835 ], [ 77.0876, 28.8753 ], [ 77.1098, 28.8701 ], [ 77.1241, 28.8576 ] ] ] } },
{ "type": "Feature", "properties": { "unit_id": "IND.25.1.1_1", "name": "Kapashera", "district": "South West", "did": "delhi:South West", "state_key": "delhi" }, "geometry": { "type": "Polygon", "coordinates": [ [ [ 77.0184, 28.592 ], [ 77.0187, 28.5846 ], [ 77.0316, 28.5792 ], [ 77.033, 28.5735 ], [ 77.0201, 28.566 ], [ 77.0202, 28.5572 ], [ 77.0139, 28.5502 ], [ 77.0339, 28.5493 ], [ 77.0382, 28.5556 ], [ 77.0453, 28.5548 ], [ 77.0506, 28.559 ], [ 77.0705, 28.5482 ], [ 77.0713, 28.5438 ], [ 77.0889, 28.5385 ], [ 77.0856, 28.5318 ], [ 77.1036, 28.5181 ], [ 77.0997, 28.511 ], [ 77.0718, 28.5202 ], [ 77.0668, 28.512 ], [ 77.0462, 28.5167 ], [ 77.0485, 28.5207 ], [ 77.043, 28.5247 ], [ 77.0067, 28.5414 ], [ 77.0002, 28.5321 ], [ 77.0171, 28.5208 ], [ 77.0102, 28.5143 ], [ 76.9966, 28.5197 ], [ 76.9904, 28.5135 ], [ 76.9781, 28.5213 ], [ 76.9517, 28.5042 ], [ 76.9273, 28.5105 ], [ 76.9208, 28.507 ], [ 76.9079, 28.5138 ], [ 76.8922, 28.5008 ], [ 76.8807, 28.5055 ], [ 76.8959, 28.5337 ], [ 76.9107, 28.5279 ], [ 76.9134, 28.5311 ], [ 76.9102, 28.5445 ], [ 76.904, 28.5463 ], [ 76.9088, 28.5576 ], [ 76.9216, 28.5559 ], [ 76.9307, 28.5489 ], [ 76.9377, 28.5577 ], [ 76.9352, 28.5604 ], [ 76.9415, 28.5681 ], [ 76.9374, 28.5732 ], [ 76.9397, 28.5858 ], [ 76.9454, 28.5847 ], [ 76.9515, 28.5884 ], [ 76.953, 28.5764 ], [ 76.9602, 28.5751 ], [ 76.9742, 28.5916 ], [ 76.981, 28.5966 ], [ 76.9849, 28.5938 ], [ 76.996, 28.6037 ], [ 77.0146, 28.596 ], [ 77.0098, 28.5911 ], [ 77.0184, 28.592 ] ] ] } },
{ "type": "Feature", "properties": { "unit_id": "IND.25.1.1_1", "name": "Vasant Vihar", "district": "New Delhi", "did": "delhi:New Delhi", "state_key": "delhi" }, "geometry": { "type": "Polygon", "coordinates": [ [ [ 77.1842, 28.5833 ], [ 77.2102, 28.5802 ], [ 77.2059, 28.5621 ], [ 77.2008, 28.5623 ], [ 77.1986, 28.5692 ], [ 77.1924, 28.5626 ], [ 77.183, 28.5607 ], [ 77.1811, 28.5487 ], [ 77.1605, 28.5454 ], [ 77.1749, 28.5359 ], [ 77.1562, 28.5213 ], [ 77.1342, 28.524 ], [ 77.1294, 28.5068 ], [ 77.1434, 28.4975 ], [ 77.15, 28.4995 ], [ 77.1444, 28.4839 ], [ 77.1186, 28.4881 ], [ 77.1207, 28.4959 ], [ 77.0959, 28.5065 ], [ 77.1036, 28.5181 ], [ 77.0856, 28.5318 ], [ 77.0889, 28.5385 ], [ 77.0713, 28.5438 ], [ 77.0705, 28.5482 ], [ 77.0831, 28.5543 ], [ 77.0839, 28.5614 ], [ 77.0908, 28.563 ], [ 77.1102, 28.5529 ], [ 77.1165, 28.5581 ], [ 77.142, 28.5534 ], [ 77.1468, 28.5643 ], [ 77.163, 28.5572 ], [ 77.1648, 28.5604 ], [ 77.1595, 28.5655 ], [ 77.1636, 28.5724 ], [ 77.1428, 28.5757 ], [ 77.1366, 28.5823 ], [ 77.1621, 28.5897 ], [ 77.1803, 28.5809 ], [ 77.1842, 28.5833 ] ] ] } },
{ "type": "Feature", "properties": { "unit_id": "IND.25.1.1_1", "name": "Mehrauli", "district": "South", "did": "delhi:South", "state_key": "delhi" }, "geometry": { "type": "Polygon", "coordinates": [ [ [ 77.1825, 28.5332 ], [ 77.1886, 28.5271 ], [ 77.1873, 28.5219 ], [ 77.1825, 28.523 ], [ 77.1741, 28.5052 ], [ 77.1765, 28.5037 ], [ 77.1719, 28.5027 ], [ 77.1609, 28.4849 ], [ 77.1657, 28.4816 ], [ 77.163, 28.4766 ], [ 77.187, 28.4722 ], [ 77.1795, 28.4434 ], [ 77.1916, 28.4351 ], [ 77.189, 28.424 ], [ 77.1929, 28.4194 ], [ 77.2139, 28.4108 ], [ 77.1905, 28.4072 ], [ 77.1844, 28.4104 ], [ 77.1745, 28.4047 ], [ 77.1652, 28.4142 ], [ 77.1659, 28.4257 ], [ 77.1623, 28.4289 ], [ 77.1483, 28.4374 ], [ 77.1323, 28.4391 ], [ 77.1236, 28.4455 ], [ 77.1218, 28.4585 ], [ 77.1108, 28.4713 ], [ 77.1186, 28.4881 ], [ 77.1444, 28.4839 ], [ 77.15, 28.4995 ], [ 77.1434, 28.4975 ], [ 77.1294, 28.5068 ], [ 77.1342, 28.524 ], [ 77.1562, 28.5213 ], [ 77.1749, 28.5359 ], [ 77.1605, 28.5454 ], [ 77.1996, 28.55 ], [ 77.1825, 28.5332 ] ] ] } },
{ "type": "Feature", "properties": { "unit_id": "IND.25.1.1_1", "name": "Saket", "district": "South", "did": "delhi:South", "state_key": "delhi" }, "geometry": { "type": "Polygon", "coordinates": [ [ [ 77.2015, 28.5208 ], [ 77.2078, 28.5196 ], [ 77.2125, 28.5098 ], [ 77.2225, 28.5021 ], [ 77.2348, 28.507 ], [ 77.235, 28.5154 ], [ 77.2425, 28.5181 ], [ 77.245, 28.5146 ], [ 77.2419, 28.5056 ], [ 77.2494, 28.4823 ], [ 77.2356, 28.4712 ], [ 77.2329, 28.4579 ], [ 77.2344, 28.4547 ], [ 77.2458, 28.4542 ], [ 77.2488, 28.4329 ], [ 77.2526, 28.4329 ], [ 77.2492, 28.4241 ], [ 77.2166, 28.4097 ], [ 77.1929, 28.4194 ], [ 77.189, 28.424 ], [ 77.1916, 28.4351 ], [ 77.1795, 28.4434 ], [ 77.187, 28.4722 ], [ 77.163, 28.4766 ], [ 77.1657, 28.4816 ], [ 77.1609, 28.4844 ], [ 77.1719, 28.5027 ], [ 77.1765, 28.5037 ], [ 77.1741, 28.5052 ], [ 77.1825, 28.523 ], [ 77.1873, 28.5219 ], [ 77.1886, 28.5271 ], [ 77.1825, 28.5332 ], [ 77.1867, 28.5353 ], [ 77.2029, 28.5297 ], [ 77.2015, 28.5208 ] ] ] } },
{ "type": "Feature", "properties": { "unit_id": "IND.25.1.1_1", "name": "Hauz Khas", "district": "South", "did": "delhi:South", "state_key": "delhi" }, "geometry": { "type": "MultiPolygon", "coordinates": [ [ [ [ 77.2468, 28.5535 ], [ 77.2309, 28.5564 ], [ 77.2311, 28.5591 ], [ 77.2467, 28.559 ], [ 77.2468, 28.5535 ] ] ], [ [ [ 77.2008, 28.5623 ], [ 77.2042, 28.5636 ], [ 77.2091, 28.559 ], [ 77.2157, 28.5663 ], [ 77.2229, 28.5613 ], [ 77.2239, 28.5547 ], [ 77.2315, 28.5532 ], [ 77.2351, 28.5342 ], [ 77.2461, 28.5276 ], [ 77.244, 28.5171 ], [ 77.235, 28.5154 ], [ 77.2348, 28.507 ], [ 77.2248, 28.502 ], [ 77.2125, 28.5098 ], [ 77.2078, 28.5196 ], [ 77.2015, 28.5208 ], [ 77.2029, 28.5297 ], [ 77.1867, 28.5353 ], [ 77.2002, 28.5498 ], [ 77.1812, 28.5484 ], [ 77.183, 28.5607 ], [ 77.1924, 28.5626 ], [ 77.199, 28.5692 ], [ 77.2008, 28.5623 ] ] ] ] } },
{ "type": "Feature", "properties": { "unit_id": "IND.25.1.1_1", "name": "Kalkaji", "district": "South East", "did": "delhi:South East", "state_key": "delhi" }, "geometry": { "type": "Polygon", "coordinates": [ [ [ 77.2743, 28.5485 ], [ 77.2701, 28.5381 ], [ 77.2922, 28.5221 ], [ 77.2936, 28.5197 ], [ 77.285, 28.5133 ], [ 77.2878, 28.5073 ], [ 77.2951, 28.5054 ], [ 77.301, 28.4944 ], [ 77.2903, 28.4965 ], [ 77.277, 28.4934 ], [ 77.2695, 28.4866 ], [ 77.2481, 28.4807 ], [ 77.2492, 28.4908 ], [ 77.2419, 28.5056 ], [ 77.2461, 28.5276 ], [ 77.2351, 28.5342 ], [ 77.2315, 28.5532 ], [ 77.2238, 28.5549 ], [ 77.2263, 28.5603 ], [ 77.2489, 28.5521 ], [ 77.2665, 28.5663 ], [ 77.28, 28.5523 ], [ 77.2743, 28.5485 ] ] ] } },
{ "type": "Feature", "properties": { "unit_id": "IND.25.1.1_1", "name": "Sarita Vihar", "district": "South East", "did": "delhi:South East", "state_key": "delhi" }, "geometry": { "type": "Polygon", "coordinates": [ [ [ 77.3209, 28.5409 ], [ 77.334, 28.5254 ], [ 77.3474, 28.5205 ], [ 77.3454, 28.5133 ], [ 77.3268, 28.4901 ], [ 77.3141, 28.4836 ], [ 77.3008, 28.4899 ], [ 77.3008, 28.4975 ], [ 77.285, 28.5133 ], [ 77.2993, 28.5236 ], [ 77.3003, 28.5294 ], [ 77.2914, 28.536 ], [ 77.2767, 28.5328 ], [ 77.2701, 28.5381 ], [ 77.2788, 28.5548 ], [ 77.303, 28.5542 ], [ 77.3209, 28.5409 ] ] ] } }
]
}
