{
"type": "FeatureCollection",
"crs": { "type": "name", "properties": { "name": "urn:ogc:def:crs:OGC:1.3:CRS84" } },
"xy_coordinate_resolution": 0.0001,
"features": [
{ "type": "Feature", "properties": { "unit_id": "IND.10.2.5_1", "name": "Sanguem", "district": "South Goa", "did": "goa:South Goa", "state_key": "goa" }, "geometry": { "type": "Polygon", "coordinates": [ [ [ 74.2755, 15.4492 ], [ 74.2769, 15.4352 ], [ 74.2688, 15.4191 ], [ 74.2783, 15.4057 ], [ 74.2759, 15.3916 ], [ 74.283, 15.3829 ], [ 74.2987, 15.3819 ], [ 74.3232, 15.3677 ], [ 74.3163, 15.363 ], [ 74.3218, 15.3436 ], [ 74.317, 15.3291 ], [ 74.3244, 15.3099 ], [ 74.3364, 15.2949 ], [ 74.3264, 15.2837 ], [ 74.308, 15.2833 ], [ 74.2943, 15.2892 ], [ 74.2934, 15.2845 ], [ 74.2818, 15.2804 ], [ 74.2763, 15.2835 ], [ 74.2715, 15.2811 ], [ 74.261, 15.2602 ], [ 74.2511, 15.2588 ], [ 74.2595, 15.241 ], [ 74.2915, 15.2338 ], [ 74.3016, 15.2243 ], [ 74.2999, 15.2199 ], [ 74.31, 15.2063 ], [ 74.3093, 15.1978 ], [ 74.3174, 15.1838 ], [ 74.2957, 15.1512 ], [ 74.2851, 15.149 ], [ 74.2849, 15.1139 ], [ 74.2827, 15.1067 ], [ 74.2766, 15.1054 ], [ 74.2726, 15.0975 ], [ 74.2797, 15.0881 ], [ 74.2807, 15.0688 ], [ 74.2895, 15.0648 ], [ 74.2965, 15.0412 ], [ 74.2833, 15.0316 ], [ 74.2834, 15.0235 ], [ 74.2665, 15.0069 ], [ 74.2681, 15.002 ], [ 74.2534, 14.9977 ], [ 74.2425, 15.0023 ], [ 74.2365, 15.0093 ], [ 74.2317, 15.0327 ], [ 74.2172, 15.0441 ], [ 74.183, 15.0402 ], [ 74.1935, 15.0621 ], [ 74.1886, 15.0678 ], [ 74.1992, 15.0716 ], [ 74.1909, 15.0803 ], [ 74.1752, 15.0815 ], [ 74.1723, 15.0849 ], [ 74.1788, 15.1069 ], [ 74.1688, 15.1193 ], [ 74.157, 15.1225 ], [ 74.1388, 15.1137 ], [ 74.1289, 15.1232 ], [ 74.1239, 15.1148 ], [ 74.1112, 15.1146 ], [ 74.1035, 15.1064 ], [ 74.097, 15.134 ], [ 74.0857, 15.1346 ], [ 74.0771, 15.1557 ], [ 74.064, 15.1604 ], [ 74.0682, 15.1671 ], [ 74.066, 15.1761 ], [ 74.0876, 15.1819 ], [ 74.0966, 15.1895 ], [ 74.1003, 15.1875 ], [ 74.1068, 15.1897 ], [ 74.1148, 15.1759 ], [ 74.1244, 15.1678 ], [ 74.1313, 15.1714 ], [ 74.1487, 15.1664 ], [ 74.1725, 15.1753 ], [ 74.1755, 15.1847 ], [ 74.1715, 15.1912 ], [ 74.1613, 15.1912 ], [ 74.1524, 15.202 ], [ 74.1409, 15.2092 ], [ 74.1351, 15.2094 ], [ 74.1299, 15.2166 ], [ 74.1283, 15.2257 ], [ 74.1431, 15.2327 ], [ 74.1488, 15.2393 ], [ 74.1442, 15.2387 ], [ 74.1352, 15.252 ], [ 74.128, 15.2477 ], [ 74.1285, 15.2558 ], [ 74.122, 15.2586 ], [ 74.1208, 15.2693 ], [ 74.114, 15.2642 ], [ 74.1037, 15.265 ], [ 74.1003, 15.2683 ], [ 74.1059, 15.2861 ], [ 74.0887, 15.2987 ], [ 74.0913, 15.3033 ], [ 74.0884, 15.316 ], [ 74.0833, 15.322 ], [ 74.0959, 15.3366 ], [ 74.0966, 15.3439 ], [ 74.1057, 15.3457 ], [ 74.0992, 15.3501 ], [ 74.1008, 15.354 ], [ 74.1047, 15.3539 ], [ 74.1016, 15.3577 ], [ 74.1051, 15.3638 ], [ 74.1013, 15.3726 ], [ 74.0942, 15.373 ], [ 74.0954, 15.3785 ], [ 74.0993, 15.3775 ], [ 74.0949, 15.3822 ], [ 74.0913, 15.3807 ], [ 74.0886, 15.3903 ], [ 74.0848, 15.3887 ], [ 74.081, 15.3944 ], [ 74.0769, 15.3904 ], [ 74.0779, 15.3984 ], [ 74.0724, 15.4035 ], [ 74.0752, 15.4083 ], [ 74.0721, 15.4115 ], [ 74.1043, 15.4262 ], [ 74.1106, 15.4179 ], [ 74.1115, 15.4268 ], [ 74.1249, 15.4367 ], [ 74.1338, 15.4336 ], [ 74.139, 15.4378 ], [ 74.1692, 15.4421 ], [ 74.1711, 15.4385 ], [ 74.1795, 15.4361 ], [ 74.1881, 15.4433 ], [ 74.1902, 15.4544 ], [ 74.2002, 15.4654 ], [ 74.2515, 15.4908 ], [ 74.2755, 15.4492 ] ] ] } },
{ "type": "Feature", "properties": { "unit_id": "IND.10.2.1_1", "name": "Kankon", "district": "South Goa", "did": "goa:South Goa", "state_key": "goa" }, "geometry": { "type": "MultiPolygon", "coordinates": [ [ [ [ 74.0856, 14.8984 ], [ 74.0851, 14.8996 ], [ 74.0863, 14.8995 ], [ 74.0856, 14.8984 ] ] ], [ [ [ 73.9811, 15.0979 ], [ 73.9922, 15.0955 ], [ 74.006, 15.098 ], [ 74.0035, 15.0837 ], [ 74.0169, 15.0707 ], [ 74.0101, 15.064 ], [ 74.0151, 15.0521 ], [ 74.0371, 15.0512 ], [ 74.0528, 15.0463 ], [ 74.0613, 15.0513 ], [ 74.0736, 15.053 ], [ 74.0843, 15.0514 ], [ 74.0982, 15.0412 ], [ 74.1119, 15.0595 ], [ 74.137, 15.067 ], [ 74.1435, 15.0643 ], [ 74.1626, 15.0652 ], [ 74.1707, 15.0572 ], [ 74.1616, 15.0481 ], [ 74.177, 15.0399 ], [ 74.2172, 15.0441 ], [ 74.2306, 15.0344 ], [ 74.2358, 15.0103 ], [ 74.2425, 15.0023 ], [ 74.253, 14.9982 ], [ 74.2521, 14.9927 ], [ 74.2643, 14.9785 ], [ 74.2591, 14.9701 ], [ 74.2553, 14.9704 ], [ 74.2526, 14.9591 ], [ 74.2367, 14.9668 ], [ 74.2298, 14.9505 ], [ 74.2175, 14.946 ], [ 74.2137, 14.9477 ], [ 74.2126, 14.9403 ], [ 74.2015, 14.9257 ], [ 74.1917, 14.933 ], [ 74.1948, 14.9399 ], [ 74.1797, 14.9508 ], [ 74.1795, 14.957 ], [ 74.1636, 14.9585 ], [ 74.1542, 14.9434 ], [ 74.1659, 14.9186 ], [ 74.1621, 14.9121 ], [ 74.1401, 14.9232 ], [ 74.1242, 14.9253 ], [ 74.12, 14.9169 ], [ 74.1146, 14.9184 ], [ 74.1048, 14.9129 ], [ 74.1016, 14.9158 ], [ 74.0854, 14.9003 ], [ 74.0811, 14.9091 ], [ 74.0713, 14.9061 ], [ 74.0684, 14.9083 ], [ 74.0671, 14.9058 ], [ 74.0571, 14.9134 ], [ 74.0477, 14.9142 ], [ 74.0427, 14.9208 ], [ 74.0479, 14.9333 ], [ 74.0435, 14.9464 ], [ 74.0484, 14.9491 ], [ 74.05, 14.9575 ], [ 74.0406, 14.9809 ], [ 74.0354, 14.982 ], [ 74.0392, 14.984 ], [ 74.0361, 14.9918 ], [ 74.041, 14.9954 ], [ 74.0354, 14.9923 ], [ 74.0328, 14.9983 ], [ 74.0279, 14.9968 ], [ 74.0296, 15.0008 ], [ 74.0245, 15.0014 ], [ 74.0265, 15.0064 ], [ 74.017, 15.0112 ], [ 74.021, 15.0172 ], [ 74.0175, 15.016 ], [ 74.0137, 15.009 ], [ 73.9978, 15.0199 ], [ 73.9939, 15.0165 ], [ 73.9895, 15.0189 ], [ 73.9863, 15.0275 ], [ 73.9911, 15.0316 ], [ 73.9807, 15.054 ], [ 73.9884, 15.0551 ], [ 73.9803, 15.0547 ], [ 73.975, 15.0489 ], [ 73.9675, 15.0646 ], [ 73.9546, 15.0692 ], [ 73.955, 15.0719 ], [ 73.9327, 15.0772 ], [ 73.9317, 15.0824 ], [ 73.9263, 15.0848 ], [ 73.9129, 15.0836 ], [ 73.9277, 15.0953 ], [ 73.9257, 15.1039 ], [ 73.9185, 15.1062 ], [ 73.9338, 15.1121 ], [ 73.9361, 15.1103 ], [ 73.9379, 15.1169 ], [ 73.9589, 15.0877 ], [ 73.9811, 15.0979 ] ] ] ] } },
{ "type": "Feature", "properties": { "unit_id": "IND.10.2.3_1", "name": "Quepem", "district": "South Goa", "did": "goa:South Goa", "state_key": "goa" }, "geometry": { "type": "Polygon", "coordinates": [ [ [ 74.092, 15.2672 ], [ 74.0997, 15.2685 ], [ 74.1037, 15.265 ], [ 74.114, 15.2642 ], [ 74.121, 15.2691 ], [ 74.122, 15.2586 ], [ 74.1285, 15.2558 ], [ 74.128, 15.2477 ], [ 74.1352, 15.252 ], [ 74.1442, 15.2387 ], [ 74.1489, 15.239 ], [ 74.1283, 15.2257 ], [ 74.1308, 15.215 ], [ 74.1351, 15.2094 ], [ 74.1409, 15.2092 ], [ 74.1524, 15.202 ], [ 74.1613, 15.1912 ], [ 74.1715, 15.1912 ], [ 74.1755, 15.1847 ], [ 74.1725, 15.1753 ], [ 74.1487, 15.1664 ], [ 74.1313, 15.1714 ], [ 74.1244, 15.1678 ], [ 74.1148, 15.1759 ], [ 74.1068, 15.1897 ], [ 74.1003, 15.1875 ], [ 74.0966, 15.1895 ], [ 74.0876, 15.1819 ], [ 74.066, 15.1761 ], [ 74.0682, 15.1671 ], [ 74.064, 15.1604 ], [ 74.0771, 15.1557 ], [ 74.0857, 15.1346 ], [ 74.097, 15.134 ], [ 74.1035, 15.1064 ], [ 74.1112, 15.1146 ], [ 74.1239, 15.1148 ], [ 74.1289, 15.1232 ], [ 74.1388, 15.1137 ], [ 74.157, 15.1225 ], [ 74.17, 15.1181 ], [ 74.1788, 15.1069 ], [ 74.1723, 15.0849 ], [ 74.1752, 15.0815 ], [ 74.1909, 15.0803 ], [ 74.1992, 15.0716 ], [ 74.1886, 15.0678 ], [ 74.1935, 15.0621 ], [ 74.183, 15.0402 ], [ 74.177, 15.0399 ], [ 74.1616, 15.0481 ], [ 74.1707, 15.0572 ], [ 74.1604, 15.0657 ], [ 74.1435, 15.0643 ], [ 74.1361, 15.0669 ], [ 74.1119, 15.0595 ], [ 74.0982, 15.0412 ], [ 74.0843, 15.0514 ], [ 74.0736, 15.053 ], [ 74.0613, 15.0513 ], [ 74.0528, 15.0463 ], [ 74.0371, 15.0512 ], [ 74.0151, 15.0521 ], [ 74.0101, 15.064 ], [ 74.0169, 15.0707 ], [ 74.0035, 15.0837 ], [ 74.006, 15.098 ], [ 73.9922, 15.0955 ], [ 73.9811, 15.0979 ], [ 73.9589, 15.0877 ], [ 73.9385, 15.1169 ], [ 73.9413, 15.1166 ], [ 73.9414, 15.1254 ], [ 73.9363, 15.1313 ], [ 73.9427, 15.134 ], [ 73.9465, 15.1408 ], [ 73.9563, 15.1353 ], [ 73.9638, 15.1408 ], [ 73.9702, 15.1401 ], [ 73.9914, 15.1538 ], [ 74.0012, 15.1565 ], [ 74.0091, 15.1513 ], [ 74.0176, 15.1636 ], [ 74.0244, 15.165 ], [ 74.0233, 15.1713 ], [ 74.0401, 15.1755 ], [ 74.035, 15.1927 ], [ 74.0417, 15.1934 ], [ 74.0482, 15.2003 ], [ 74.0443, 15.2163 ], [ 74.0519, 15.2149 ], [ 74.0637, 15.2225 ], [ 74.0612, 15.2269 ], [ 74.056, 15.2252 ], [ 74.0462, 15.2296 ], [ 74.0444, 15.2462 ], [ 74.0523, 15.2534 ], [ 74.0572, 15.2531 ], [ 74.0588, 15.2592 ], [ 74.0636, 15.2598 ], [ 74.0625, 15.2668 ], [ 74.0687, 15.2666 ], [ 74.0744, 15.2747 ], [ 74.0839, 15.2765 ], [ 74.092, 15.2672 ] ] ] } },
{ "type": "Feature", "properties": { "unit_id": "IND.10.2.2_1", "name": "Sasashti", "district": "South Goa", "did": "goa:South Goa", "state_key": "goa" }, "geometry": { "type": "Polygon", "coordinates": [ [ [ 73.9575, 15.374 ], [ 73.9634, 15.3682 ], [ 73.9778, 15.3665 ], [ 73.9892, 15.3547 ], [ 74.006, 15.3461 ], [ 74.013, 15.3034 ], [ 74.0262, 15.3008 ], [ 74.0394, 15.3061 ], [ 74.0457, 15.2982 ], [ 74.0661, 15.2956 ], [ 74.0712, 15.2911 ], [ 74.0695, 15.284 ], [ 74.0744, 15.275 ], [ 74.0694, 15.2671 ], [ 74.0625, 15.2668 ], [ 74.0637, 15.26 ], [ 74.0588, 15.2592 ], [ 74.0572, 15.2531 ], [ 74.0523, 15.2534 ], [ 74.0444, 15.2462 ], [ 74.0462, 15.2296 ], [ 74.056, 15.2252 ], [ 74.0612, 15.2269 ], [ 74.0637, 15.2225 ], [ 74.0519, 15.2149 ], [ 74.0443, 15.2163 ], [ 74.0482, 15.2003 ], [ 74.0417, 15.1934 ], [ 74.035, 15.1927 ], [ 74.0352, 15.1846 ], [ 74.0411, 15.1767 ], [ 74.0233, 15.1713 ], [ 74.0244, 15.165 ], [ 74.0176, 15.1636 ], [ 74.0091, 15.1513 ], [ 74.0012, 15.1565 ], [ 73.9914, 15.1538 ], [ 73.9568, 15.1354 ], [ 73.9492, 15.1448 ], [ 73.9283, 15.2286 ], [ 73.8966, 15.3238 ], [ 73.9077, 15.3245 ], [ 73.9067, 15.3319 ], [ 73.9148, 15.3354 ], [ 73.9113, 15.3509 ], [ 73.9163, 15.3662 ], [ 73.9256, 15.3644 ], [ 73.9265, 15.3731 ], [ 73.9344, 15.3694 ], [ 73.9575, 15.374 ] ] ] } },
{ "type": "Feature", "properties": { "unit_id": "IND.10.2.4_1", "name": "Mormugao", "district": "South Goa", "did": "goa:South Goa", "state_key": "goa" }, "geometry": { "type": "Polygon", "coordinates": [ [ [ 73.9472, 15.4024 ], [ 73.9551, 15.3887 ], [ 73.9575, 15.374 ], [ 73.9359, 15.3693 ], [ 73.9265, 15.3731 ], [ 73.9256, 15.3644 ], [ 73.9163, 15.3662 ], [ 73.9113, 15.3509 ], [ 73.9148, 15.3356 ], [ 73.9067, 15.3319 ], [ 73.9077, 15.3245 ], [ 73.8966, 15.3238 ], [ 73.8842, 15.3533 ], [ 73.8726, 15.3686 ], [ 73.8639, 15.368 ], [ 73.8633, 15.3649 ], [ 73.8538, 15.3639 ], [ 73.8513, 15.359 ], [ 73.8427, 15.3584 ], [ 73.8318, 15.3695 ], [ 73.8286, 15.368 ], [ 73.8089, 15.3756 ], [ 73.8106, 15.3818 ], [ 73.8096, 15.381 ], [ 73.8092, 15.3798 ], [ 73.8094, 15.3792 ], [ 73.8079, 15.3791 ], [ 73.806, 15.3918 ], [ 73.7906, 15.3939 ], [ 73.792, 15.3989 ], [ 73.7837, 15.4081 ], [ 73.7842, 15.4126 ], [ 73.7896, 15.412 ], [ 73.7918, 15.4175 ], [ 73.786, 15.4373 ], [ 73.8096, 15.4297 ], [ 73.8393, 15.4272 ], [ 73.8621, 15.4174 ], [ 73.8959, 15.41 ], [ 73.9472, 15.4024 ] ] ] } },
{ "type": "Feature", "properties": { "unit_id": "IND.10.1.4_1", "name": "Tiswadi", "district": "North Goa", "did": "goa:North Goa", "state_key": "goa" }, "geometry": { "type": "Polygon", "coordinates": [ [ [ 73.8912, 15.5581 ], [ 73.8953, 15.5554 ], [ 73.8977, 15.5647 ], [ 73.9058, 15.5619 ], [ 73.907, 15.5526 ], [ 73.9288, 15.535 ], [ 73.9493, 15.5483 ], [ 73.9622, 15.5388 ], [ 73.9541, 15.5263 ], [ 73.9448, 15.5233 ], [ 73.9498, 15.5133 ], [ 73.9624, 15.502 ], [ 73.9541, 15.4976 ], [ 73.9559, 15.4862 ], [ 73.9511, 15.4765 ], [ 73.9578, 15.4625 ], [ 73.9466, 15.4548 ], [ 73.9465, 15.4382 ], [ 73.9293, 15.4314 ], [ 73.918, 15.4082 ], [ 73.8646, 15.4167 ], [ 73.8417, 15.4266 ], [ 73.8096, 15.4297 ], [ 73.786, 15.4373 ], [ 73.7897, 15.4638 ], [ 73.7815, 15.4756 ], [ 73.8132, 15.4926 ], [ 73.8189, 15.5048 ], [ 73.8363, 15.5005 ], [ 73.8446, 15.5027 ], [ 73.8511, 15.5206 ], [ 73.8756, 15.5298 ], [ 73.869, 15.5429 ], [ 73.8692, 15.5606 ], [ 73.8857, 15.5682 ], [ 73.8928, 15.5621 ], [ 73.8912, 15.5581 ] ] ] } },
{ "type": "Feature", "properties": { "unit_id": "IND.10.1.5_1", "name": "Pernem", "district": "North Goa", "did": "goa:North Goa", "state_key": "goa" }, "geometry": { "type": "MultiPolygon", "coordinates": [ [ [ [ 73.6908, 15.7292 ], [ 73.6964, 15.7222 ], [ 73.6799, 15.7211 ], [ 73.6811, 15.7246 ], [ 73.677, 15.7263 ], [ 73.6814, 15.7296 ], [ 73.6908, 15.7292 ] ] ], [ [ [ 73.8731, 15.7609 ], [ 73.8757, 15.7513 ], [ 73.8992, 15.746 ], [ 73.907, 15.75 ], [ 73.9148, 15.7454 ], [ 73.9387, 15.7433 ], [ 73.9417, 15.7292 ], [ 73.9523, 15.7144 ], [ 73.9472, 15.7098 ], [ 73.9477, 15.7013 ], [ 73.9438, 15.6975 ], [ 73.9343, 15.7004 ], [ 73.9148, 15.6883 ], [ 73.9021, 15.6999 ], [ 73.8949, 15.7018 ], [ 73.8849, 15.6914 ], [ 73.8842, 15.6821 ], [ 73.8632, 15.6793 ], [ 73.8409, 15.6635 ], [ 73.8402, 15.6462 ], [ 73.8332, 15.6507 ], [ 73.8157, 15.6534 ], [ 73.7967, 15.6476 ], [ 73.7876, 15.6516 ], [ 73.78, 15.6511 ], [ 73.7725, 15.6393 ], [ 73.7552, 15.6318 ], [ 73.7419, 15.6195 ], [ 73.7402, 15.612 ], [ 73.736, 15.6115 ], [ 73.722, 15.6286 ], [ 73.6896, 15.7194 ], [ 73.6992, 15.718 ], [ 73.7167, 15.7244 ], [ 73.7263, 15.717 ], [ 73.7428, 15.7366 ], [ 73.7652, 15.7339 ], [ 73.785, 15.7261 ], [ 73.7932, 15.7372 ], [ 73.7972, 15.7342 ], [ 73.8094, 15.742 ], [ 73.8182, 15.7395 ], [ 73.8266, 15.7434 ], [ 73.8308, 15.754 ], [ 73.8297, 15.7643 ], [ 73.8385, 15.7676 ], [ 73.8439, 15.7811 ], [ 73.8527, 15.7809 ], [ 73.8471, 15.7858 ], [ 73.8557, 15.801 ], [ 73.8675, 15.797 ], [ 73.8648, 15.7908 ], [ 73.8801, 15.7743 ], [ 73.8731, 15.7609 ] ] ] ] } },
{ "type": "Feature", "properties": { "unit_id": "IND.10.1.2_1", "name": "Bardez", "district": "North Goa", "did": "goa:North Goa", "state_key": "goa" }, "geometry": { "type": "Polygon", "coordinates": [ [ [ 73.8996, 15.676 ], [ 73.9042, 15.6661 ], [ 73.9023, 15.6543 ], [ 73.8965, 15.6492 ], [ 73.8807, 15.6466 ], [ 73.881, 15.6433 ], [ 73.8864, 15.6423 ], [ 73.8905, 15.6303 ], [ 73.8986, 15.6294 ], [ 73.9113, 15.6353 ], [ 73.9058, 15.6202 ], [ 73.9087, 15.6135 ], [ 73.9011, 15.6132 ], [ 73.8963, 15.6088 ], [ 73.8874, 15.6132 ], [ 73.8861, 15.6091 ], [ 73.8966, 15.5976 ], [ 73.889, 15.5871 ], [ 73.8873, 15.5764 ], [ 73.8926, 15.5709 ], [ 73.9011, 15.5745 ], [ 73.9046, 15.5624 ], [ 73.8977, 15.5647 ], [ 73.8958, 15.5553 ], [ 73.8857, 15.5682 ], [ 73.8709, 15.5623 ], [ 73.869, 15.5429 ], [ 73.8756, 15.5298 ], [ 73.8511, 15.5206 ], [ 73.8431, 15.5017 ], [ 73.8363, 15.5005 ], [ 73.8189, 15.5048 ], [ 73.8132, 15.4926 ], [ 73.7815, 15.4756 ], [ 73.7757, 15.4891 ], [ 73.7666, 15.4928 ], [ 73.7679, 15.4991 ], [ 73.7554, 15.5451 ], [ 73.7499, 15.5626 ], [ 73.7456, 15.5597 ], [ 73.7415, 15.5631 ], [ 73.7322, 15.5886 ], [ 73.7317, 15.6062 ], [ 73.7447, 15.6057 ], [ 73.7402, 15.612 ], [ 73.7419, 15.6195 ], [ 73.7558, 15.6322 ], [ 73.7621, 15.6325 ], [ 73.7725, 15.6393 ], [ 73.7788, 15.6506 ], [ 73.7864, 15.6519 ], [ 73.7967, 15.6476 ], [ 73.8157, 15.6534 ], [ 73.8332, 15.6507 ], [ 73.8396, 15.646 ], [ 73.8409, 15.6635 ], [ 73.8505, 15.6681 ], [ 73.8558, 15.675 ], [ 73.8647, 15.6798 ], [ 73.8955, 15.6817 ], [ 73.8996, 15.676 ] ] ] } },
{ "type": "Feature", "properties": { "unit_id": "IND.10.1.1_1", "name": "Dicholi", "district": "North Goa", "did": "goa:North Goa", "state_key": "goa" }, "geometry": { "type": "Polygon", "coordinates": [ [ [ 73.9343, 15.7004 ], [ 73.9447, 15.6963 ], [ 73.9595, 15.7 ], [ 73.9678, 15.6607 ], [ 73.9615, 15.6425 ], [ 73.9714, 15.6262 ], [ 73.9604, 15.6185 ], [ 73.9516, 15.6206 ], [ 73.9448, 15.615 ], [ 73.9519, 15.6094 ], [ 73.97, 15.6035 ], [ 73.9735, 15.5959 ], [ 73.9771, 15.5988 ], [ 73.9839, 15.5979 ], [ 73.99, 15.5825 ], [ 73.9978, 15.5819 ], [ 73.9982, 15.5721 ], [ 74.0027, 15.5675 ], [ 74.023, 15.5638 ], [ 74.0264, 15.5666 ], [ 74.0332, 15.565 ], [ 74.0433, 15.5713 ], [ 74.0515, 15.5704 ], [ 74.0557, 15.5659 ], [ 74.0434, 15.5495 ], [ 74.0376, 15.5298 ], [ 74.0519, 15.5109 ], [ 74.0684, 15.5017 ], [ 74.0739, 15.4843 ], [ 74.0925, 15.4737 ], [ 74.0954, 15.468 ], [ 74.0824, 15.4649 ], [ 74.0766, 15.4572 ], [ 74.0914, 15.4461 ], [ 74.0961, 15.4328 ], [ 74.1035, 15.4349 ], [ 74.1066, 15.4412 ], [ 74.1167, 15.4313 ], [ 74.1115, 15.4268 ], [ 74.1106, 15.4179 ], [ 74.1043, 15.4262 ], [ 74.0723, 15.4115 ], [ 74.0644, 15.4115 ], [ 74.0569, 15.4051 ], [ 74.049, 15.4194 ], [ 74.0542, 15.4333 ], [ 74.0482, 15.4322 ], [ 74.0475, 15.4395 ], [ 74.0351, 15.4455 ], [ 74.0349, 15.4504 ], [ 74.0416, 15.4504 ], [ 74.0349, 15.4578 ], [ 74.035, 15.4658 ], [ 74.0263, 15.4728 ], [ 74.0316, 15.4776 ], [ 74.0236, 15.4797 ], [ 74.0202, 15.4933 ], [ 74.0023, 15.4992 ], [ 73.9958, 15.5131 ], [ 73.9712, 15.5244 ], [ 73.9651, 15.5367 ], [ 73.9512, 15.5485 ], [ 73.935, 15.5377 ], [ 73.9266, 15.536 ], [ 73.907, 15.5526 ], [ 73.9016, 15.574 ], [ 73.8969, 15.5749 ], [ 73.8926, 15.5709 ], [ 73.8888, 15.573 ], [ 73.8886, 15.5859 ], [ 73.8966, 15.5976 ], [ 73.8862, 15.6087 ], [ 73.8874, 15.6132 ], [ 73.8963, 15.6088 ], [ 73.9011, 15.6132 ], [ 73.9087, 15.6135 ], [ 73.9058, 15.6202 ], [ 73.9113, 15.635 ], [ 73.8986, 15.6294 ], [ 73.8905, 15.6303 ], [ 73.8864, 15.6423 ], [ 73.881, 15.6433 ], [ 73.8807, 15.6466 ], [ 73.9014, 15.6522 ], [ 73.9042, 15.6661 ], [ 73.8955, 15.6817 ], [ 73.8851, 15.683 ], [ 73.8844, 15.6903 ], [ 73.896, 15.7019 ], [ 73.9156, 15.6883 ], [ 73.9343, 15.7004 ] ] ] } },
{ "type": "Feature", "properties": { "unit_id": "IND.10.1.7_1", "name": "Satari", "district": "North Goa", "did": "goa:North Goa", "state_key": "goa" }, "geometry": { "type": "Polygon", "coordinates": [ [ [ 74.1904, 15.6763 ], [ 74.1861, 15.6745 ], [ 74.1868, 15.6674 ], [ 74.2041, 15.6637 ], [ 74.2018, 15.6563 ], [ 74.2051, 15.651 ], [ 74.2222, 15.6556 ], [ 74.2151, 15.6629 ], [ 74.2238, 15.669 ], [ 74.2284, 15.6644 ], [ 74.2364, 15.6686 ], [ 74.2449, 15.6582 ], [ 74.2504, 15.6573 ], [ 74.2442, 15.6261 ], [ 74.2483, 15.6229 ], [ 74.2537, 15.6267 ], [ 74.2643, 15.6155 ], [ 74.26, 15.6067 ], [ 74.2602, 15.5926 ], [ 74.2487, 15.5804 ], [ 74.2452, 15.5666 ], [ 74.2497, 15.5677 ], [ 74.2583, 15.5617 ], [ 74.2632, 15.5639 ], [ 74.2779, 15.5461 ], [ 74.2823, 15.5274 ], [ 74.2749, 15.5131 ], [ 74.2538, 15.5017 ], [ 74.2515, 15.4904 ], [ 74.232, 15.4829 ], [ 74.2229, 15.4745 ], [ 74.1967, 15.4624 ], [ 74.1902, 15.4544 ], [ 74.1881, 15.4433 ], [ 74.1795, 15.4361 ], [ 74.1711, 15.4385 ], [ 74.1692, 15.4421 ], [ 74.1562, 15.4386 ], [ 74.1536, 15.4409 ], [ 74.1487, 15.4374 ], [ 74.139, 15.4378 ], [ 74.1338, 15.4336 ], [ 74.1249, 15.4367 ], [ 74.1173, 15.4303 ], [ 74.1066, 15.4412 ], [ 74.1035, 15.4349 ], [ 74.0962, 15.4327 ], [ 74.0914, 15.4461 ], [ 74.0765, 15.4577 ], [ 74.0824, 15.4649 ], [ 74.0954, 15.468 ], [ 74.0925, 15.4737 ], [ 74.0739, 15.4843 ], [ 74.0684, 15.5017 ], [ 74.0519, 15.5109 ], [ 74.0376, 15.5298 ], [ 74.0434, 15.5495 ], [ 74.0557, 15.5659 ], [ 74.0515, 15.5704 ], [ 74.0433, 15.5713 ], [ 74.0332, 15.565 ], [ 74.0264, 15.5666 ], [ 74.023, 15.5638 ], [ 74.0027, 15.5675 ], [ 73.9982, 15.5721 ], [ 73.9978, 15.5819 ], [ 73.99, 15.5825 ], [ 73.9839, 15.5979 ], [ 73.9771, 15.5988 ], [ 73.9735, 15.5959 ], [ 73.97, 15.6035 ], [ 73.9519, 15.6094 ], [ 73.9447, 15.6169 ], [ 73.9516, 15.6206 ], [ 73.9604, 15.6185 ], [ 73.9708, 15.6274 ], [ 73.9791, 15.6271 ], [ 73.9934, 15.6106 ], [ 74.0088, 15.6102 ], [ 74.0208, 15.6061 ], [ 74.0312, 15.6226 ], [ 74.0616, 15.6285 ], [ 74.0634, 15.6265 ], [ 74.0658, 15.6297 ], [ 74.0785, 15.6318 ], [ 74.0943, 15.6424 ], [ 74.1139, 15.6461 ], [ 74.1176, 15.6521 ], [ 74.1355, 15.6484 ], [ 74.1491, 15.652 ], [ 74.1544, 15.6499 ], [ 74.1575, 15.6547 ], [ 74.1644, 15.6535 ], [ 74.1674, 15.672 ], [ 74.1798, 15.6815 ], [ 74.1858, 15.681 ], [ 74.1904, 15.6763 ] ] ] } },
{ "type": "Feature", "properties": { "unit_id": "IND.10.1.6_1", "name": "Ponda", "district": "North Goa", "did": "goa:North Goa", "state_key": "goa" }, "geometry": { "type": "Polygon", "coordinates": [ [ [ 73.9958, 15.5131 ], [ 74.0023, 15.4992 ], [ 74.0202, 15.4933 ], [ 74.0236, 15.4797 ], [ 74.0316, 15.4776 ], [ 74.0263, 15.4728 ], [ 74.035, 15.4658 ], [ 74.0349, 15.4578 ], [ 74.0416, 15.4504 ], [ 74.0349, 15.4504 ], [ 74.0351, 15.4455 ], [ 74.0475, 15.4395 ], [ 74.0482, 15.4322 ], [ 74.0542, 15.4333 ], [ 74.049, 15.4194 ], [ 74.0563, 15.4057 ], [ 74.0644, 15.4115 ], [ 74.0721, 15.4115 ], [ 74.0752, 15.4083 ], [ 74.0724, 15.4035 ], [ 74.0779, 15.3984 ], [ 74.0769, 15.3904 ], [ 74.081, 15.3944 ], [ 74.0848, 15.3887 ], [ 74.0886, 15.3903 ], [ 74.0913, 15.3807 ], [ 74.0949, 15.3822 ], [ 74.0992, 15.3777 ], [ 74.0954, 15.3785 ], [ 74.094, 15.3735 ], [ 74.1013, 15.3726 ], [ 74.1051, 15.3638 ], [ 74.1016, 15.3577 ], [ 74.1047, 15.3539 ], [ 74.1008, 15.354 ], [ 74.0992, 15.3501 ], [ 74.1057, 15.3457 ], [ 74.0966, 15.3439 ], [ 74.0959, 15.3366 ], [ 74.0833, 15.322 ], [ 74.0884, 15.316 ], [ 74.0913, 15.3033 ], [ 74.0887, 15.2987 ], [ 74.1059, 15.2861 ], [ 74.1003, 15.2683 ], [ 74.092, 15.2672 ], [ 74.0839, 15.2765 ], [ 74.0754, 15.2734 ], [ 74.0695, 15.284 ], [ 74.0711, 15.2914 ], [ 74.0637, 15.2967 ], [ 74.0457, 15.2982 ], [ 74.0394, 15.3061 ], [ 74.0262, 15.3008 ], [ 74.0138, 15.3027 ], [ 74.0053, 15.3347 ], [ 74.0058, 15.3465 ], [ 73.9892, 15.3547 ], [ 73.9778, 15.3665 ], [ 73.9604, 15.3698 ], [ 73.9481, 15.402 ], [ 73.918, 15.4082 ], [ 73.9293, 15.4314 ], [ 73.9465, 15.4382 ], [ 73.9466, 15.4548 ], [ 73.9578, 15.4625 ], [ 73.9511, 15.4765 ], [ 73.9559, 15.4862 ], [ 73.9541, 15.4976 ], [ 73.9624, 15.502 ], [ 73.9498, 15.5133 ], [ 73.9448, 15.5233 ], [ 73.9541, 15.5263 ], [ 73.9622, 15.5388 ], [ 73.9708, 15.5248 ], [ 73.9958, 15.5131 ] ] ] } }
]
}
