{
"type": "FeatureCollection",
"crs": { "type": "name", "properties": { "name": "urn:ogc:def:crs:OGC:1.3:CRS84" } },
"xy_coordinate_resolution": 0.0001,
"features": [
{ "type": "Feature", "properties": { "unit_id": "IND.30.4.1_1", "name": "Gyalshing", "district": "West", "did": "sikkim:West", "state_key": "sikkim" }, "geometry": { "type": "Polygon", "coordinates": [ [ [ 88.2575, 27.2691 ], [ 88.2587, 27.2617 ], [ 88.254, 27.2514 ], [ 88.2454, 27.2447 ], [ 88.2274, 27.2408 ], [ 88.2127, 27.249 ], [ 88.2092, 27.2448 ], [ 88.2066, 27.249 ], [ 88.1994, 27.2461 ], [ 88.1957, 27.249 ], [ 88.1771, 27.2426 ], [ 88.1712, 27.2331 ], [ 88.161, 27.2496 ], [ 88.1477, 27.2482 ], [ 88.1352, 27.2363 ], [ 88.1276, 27.2437 ], [ 88.11, 27.2378 ], [ 88.0965, 27.2502 ], [ 88.0913, 27.2646 ], [ 88.0849, 27.2701 ], [ 88.0756, 27.2667 ], [ 88.0555, 27.2714 ], [ 88.0475, 27.2677 ], [ 88.0396, 27.2704 ], [ 88.0314, 27.2672 ], [ 88.032, 27.2864 ], [ 88.0446, 27.2932 ], [ 88.0415, 27.3041 ], [ 88.0523, 27.3242 ], [ 88.0669, 27.3358 ], [ 88.0576, 27.3562 ], [ 88.0507, 27.3584 ], [ 88.0418, 27.3703 ], [ 88.0468, 27.4059 ], [ 88.0551, 27.4179 ], [ 88.0741, 27.4268 ], [ 88.0751, 27.4332 ], [ 88.0678, 27.4383 ], [ 88.0724, 27.4458 ], [ 88.0644, 27.4537 ], [ 88.0669, 27.4579 ], [ 88.0441, 27.4781 ], [ 88.0441, 27.4958 ], [ 88.0619, 27.5122 ], [ 88.0584, 27.5204 ], [ 88.0663, 27.5273 ], [ 88.0587, 27.5348 ], [ 88.0688, 27.5463 ], [ 88.0691, 27.5549 ], [ 88.0811, 27.5651 ], [ 88.0755, 27.5716 ], [ 88.0818, 27.5842 ], [ 88.093, 27.5979 ], [ 88.1062, 27.6026 ], [ 88.1128, 27.609 ], [ 88.115, 27.6179 ], [ 88.2097, 27.5813 ], [ 88.232, 27.5571 ], [ 88.2415, 27.5348 ], [ 88.2633, 27.5257 ], [ 88.2816, 27.5129 ], [ 88.2715, 27.5035 ], [ 88.2661, 27.4898 ], [ 88.2666, 27.4618 ], [ 88.2748, 27.4119 ], [ 88.2792, 27.4058 ], [ 88.2841, 27.4051 ], [ 88.3057, 27.4168 ], [ 88.3315, 27.4171 ], [ 88.339, 27.4062 ], [ 88.348, 27.4141 ], [ 88.3576, 27.3993 ], [ 88.3583, 27.3783 ], [ 88.3306, 27.3687 ], [ 88.3227, 27.3493 ], [ 88.2981, 27.3309 ], [ 88.2968, 27.3267 ], [ 88.3107, 27.3157 ], [ 88.311, 27.3057 ], [ 88.3065, 27.2995 ], [ 88.2803, 27.2882 ], [ 88.2784, 27.2816 ], [ 88.2868, 27.2743 ], [ 88.2575, 27.2691 ] ] ] } },
{ "type": "Feature", "properties": { "unit_id": "IND.30.4.1_1", "name": "Soreng", "district": "West", "did": "sikkim:West", "state_key": "sikkim" }, "geometry": { "type": "Polygon", "coordinates": [ [ [ 88.0396, 27.2704 ], [ 88.0475, 27.2677 ], [ 88.0555, 27.2714 ], [ 88.0756, 27.2667 ], [ 88.0849, 27.2701 ], [ 88.0913, 27.2646 ], [ 88.0965, 27.2502 ], [ 88.11, 27.2378 ], [ 88.1276, 27.2437 ], [ 88.1352, 27.2363 ], [ 88.1477, 27.2482 ], [ 88.161, 27.2496 ], [ 88.1712, 27.2331 ], [ 88.1771, 27.2426 ], [ 88.1957, 27.249 ], [ 88.1994, 27.2461 ], [ 88.2066, 27.249 ], [ 88.2092, 27.2448 ], [ 88.2127, 27.249 ], [ 88.2274, 27.2408 ], [ 88.2454, 27.2447 ], [ 88.254, 27.2514 ], [ 88.2587, 27.2617 ], [ 88.2575, 27.2691 ], [ 88.2868, 27.2743 ], [ 88.304, 27.2609 ], [ 88.3032, 27.237 ], [ 88.3077, 27.2261 ], [ 88.323, 27.2205 ], [ 88.3344, 27.1945 ], [ 88.3289, 27.1919 ], [ 88.3286, 27.1876 ], [ 88.3008, 27.1737 ], [ 88.2904, 27.1542 ], [ 88.2822, 27.1488 ], [ 88.2832, 27.1282 ], [ 88.279, 27.1319 ], [ 88.2486, 27.1244 ], [ 88.2418, 27.1195 ], [ 88.23, 27.119 ], [ 88.2157, 27.1317 ], [ 88.2115, 27.1299 ], [ 88.1946, 27.1348 ], [ 88.1759, 27.1298 ], [ 88.1621, 27.1134 ], [ 88.1518, 27.1096 ], [ 88.1498, 27.1139 ], [ 88.1453, 27.1118 ], [ 88.144, 27.1156 ], [ 88.1364, 27.1147 ], [ 88.1352, 27.1206 ], [ 88.1229, 27.1213 ], [ 88.1117, 27.1312 ], [ 88.0963, 27.1331 ], [ 88.0878, 27.1462 ], [ 88.0871, 27.1642 ], [ 88.0774, 27.1729 ], [ 88.0785, 27.1804 ], [ 88.0727, 27.1872 ], [ 88.0793, 27.2008 ], [ 88.0655, 27.2092 ], [ 88.0647, 27.2143 ], [ 88.0528, 27.2134 ], [ 88.0439, 27.2192 ], [ 88.0327, 27.2211 ], [ 88.0143, 27.2129 ], [ 88.0193, 27.2357 ], [ 88.0246, 27.2376 ], [ 88.0278, 27.2495 ], [ 88.0309, 27.2499 ], [ 88.0314, 27.2672 ], [ 88.0396, 27.2704 ] ] ] } },
{ "type": "Feature", "properties": { "unit_id": "IND.30.1.1_1", "name": "Rangli", "district": "East", "did": "sikkim:East", "state_key": "sikkim" }, "geometry": { "type": "Polygon", "coordinates": [ [ [ 88.6073, 27.1954 ], [ 88.6346, 27.1964 ], [ 88.6455, 27.207 ], [ 88.6663, 27.2086 ], [ 88.6745, 27.2179 ], [ 88.696, 27.2242 ], [ 88.7136, 27.2417 ], [ 88.7092, 27.2591 ], [ 88.7175, 27.2817 ], [ 88.7406, 27.2809 ], [ 88.7532, 27.2842 ], [ 88.7611, 27.2895 ], [ 88.7678, 27.3027 ], [ 88.8221, 27.2966 ], [ 88.9087, 27.3038 ], [ 88.9136, 27.2901 ], [ 88.9033, 27.2726 ], [ 88.8997, 27.2742 ], [ 88.8791, 27.2611 ], [ 88.8666, 27.2646 ], [ 88.8314, 27.2622 ], [ 88.8282, 27.2572 ], [ 88.8031, 27.2478 ], [ 88.8033, 27.22 ], [ 88.7891, 27.1938 ], [ 88.7868, 27.182 ], [ 88.7789, 27.1835 ], [ 88.7646, 27.177 ], [ 88.7572, 27.1654 ], [ 88.7601, 27.1522 ], [ 88.7569, 27.1482 ], [ 88.7493, 27.1474 ], [ 88.7386, 27.1354 ], [ 88.729, 27.1363 ], [ 88.7178, 27.1433 ], [ 88.716, 27.16 ], [ 88.7017, 27.1739 ], [ 88.6915, 27.1784 ], [ 88.678, 27.1784 ], [ 88.6603, 27.1606 ], [ 88.6355, 27.1667 ], [ 88.626, 27.1804 ], [ 88.6128, 27.1819 ], [ 88.5982, 27.1896 ], [ 88.6073, 27.1954 ] ] ] } },
{ "type": "Feature", "properties": { "unit_id": "IND.30.3.1_1", "name": "Namchi", "district": "South", "did": "sikkim:South", "state_key": "sikkim" }, "geometry": { "type": "Polygon", "coordinates": [ [ [ 88.3315, 27.2256 ], [ 88.3549, 27.2289 ], [ 88.3684, 27.2247 ], [ 88.3861, 27.225 ], [ 88.3999, 27.2186 ], [ 88.4035, 27.2308 ], [ 88.4148, 27.2181 ], [ 88.4331, 27.2307 ], [ 88.4363, 27.2301 ], [ 88.4319, 27.222 ], [ 88.4416, 27.2205 ], [ 88.4505, 27.2261 ], [ 88.452, 27.2365 ], [ 88.4646, 27.2505 ], [ 88.4808, 27.2467 ], [ 88.4907, 27.2395 ], [ 88.4945, 27.2305 ], [ 88.491, 27.2023 ], [ 88.5037, 27.1851 ], [ 88.5254, 27.1782 ], [ 88.5264, 27.1738 ], [ 88.5208, 27.1729 ], [ 88.5314, 27.1651 ], [ 88.5276, 27.1574 ], [ 88.5335, 27.155 ], [ 88.5325, 27.1503 ], [ 88.5193, 27.1475 ], [ 88.5112, 27.1372 ], [ 88.4997, 27.1309 ], [ 88.4977, 27.1238 ], [ 88.4875, 27.1259 ], [ 88.4851, 27.1209 ], [ 88.4762, 27.1223 ], [ 88.4679, 27.114 ], [ 88.4596, 27.0906 ], [ 88.4505, 27.0839 ], [ 88.4329, 27.0793 ], [ 88.3874, 27.0949 ], [ 88.3587, 27.096 ], [ 88.356, 27.101 ], [ 88.3495, 27.0998 ], [ 88.3414, 27.1101 ], [ 88.3215, 27.1047 ], [ 88.3229, 27.1176 ], [ 88.3157, 27.1259 ], [ 88.3023, 27.1293 ], [ 88.2972, 27.1252 ], [ 88.2838, 27.1275 ], [ 88.2801, 27.1425 ], [ 88.3008, 27.1737 ], [ 88.3286, 27.1876 ], [ 88.3289, 27.1919 ], [ 88.3344, 27.1945 ], [ 88.3239, 27.218 ], [ 88.3315, 27.2256 ] ] ] } },
{ "type": "Feature", "properties": { "unit_id": "IND.30.1.1_1", "name": "Pakhyong", "district": "East", "did": "sikkim:East", "state_key": "sikkim" }, "geometry": { "type": "Polygon", "coordinates": [ [ [ 88.7611, 27.2895 ], [ 88.7532, 27.2842 ], [ 88.7406, 27.2809 ], [ 88.7175, 27.2817 ], [ 88.7092, 27.2591 ], [ 88.7136, 27.2417 ], [ 88.696, 27.2242 ], [ 88.6745, 27.2179 ], [ 88.6663, 27.2086 ], [ 88.6455, 27.207 ], [ 88.6346, 27.1964 ], [ 88.6073, 27.1954 ], [ 88.5956, 27.1878 ], [ 88.5914, 27.1912 ], [ 88.5888, 27.1864 ], [ 88.5859, 27.1904 ], [ 88.5672, 27.1848 ], [ 88.543, 27.1832 ], [ 88.5306, 27.1722 ], [ 88.5254, 27.1782 ], [ 88.5037, 27.1851 ], [ 88.491, 27.2023 ], [ 88.4965, 27.2307 ], [ 88.5037, 27.2323 ], [ 88.5135, 27.2205 ], [ 88.5285, 27.2311 ], [ 88.5423, 27.2332 ], [ 88.5535, 27.24 ], [ 88.5565, 27.245 ], [ 88.5502, 27.2526 ], [ 88.5862, 27.2604 ], [ 88.6071, 27.2436 ], [ 88.6121, 27.2445 ], [ 88.6223, 27.2636 ], [ 88.6379, 27.2615 ], [ 88.6653, 27.2778 ], [ 88.669, 27.299 ], [ 88.7109, 27.3219 ], [ 88.7289, 27.3166 ], [ 88.7457, 27.3067 ], [ 88.7678, 27.3027 ], [ 88.7611, 27.2895 ] ] ] } },
{ "type": "Feature", "properties": { "unit_id": "IND.30.1.1_1", "name": "Gangtok", "district": "East", "did": "sikkim:East", "state_key": "sikkim" }, "geometry": { "type": "Polygon", "coordinates": [ [ [ 88.8221, 27.2966 ], [ 88.7537, 27.3048 ], [ 88.7109, 27.3219 ], [ 88.669, 27.299 ], [ 88.6653, 27.2778 ], [ 88.6379, 27.2615 ], [ 88.6223, 27.2636 ], [ 88.6121, 27.2445 ], [ 88.6071, 27.2436 ], [ 88.5862, 27.2604 ], [ 88.5637, 27.2569 ], [ 88.5502, 27.2526 ], [ 88.5565, 27.245 ], [ 88.5535, 27.24 ], [ 88.5423, 27.2332 ], [ 88.5285, 27.2311 ], [ 88.5135, 27.2205 ], [ 88.5037, 27.2323 ], [ 88.4942, 27.2288 ], [ 88.4907, 27.2395 ], [ 88.4808, 27.2467 ], [ 88.4646, 27.2505 ], [ 88.4469, 27.2612 ], [ 88.4415, 27.2739 ], [ 88.4469, 27.3009 ], [ 88.4544, 27.3153 ], [ 88.4827, 27.3288 ], [ 88.4862, 27.3336 ], [ 88.4882, 27.3425 ], [ 88.4803, 27.3604 ], [ 88.486, 27.3783 ], [ 88.5012, 27.3825 ], [ 88.5232, 27.3971 ], [ 88.5548, 27.3924 ], [ 88.5907, 27.3963 ], [ 88.5997, 27.3907 ], [ 88.6268, 27.3873 ], [ 88.6588, 27.3911 ], [ 88.6751, 27.4002 ], [ 88.6948, 27.3984 ], [ 88.7187, 27.4167 ], [ 88.7314, 27.4193 ], [ 88.7672, 27.4137 ], [ 88.7822, 27.4229 ], [ 88.8048, 27.4152 ], [ 88.8062, 27.4068 ], [ 88.8126, 27.4012 ], [ 88.8184, 27.4015 ], [ 88.8233, 27.3906 ], [ 88.8305, 27.39 ], [ 88.8377, 27.3792 ], [ 88.8458, 27.3849 ], [ 88.861, 27.3865 ], [ 88.8628, 27.3698 ], [ 88.8762, 27.3602 ], [ 88.8811, 27.3604 ], [ 88.8806, 27.3525 ], [ 88.8854, 27.3511 ], [ 88.884, 27.3425 ], [ 88.8915, 27.3391 ], [ 88.8951, 27.3322 ], [ 88.9192, 27.328 ], [ 88.9186, 27.3183 ], [ 88.9087, 27.3038 ], [ 88.8221, 27.2966 ] ] ] } },
{ "type": "Feature", "properties": { "unit_id": "IND.30.2.1_1", "name": "Mangan", "district": "North", "did": "sikkim:North", "state_key": "sikkim" }, "geometry": { "type": "Polygon", "coordinates": [ [ [ 88.7866, 27.4882 ], [ 88.7806, 27.4812 ], [ 88.7837, 27.4748 ], [ 88.777, 27.4681 ], [ 88.7844, 27.4586 ], [ 88.7825, 27.4497 ], [ 88.7963, 27.4473 ], [ 88.7917, 27.4384 ], [ 88.7956, 27.4283 ], [ 88.8008, 27.4226 ], [ 88.809, 27.4234 ], [ 88.8048, 27.4152 ], [ 88.7822, 27.4229 ], [ 88.7672, 27.4137 ], [ 88.7314, 27.4193 ], [ 88.7187, 27.4167 ], [ 88.6948, 27.3984 ], [ 88.6751, 27.4002 ], [ 88.6588, 27.3911 ], [ 88.6268, 27.3873 ], [ 88.5997, 27.3907 ], [ 88.5907, 27.3963 ], [ 88.5548, 27.3924 ], [ 88.5232, 27.3971 ], [ 88.5012, 27.3825 ], [ 88.486, 27.3783 ], [ 88.4537, 27.3885 ], [ 88.4366, 27.3999 ], [ 88.4167, 27.4235 ], [ 88.416, 27.4465 ], [ 88.4088, 27.4584 ], [ 88.4056, 27.4757 ], [ 88.3756, 27.4975 ], [ 88.3557, 27.5213 ], [ 88.3352, 27.5276 ], [ 88.3192, 27.5271 ], [ 88.2816, 27.5129 ], [ 88.2633, 27.5257 ], [ 88.2415, 27.5348 ], [ 88.232, 27.5571 ], [ 88.2097, 27.5813 ], [ 88.115, 27.6179 ], [ 88.1199, 27.6277 ], [ 88.117, 27.6298 ], [ 88.1202, 27.6452 ], [ 88.1441, 27.6643 ], [ 88.1542, 27.6918 ], [ 88.1511, 27.6962 ], [ 88.2265, 27.6852 ], [ 88.2451, 27.6805 ], [ 88.3155, 27.6486 ], [ 88.3383, 27.6147 ], [ 88.3707, 27.6009 ], [ 88.4181, 27.5996 ], [ 88.4999, 27.576 ], [ 88.5008, 27.5931 ], [ 88.528, 27.6025 ], [ 88.5265, 27.5836 ], [ 88.5363, 27.5665 ], [ 88.5799, 27.5715 ], [ 88.5794, 27.5565 ], [ 88.5863, 27.5319 ], [ 88.6002, 27.5371 ], [ 88.6293, 27.4997 ], [ 88.714, 27.4997 ], [ 88.7514, 27.4897 ], [ 88.7585, 27.4938 ], [ 88.7834, 27.4965 ], [ 88.7866, 27.4882 ] ] ] } },
{ "type": "Feature", "properties": { "unit_id": "IND.30.3.1_1", "name": "Rabong", "district": "South", "did": "sikkim:South", "state_key": "sikkim" }, "geometry": { "type": "Polygon", "coordinates": [ [ [ 88.452, 27.2365 ], [ 88.4505, 27.2261 ], [ 88.4416, 27.2205 ], [ 88.4319, 27.222 ], [ 88.4347, 27.2307 ], [ 88.4155, 27.2179 ], [ 88.4035, 27.2308 ], [ 88.3999, 27.2186 ], [ 88.3861, 27.225 ], [ 88.3684, 27.2247 ], [ 88.3593, 27.2287 ], [ 88.3315, 27.2256 ], [ 88.3239, 27.218 ], [ 88.3199, 27.2232 ], [ 88.3077, 27.2261 ], [ 88.3032, 27.237 ], [ 88.304, 27.2609 ], [ 88.281, 27.2782 ], [ 88.2791, 27.2863 ], [ 88.3094, 27.3027 ], [ 88.3107, 27.3157 ], [ 88.2968, 27.3267 ], [ 88.2981, 27.3309 ], [ 88.3227, 27.3493 ], [ 88.3306, 27.3687 ], [ 88.3583, 27.3783 ], [ 88.3583, 27.3899 ], [ 88.3576, 27.3993 ], [ 88.348, 27.4141 ], [ 88.339, 27.4062 ], [ 88.3315, 27.4171 ], [ 88.3057, 27.4168 ], [ 88.2841, 27.4051 ], [ 88.2792, 27.4058 ], [ 88.2748, 27.4119 ], [ 88.2666, 27.4618 ], [ 88.2661, 27.4898 ], [ 88.2715, 27.5035 ], [ 88.291, 27.5188 ], [ 88.3288, 27.528 ], [ 88.3557, 27.5213 ], [ 88.3756, 27.4975 ], [ 88.4056, 27.4757 ], [ 88.4088, 27.4584 ], [ 88.416, 27.4465 ], [ 88.4167, 27.4235 ], [ 88.4366, 27.3999 ], [ 88.4537, 27.3885 ], [ 88.486, 27.3783 ], [ 88.4803, 27.3604 ], [ 88.4882, 27.3425 ], [ 88.4862, 27.3336 ], [ 88.4827, 27.3288 ], [ 88.4544, 27.3153 ], [ 88.4425, 27.2812 ], [ 88.4469, 27.2612 ], [ 88.4646, 27.2505 ], [ 88.452, 27.2365 ] ] ] } },
{ "type": "Feature", "properties": { "unit_id": "IND.30.2.1_1", "name": "Chungthang", "district": "North", "did": "sikkim:North", "state_key": "sikkim" }, "geometry": { "type": "Polygon", "coordinates": [ [ [ 88.7585, 27.4938 ], [ 88.7514, 27.4897 ], [ 88.714, 27.4997 ], [ 88.6293, 27.4997 ], [ 88.6002, 27.5371 ], [ 88.5863, 27.5319 ], [ 88.5794, 27.5565 ], [ 88.5799, 27.5715 ], [ 88.5363, 27.5665 ], [ 88.5265, 27.5836 ], [ 88.528, 27.6025 ], [ 88.5008, 27.5931 ], [ 88.4999, 27.576 ], [ 88.4181, 27.5996 ], [ 88.3707, 27.6009 ], [ 88.3383, 27.6147 ], [ 88.3155, 27.6486 ], [ 88.2451, 27.6805 ], [ 88.1511, 27.6962 ], [ 88.1476, 27.7028 ], [ 88.1554, 27.7174 ], [ 88.1562, 27.7361 ], [ 88.1585, 27.7406 ], [ 88.1699, 27.7411 ], [ 88.1784, 27.7462 ], [ 88.1777, 27.7584 ], [ 88.1837, 27.7667 ], [ 88.1822, 27.7758 ], [ 88.1972, 27.7912 ], [ 88.1874, 27.8011 ], [ 88.1856, 27.8106 ], [ 88.1736, 27.8206 ], [ 88.188, 27.8255 ], [ 88.1925, 27.833 ], [ 88.2028, 27.8388 ], [ 88.1952, 27.8545 ], [ 88.179, 27.8565 ], [ 88.1649, 27.8683 ], [ 88.135, 27.8816 ], [ 88.1399, 27.8891 ], [ 88.1196, 27.916 ], [ 88.1212, 27.922 ], [ 88.1307, 27.9258 ], [ 88.1321, 27.9329 ], [ 88.1379, 27.9372 ], [ 88.1294, 27.9494 ], [ 88.1452, 27.9641 ], [ 88.1543, 27.9574 ], [ 88.1639, 27.9577 ], [ 88.1855, 27.9435 ], [ 88.2064, 27.9417 ], [ 88.208, 27.9617 ], [ 88.2127, 27.9643 ], [ 88.2251, 27.9604 ], [ 88.2372, 27.9708 ], [ 88.2511, 27.9424 ], [ 88.2611, 27.9471 ], [ 88.2662, 27.9573 ], [ 88.2756, 27.9547 ], [ 88.286, 27.9663 ], [ 88.3082, 27.9671 ], [ 88.3179, 27.9788 ], [ 88.3304, 27.9732 ], [ 88.3367, 27.9842 ], [ 88.3457, 27.985 ], [ 88.3523, 27.9899 ], [ 88.377, 27.9899 ], [ 88.3874, 27.9794 ], [ 88.3991, 27.978 ], [ 88.403, 27.9826 ], [ 88.4108, 27.9833 ], [ 88.4147, 27.9989 ], [ 88.4246, 28.0016 ], [ 88.4306, 28.0081 ], [ 88.4678, 28.0171 ], [ 88.4804, 28.0425 ], [ 88.4881, 28.0445 ], [ 88.4956, 28.0539 ], [ 88.5096, 28.0412 ], [ 88.5197, 28.0436 ], [ 88.5235, 28.035 ], [ 88.5275, 28.0378 ], [ 88.5327, 28.0333 ], [ 88.5436, 28.0333 ], [ 88.5508, 28.0376 ], [ 88.5487, 28.0468 ], [ 88.5562, 28.0735 ], [ 88.5525, 28.0814 ], [ 88.5663, 28.0903 ], [ 88.584, 28.0833 ], [ 88.5912, 28.0893 ], [ 88.6026, 28.0892 ], [ 88.6052, 28.0976 ], [ 88.6193, 28.0981 ], [ 88.6177, 28.1178 ], [ 88.6086, 28.1226 ], [ 88.61, 28.1287 ], [ 88.6276, 28.1251 ], [ 88.6344, 28.1196 ], [ 88.646, 28.0987 ], [ 88.6643, 28.0874 ], [ 88.6667, 28.0761 ], [ 88.6721, 28.0723 ], [ 88.6784, 28.0715 ], [ 88.6836, 28.0777 ], [ 88.7096, 28.0776 ], [ 88.7204, 28.0743 ], [ 88.7552, 28.0763 ], [ 88.7657, 28.0705 ], [ 88.7776, 28.0541 ], [ 88.7929, 28.0486 ], [ 88.7939, 28.0434 ], [ 88.8136, 28.0224 ], [ 88.8363, 28.0148 ], [ 88.838, 28.0005 ], [ 88.8438, 27.9904 ], [ 88.8429, 27.9528 ], [ 88.8369, 27.9288 ], [ 88.8604, 27.9272 ], [ 88.87, 27.9156 ], [ 88.8718, 27.8985 ], [ 88.8826, 27.8908 ], [ 88.8778, 27.8758 ], [ 88.8877, 27.8562 ], [ 88.8813, 27.8498 ], [ 88.8805, 27.8292 ], [ 88.8558, 27.8153 ], [ 88.8615, 27.797 ], [ 88.8549, 27.7835 ], [ 88.8533, 27.7645 ], [ 88.8561, 27.7523 ], [ 88.8616, 27.7525 ], [ 88.8652, 27.7427 ], [ 88.8567, 27.7317 ], [ 88.8563, 27.7165 ], [ 88.8398, 27.7112 ], [ 88.838, 27.7063 ], [ 88.8477, 27.6936 ], [ 88.8419, 27.6822 ], [ 88.8484, 27.668 ], [ 88.8279, 27.6443 ], [ 88.8153, 27.6461 ], [ 88.8049, 27.6235 ], [ 88.8117, 27.6184 ], [ 88.8063, 27.6089 ], [ 88.809, 27.6025 ], [ 88.8047, 27.5944 ], [ 88.7884, 27.5849 ], [ 88.7913, 27.5751 ], [ 88.7814, 27.5699 ], [ 88.77, 27.5713 ], [ 88.7637, 27.5651 ], [ 88.7739, 27.5538 ], [ 88.7731, 27.5408 ], [ 88.7773, 27.5326 ], [ 88.7928, 27.5289 ], [ 88.7834, 27.4965 ], [ 88.7585, 27.4938 ] ] ] } }
]
}
