{
"type": "FeatureCollection",
"crs": { "type": "name", "properties": { "name": "urn:ogc:def:crs:OGC:1.3:CRS84" } },
"xy_coordinate_resolution": 0.0001,
"features": [
{ "type": "Feature", "properties": { "unit_id": "IND.33.4.1_1", "name": "Panisagar", "district": "North Tripura", "did": "tripura:North Tripura", "state_key": "tripura" }, "geometry": { "type": "Polygon", "coordinates": [ [ [ 92.2118, 24.2407 ], [ 92.1858, 24.2516 ], [ 92.1796, 24.2504 ], [ 92.1742, 24.2363 ], [ 92.181, 24.224 ], [ 92.1712, 24.2148 ], [ 92.1712, 24.2021 ], [ 92.1674, 24.2269 ], [ 92.1621, 24.2304 ], [ 92.1521, 24.2263 ], [ 92.1516, 24.2376 ], [ 92.131, 24.2452 ], [ 92.1236, 24.2547 ], [ 92.1261, 24.2664 ], [ 92.1228, 24.2714 ], [ 92.1137, 24.2705 ], [ 92.1217, 24.2765 ], [ 92.1286, 24.2746 ], [ 92.1478, 24.2861 ], [ 92.1461, 24.306 ], [ 92.1502, 24.3079 ], [ 92.1475, 24.3094 ], [ 92.1497, 24.3176 ], [ 92.1544, 24.3194 ], [ 92.1521, 24.3226 ], [ 92.1564, 24.3232 ], [ 92.1577, 24.33 ], [ 92.1538, 24.3331 ], [ 92.1566, 24.3403 ], [ 92.152, 24.3431 ], [ 92.1629, 24.356 ], [ 92.163, 24.3576 ], [ 92.1603, 24.36 ], [ 92.163, 24.3685 ], [ 92.1584, 24.371 ], [ 92.1621, 24.3713 ], [ 92.1593, 24.3744 ], [ 92.165, 24.3783 ], [ 92.1669, 24.375 ], [ 92.1849, 24.3703 ], [ 92.2049, 24.3535 ], [ 92.2331, 24.3486 ], [ 92.245, 24.3525 ], [ 92.2595, 24.3519 ], [ 92.2129, 24.2499 ], [ 92.2166, 24.2501 ], [ 92.2118, 24.2407 ] ] ] } },
{ "type": "Feature", "properties": { "unit_id": "IND.33.4.1_1", "name": "Kanchanpur", "district": "North Tripura", "did": "tripura:North Tripura", "state_key": "tripura" }, "geometry": { "type": "Polygon", "coordinates": [ [ [ 92.1639, 23.7541 ], [ 92.1591, 23.7611 ], [ 92.1617, 23.7677 ], [ 92.1573, 23.795 ], [ 92.1585, 23.8446 ], [ 92.1563, 23.8552 ], [ 92.1503, 23.8616 ], [ 92.1484, 23.8817 ], [ 92.1405, 23.893 ], [ 92.1284, 23.9304 ], [ 92.1133, 23.9247 ], [ 92.105, 23.9308 ], [ 92.0959, 23.9303 ], [ 92.0918, 23.9347 ], [ 92.1016, 23.9627 ], [ 92.093, 23.9692 ], [ 92.092, 23.9922 ], [ 92.0995, 24.0008 ], [ 92.0982, 24.01 ], [ 92.1068, 24.0111 ], [ 92.1127, 24.0229 ], [ 92.1168, 24.0201 ], [ 92.1244, 24.027 ], [ 92.1138, 24.0308 ], [ 92.1124, 24.0348 ], [ 92.115, 24.0395 ], [ 92.111, 24.0491 ], [ 92.116, 24.0541 ], [ 92.1115, 24.0586 ], [ 92.1128, 24.072 ], [ 92.1192, 24.0669 ], [ 92.1237, 24.0704 ], [ 92.1337, 24.0689 ], [ 92.1363, 24.0746 ], [ 92.1436, 24.0777 ], [ 92.1438, 24.0863 ], [ 92.1506, 24.0829 ], [ 92.1551, 24.0927 ], [ 92.1631, 24.0954 ], [ 92.1689, 24.1051 ], [ 92.1593, 24.1171 ], [ 92.1531, 24.1159 ], [ 92.1456, 24.1198 ], [ 92.1502, 24.1184 ], [ 92.1657, 24.1343 ], [ 92.1763, 24.1355 ], [ 92.1989, 24.1544 ], [ 92.199, 24.1658 ], [ 92.2034, 24.1699 ], [ 92.2018, 24.1913 ], [ 92.1894, 24.1887 ], [ 92.1825, 24.1939 ], [ 92.182, 24.1999 ], [ 92.1712, 24.2021 ], [ 92.1712, 24.2148 ], [ 92.181, 24.224 ], [ 92.1742, 24.2363 ], [ 92.1796, 24.2504 ], [ 92.1858, 24.2516 ], [ 92.2118, 24.2407 ], [ 92.2166, 24.2501 ], [ 92.2896, 24.2524 ], [ 92.2974, 24.2315 ], [ 92.3104, 24.2213 ], [ 92.3163, 24.2118 ], [ 92.3147, 24.2064 ], [ 92.3215, 24.2037 ], [ 92.3191, 24.1979 ], [ 92.3261, 24.1971 ], [ 92.3218, 24.1942 ], [ 92.3264, 24.1914 ], [ 92.3224, 24.1887 ], [ 92.3263, 24.1817 ], [ 92.3321, 24.1796 ], [ 92.3265, 24.1777 ], [ 92.3239, 24.1712 ], [ 92.3286, 24.1663 ], [ 92.3317, 24.1518 ], [ 92.3307, 24.1397 ], [ 92.3246, 24.1394 ], [ 92.3271, 24.117 ], [ 92.3243, 24.1151 ], [ 92.3279, 24.1119 ], [ 92.3226, 24.1044 ], [ 92.3277, 24.1015 ], [ 92.3242, 24.0793 ], [ 92.3193, 24.0782 ], [ 92.3213, 24.0727 ], [ 92.3166, 24.07 ], [ 92.3199, 24.0637 ], [ 92.3176, 24.055 ], [ 92.3122, 24.0521 ], [ 92.3164, 24.0456 ], [ 92.312, 24.0385 ], [ 92.3157, 24.0349 ], [ 92.3121, 24.0324 ], [ 92.3169, 24.0301 ], [ 92.3148, 24.026 ], [ 92.3198, 24.0244 ], [ 92.314, 24.0212 ], [ 92.3262, 23.9978 ], [ 92.3222, 23.9939 ], [ 92.3201, 23.979 ], [ 92.3104, 23.9723 ], [ 92.308, 23.9606 ], [ 92.309, 23.9312 ], [ 92.3163, 23.9281 ], [ 92.3193, 23.9157 ], [ 92.3252, 23.9141 ], [ 92.3112, 23.8801 ], [ 92.315, 23.8605 ], [ 92.3077, 23.8569 ], [ 92.2876, 23.8685 ], [ 92.2692, 23.8469 ], [ 92.2825, 23.8154 ], [ 92.2663, 23.8159 ], [ 92.2571, 23.8128 ], [ 92.2673, 23.7686 ], [ 92.2655, 23.7248 ], [ 92.2491, 23.7244 ], [ 92.2392, 23.7184 ], [ 92.2364, 23.7121 ], [ 92.2421, 23.6949 ], [ 92.2364, 23.6929 ], [ 92.232, 23.6847 ], [ 92.2331, 23.6676 ], [ 92.2226, 23.6528 ], [ 92.2114, 23.6528 ], [ 92.2109, 23.6588 ], [ 92.2066, 23.661 ], [ 92.2063, 23.6752 ], [ 92.2137, 23.6849 ], [ 92.207, 23.7006 ], [ 92.2028, 23.7058 ], [ 92.1861, 23.711 ], [ 92.1777, 23.7076 ], [ 92.1766, 23.7164 ], [ 92.1696, 23.7232 ], [ 92.173, 23.7532 ], [ 92.1639, 23.7541 ] ] ] } },
{ "type": "Feature", "properties": { "unit_id": "IND.33.1.1_1", "name": "Longtharai Valley", "district": "Dhalai", "did": "tripura:Dhalai", "state_key": "tripura" }, "geometry": { "type": "Polygon", "coordinates": [ [ [ 92.0, 23.6713 ], [ 91.9887, 23.701 ], [ 91.9857, 23.7218 ], [ 91.9806, 23.7236 ], [ 91.9708, 23.7656 ], [ 91.9575, 23.8007 ], [ 91.9538, 23.8267 ], [ 91.9629, 23.8463 ], [ 91.9522, 23.8679 ], [ 91.955, 23.8738 ], [ 91.9494, 23.8796 ], [ 91.9467, 23.8937 ], [ 91.9376, 23.901 ], [ 91.9325, 23.9229 ], [ 91.9085, 23.9804 ], [ 91.9106, 24.0007 ], [ 91.9022, 24.0354 ], [ 91.9062, 24.0435 ], [ 91.9059, 24.0702 ], [ 91.9008, 24.0856 ], [ 91.9088, 24.091 ], [ 91.9054, 24.0983 ], [ 91.9103, 24.1006 ], [ 91.9131, 24.1245 ], [ 91.9184, 24.1154 ], [ 91.9192, 24.1211 ], [ 91.9302, 24.1125 ], [ 91.9348, 24.104 ], [ 91.9573, 24.0938 ], [ 91.9631, 24.0872 ], [ 91.971, 24.0863 ], [ 91.9703, 24.0698 ], [ 91.9743, 24.0694 ], [ 91.9739, 24.0735 ], [ 91.9775, 24.0712 ], [ 91.978, 24.0753 ], [ 91.9809, 24.0737 ], [ 91.9897, 24.081 ], [ 91.997, 24.0822 ], [ 92.0003, 24.0796 ], [ 92.0011, 24.0906 ], [ 92.0116, 24.0916 ], [ 92.0119, 24.1081 ], [ 92.0185, 24.1085 ], [ 92.0278, 24.1033 ], [ 92.0373, 24.1048 ], [ 92.0419, 24.1015 ], [ 92.0509, 24.1085 ], [ 92.0805, 24.105 ], [ 92.0719, 24.0952 ], [ 92.0729, 24.043 ], [ 92.0792, 24.037 ], [ 92.0727, 24.0279 ], [ 92.0813, 24.0182 ], [ 92.0885, 24.0166 ], [ 92.0911, 24.0194 ], [ 92.0983, 24.0099 ], [ 92.0995, 24.0008 ], [ 92.092, 23.9922 ], [ 92.0919, 23.9787 ], [ 92.093, 23.9692 ], [ 92.1016, 23.9627 ], [ 92.0918, 23.9347 ], [ 92.0959, 23.9303 ], [ 92.105, 23.9308 ], [ 92.1133, 23.9247 ], [ 92.1284, 23.9304 ], [ 92.1405, 23.893 ], [ 92.1484, 23.8817 ], [ 92.1503, 23.8616 ], [ 92.1568, 23.8542 ], [ 92.1573, 23.795 ], [ 92.1617, 23.7677 ], [ 92.159, 23.7616 ], [ 92.1639, 23.7541 ], [ 92.173, 23.7532 ], [ 92.1709, 23.7392 ], [ 92.1624, 23.7396 ], [ 92.1549, 23.7344 ], [ 92.1445, 23.7334 ], [ 92.1393, 23.7202 ], [ 92.1253, 23.7065 ], [ 92.1239, 23.6955 ], [ 92.1182, 23.6911 ], [ 92.1142, 23.6942 ], [ 92.1062, 23.6887 ], [ 92.0997, 23.6767 ], [ 92.083, 23.6801 ], [ 92.0763, 23.668 ], [ 92.08, 23.6621 ], [ 92.0791, 23.6484 ], [ 92.0633, 23.645 ], [ 92.0577, 23.6485 ], [ 92.042, 23.6479 ], [ 92.0306, 23.6579 ], [ 92.0223, 23.6581 ], [ 92.0238, 23.6627 ], [ 92.0157, 23.6598 ], [ 92.0087, 23.6635 ], [ 92.0055, 23.6715 ], [ 92.0, 23.6713 ] ] ] } },
{ "type": "Feature", "properties": { "unit_id": "IND.33.7.1_1", "name": "Kumarghat", "district": "Unokoti", "did": "tripura:Unokoti", "state_key": "tripura" }, "geometry": { "type": "Polygon", "coordinates": [ [ [ 91.9439, 24.2196 ], [ 91.9435, 24.2041 ], [ 91.9699, 24.2134 ], [ 91.9699, 24.21 ], [ 91.9884, 24.2025 ], [ 91.9916, 24.2086 ], [ 92.0035, 24.2098 ], [ 92.0076, 24.2246 ], [ 92.0127, 24.2237 ], [ 92.018, 24.2321 ], [ 92.0229, 24.2317 ], [ 92.0237, 24.2401 ], [ 92.0277, 24.2406 ], [ 92.0292, 24.2358 ], [ 92.0305, 24.2391 ], [ 92.0387, 24.2402 ], [ 92.0414, 24.2457 ], [ 92.0467, 24.2409 ], [ 92.0491, 24.22 ], [ 92.0581, 24.2211 ], [ 92.0628, 24.2253 ], [ 92.0765, 24.224 ], [ 92.0754, 24.2292 ], [ 92.07, 24.2313 ], [ 92.0809, 24.2759 ], [ 92.1044, 24.2713 ], [ 92.1073, 24.2738 ], [ 92.1129, 24.2703 ], [ 92.1228, 24.2714 ], [ 92.1261, 24.2664 ], [ 92.1236, 24.2547 ], [ 92.131, 24.2452 ], [ 92.1516, 24.2376 ], [ 92.1521, 24.2263 ], [ 92.1621, 24.2304 ], [ 92.1674, 24.2269 ], [ 92.172, 24.2008 ], [ 92.182, 24.1999 ], [ 92.1825, 24.1939 ], [ 92.1894, 24.1887 ], [ 92.2018, 24.1913 ], [ 92.2034, 24.1699 ], [ 92.199, 24.1658 ], [ 92.1965, 24.1502 ], [ 92.1876, 24.1467 ], [ 92.176, 24.1353 ], [ 92.1657, 24.1343 ], [ 92.1502, 24.1184 ], [ 92.1456, 24.1198 ], [ 92.1531, 24.1159 ], [ 92.1593, 24.1171 ], [ 92.1667, 24.1096 ], [ 92.1689, 24.1048 ], [ 92.1636, 24.0959 ], [ 92.158, 24.0914 ], [ 92.1551, 24.0927 ], [ 92.1504, 24.0828 ], [ 92.1438, 24.0863 ], [ 92.1436, 24.0777 ], [ 92.1363, 24.0746 ], [ 92.1337, 24.0689 ], [ 92.1237, 24.0704 ], [ 92.1192, 24.0669 ], [ 92.1128, 24.072 ], [ 92.1115, 24.0586 ], [ 92.116, 24.0541 ], [ 92.111, 24.0491 ], [ 92.115, 24.0395 ], [ 92.1124, 24.0348 ], [ 92.1138, 24.0308 ], [ 92.1244, 24.027 ], [ 92.1168, 24.0201 ], [ 92.1127, 24.0229 ], [ 92.1068, 24.0111 ], [ 92.0982, 24.01 ], [ 92.0911, 24.0194 ], [ 92.0885, 24.0166 ], [ 92.0813, 24.0182 ], [ 92.0728, 24.0275 ], [ 92.0732, 24.0325 ], [ 92.0792, 24.037 ], [ 92.0729, 24.043 ], [ 92.0719, 24.0952 ], [ 92.0805, 24.105 ], [ 92.0509, 24.1085 ], [ 92.0419, 24.1015 ], [ 92.0373, 24.1048 ], [ 92.0278, 24.1033 ], [ 92.0185, 24.1085 ], [ 92.0119, 24.1081 ], [ 92.0116, 24.0916 ], [ 92.0011, 24.0906 ], [ 92.0003, 24.0796 ], [ 91.997, 24.0822 ], [ 91.9897, 24.081 ], [ 91.9809, 24.0737 ], [ 91.978, 24.0753 ], [ 91.9775, 24.0712 ], [ 91.9736, 24.0735 ], [ 91.9743, 24.0694 ], [ 91.9697, 24.0705 ], [ 91.971, 24.0863 ], [ 91.9631, 24.0872 ], [ 91.9573, 24.0938 ], [ 91.9348, 24.104 ], [ 91.9192, 24.1211 ], [ 91.9184, 24.1154 ], [ 91.9111, 24.1307 ], [ 91.9027, 24.1378 ], [ 91.9114, 24.1536 ], [ 91.9145, 24.1536 ], [ 91.9114, 24.164 ], [ 91.9153, 24.1666 ], [ 91.9114, 24.1681 ], [ 91.9297, 24.2234 ], [ 91.9439, 24.2196 ] ] ] } },
{ "type": "Feature", "properties": { "unit_id": "IND.33.7.1_1", "name": "Kailashahar", "district": "Unokoti", "did": "tripura:Unokoti", "state_key": "tripura" }, "geometry": { "type": "Polygon", "coordinates": [ [ [ 91.9408, 24.2681 ], [ 91.92, 24.3375 ], [ 91.924, 24.3359 ], [ 91.9413, 24.3425 ], [ 91.9434, 24.3489 ], [ 91.9568, 24.3566 ], [ 91.969, 24.3502 ], [ 91.9659, 24.3468 ], [ 91.9711, 24.3429 ], [ 91.9771, 24.3274 ], [ 91.9806, 24.3284 ], [ 91.9856, 24.3222 ], [ 91.996, 24.3221 ], [ 91.9972, 24.3368 ], [ 91.9781, 24.3574 ], [ 91.9846, 24.3609 ], [ 91.9775, 24.3727 ], [ 91.9738, 24.3707 ], [ 91.97, 24.3747 ], [ 91.9723, 24.3795 ], [ 91.9669, 24.3798 ], [ 91.972, 24.3848 ], [ 91.9858, 24.3769 ], [ 91.9921, 24.3876 ], [ 91.9896, 24.3902 ], [ 91.9919, 24.3901 ], [ 91.995, 24.3881 ], [ 91.9964, 24.3937 ], [ 92.0073, 24.3814 ], [ 92.0201, 24.3865 ], [ 92.0269, 24.3796 ], [ 92.0358, 24.3801 ], [ 92.044, 24.3749 ], [ 92.0488, 24.3776 ], [ 92.076, 24.3751 ], [ 92.0726, 24.3141 ], [ 92.0838, 24.3032 ], [ 92.0807, 24.2654 ], [ 92.0708, 24.241 ], [ 92.07, 24.2308 ], [ 92.0754, 24.2292 ], [ 92.0765, 24.224 ], [ 92.0628, 24.2253 ], [ 92.0581, 24.2211 ], [ 92.0491, 24.22 ], [ 92.0467, 24.2409 ], [ 92.0414, 24.2457 ], [ 92.0387, 24.2402 ], [ 92.0305, 24.2391 ], [ 92.0292, 24.2358 ], [ 92.0277, 24.2406 ], [ 92.0237, 24.2401 ], [ 92.0229, 24.2317 ], [ 92.018, 24.2321 ], [ 92.0127, 24.2237 ], [ 92.0076, 24.2246 ], [ 92.0035, 24.2098 ], [ 91.9916, 24.2086 ], [ 91.9884, 24.2025 ], [ 91.9699, 24.21 ], [ 91.9699, 24.2134 ], [ 91.9435, 24.2041 ], [ 91.9439, 24.2196 ], [ 91.9297, 24.2234 ], [ 91.9408, 24.2681 ] ] ] } },
{ "type": "Feature", "properties": { "unit_id": "IND.33.4.1_1", "name": "Dharmanagar", "district": "North Tripura", "did": "tripura:North Tripura", "state_key": "tripura" }, "geometry": { "type": "Polygon", "coordinates": [ [ [ 92.2366, 24.4846 ], [ 92.2313, 24.48 ], [ 92.2347, 24.4746 ], [ 92.2306, 24.4714 ], [ 92.2302, 24.4615 ], [ 92.2364, 24.4582 ], [ 92.2349, 24.4526 ], [ 92.2389, 24.4475 ], [ 92.2594, 24.4392 ], [ 92.2545, 24.4205 ], [ 92.2633, 24.4112 ], [ 92.2641, 24.399 ], [ 92.2693, 24.3985 ], [ 92.2691, 24.3925 ], [ 92.2741, 24.3883 ], [ 92.2686, 24.3841 ], [ 92.2729, 24.379 ], [ 92.2681, 24.3781 ], [ 92.2681, 24.3679 ], [ 92.2595, 24.3519 ], [ 92.245, 24.3525 ], [ 92.2331, 24.3486 ], [ 92.2049, 24.3535 ], [ 92.1849, 24.3703 ], [ 92.1646, 24.3782 ], [ 92.1593, 24.3744 ], [ 92.1621, 24.3713 ], [ 92.1584, 24.371 ], [ 92.163, 24.3685 ], [ 92.1603, 24.36 ], [ 92.1629, 24.356 ], [ 92.152, 24.3431 ], [ 92.1566, 24.3403 ], [ 92.1538, 24.3331 ], [ 92.1577, 24.33 ], [ 92.1564, 24.3232 ], [ 92.1521, 24.3226 ], [ 92.1544, 24.3194 ], [ 92.1497, 24.3176 ], [ 92.1475, 24.3094 ], [ 92.1502, 24.3079 ], [ 92.1461, 24.306 ], [ 92.1478, 24.2861 ], [ 92.1286, 24.2746 ], [ 92.1217, 24.2765 ], [ 92.1129, 24.2703 ], [ 92.1073, 24.2738 ], [ 92.1047, 24.2713 ], [ 92.0855, 24.2739 ], [ 92.0802, 24.2781 ], [ 92.0837, 24.3038 ], [ 92.0726, 24.3141 ], [ 92.076, 24.3751 ], [ 92.0853, 24.3756 ], [ 92.0904, 24.3716 ], [ 92.1002, 24.3759 ], [ 92.1023, 24.3829 ], [ 92.1104, 24.3798 ], [ 92.1205, 24.3814 ], [ 92.1237, 24.3846 ], [ 92.1199, 24.3921 ], [ 92.1352, 24.4072 ], [ 92.1328, 24.4143 ], [ 92.1368, 24.425 ], [ 92.1478, 24.421 ], [ 92.1537, 24.4256 ], [ 92.164, 24.4184 ], [ 92.1691, 24.4278 ], [ 92.166, 24.4281 ], [ 92.1674, 24.4345 ], [ 92.1626, 24.4399 ], [ 92.1644, 24.4446 ], [ 92.1581, 24.4597 ], [ 92.1604, 24.463 ], [ 92.1556, 24.4657 ], [ 92.1582, 24.4696 ], [ 92.1543, 24.4721 ], [ 92.1572, 24.4741 ], [ 92.1505, 24.4952 ], [ 92.1523, 24.5023 ], [ 92.1591, 24.5072 ], [ 92.1535, 24.512 ], [ 92.1582, 24.5152 ], [ 92.155, 24.523 ], [ 92.1586, 24.5232 ], [ 92.1598, 24.5293 ], [ 92.1619, 24.5275 ], [ 92.1695, 24.5318 ], [ 92.1759, 24.5235 ], [ 92.1854, 24.523 ], [ 92.2016, 24.5074 ], [ 92.2304, 24.5017 ], [ 92.2366, 24.4846 ] ] ] } },
{ "type": "Feature", "properties": { "unit_id": "IND.33.8.1_1", "name": "Jirania", "district": "West Tripura", "did": "tripura:West Tripura", "state_key": "tripura" }, "geometry": { "type": "Polygon", "coordinates": [ [ [ 91.3296, 23.8838 ], [ 91.3347, 23.8779 ], [ 91.3397, 23.8944 ], [ 91.3458, 23.8953 ], [ 91.3444, 23.9006 ], [ 91.3491, 23.9049 ], [ 91.3678, 23.8826 ], [ 91.3854, 23.9015 ], [ 91.4014, 23.9018 ], [ 91.4086, 23.9072 ], [ 91.4196, 23.9088 ], [ 91.4282, 23.9226 ], [ 91.433, 23.9256 ], [ 91.4388, 23.9238 ], [ 91.4437, 23.9297 ], [ 91.4506, 23.9307 ], [ 91.4566, 23.925 ], [ 91.4796, 23.9258 ], [ 91.4866, 23.9186 ], [ 91.4901, 23.9232 ], [ 91.5076, 23.9235 ], [ 91.5135, 23.9326 ], [ 91.5269, 23.9391 ], [ 91.5257, 23.935 ], [ 91.5359, 23.9299 ], [ 91.5308, 23.9246 ], [ 91.5284, 23.9088 ], [ 91.5444, 23.9086 ], [ 91.5461, 23.9057 ], [ 91.5539, 23.9123 ], [ 91.5582, 23.9 ], [ 91.5541, 23.883 ], [ 91.5645, 23.8698 ], [ 91.5595, 23.8252 ], [ 91.5653, 23.8197 ], [ 91.5629, 23.8154 ], [ 91.5675, 23.7857 ], [ 91.5577, 23.7823 ], [ 91.5521, 23.7856 ], [ 91.5519, 23.7806 ], [ 91.5414, 23.7686 ], [ 91.5204, 23.7621 ], [ 91.5169, 23.7506 ], [ 91.5082, 23.7516 ], [ 91.4972, 23.7473 ], [ 91.4933, 23.7411 ], [ 91.4814, 23.7458 ], [ 91.4764, 23.7411 ], [ 91.4665, 23.7455 ], [ 91.4406, 23.7459 ], [ 91.4325, 23.7645 ], [ 91.4009, 23.7639 ], [ 91.3843, 23.7716 ], [ 91.3623, 23.7635 ], [ 91.3398, 23.7696 ], [ 91.3364, 23.7735 ], [ 91.3446, 23.7774 ], [ 91.3448, 23.8078 ], [ 91.3325, 23.807 ], [ 91.3293, 23.8111 ], [ 91.331, 23.8227 ], [ 91.3243, 23.8273 ], [ 91.3215, 23.839 ], [ 91.3347, 23.844 ], [ 91.3393, 23.8424 ], [ 91.3409, 23.8448 ], [ 91.332, 23.8569 ], [ 91.3194, 23.8621 ], [ 91.3172, 23.8713 ], [ 91.323, 23.8814 ], [ 91.3296, 23.8838 ] ] ] } },
{ "type": "Feature", "properties": { "unit_id": "IND.33.8.1_1", "name": "Mohanpur", "district": "West Tripura", "did": "tripura:West Tripura", "state_key": "tripura" }, "geometry": { "type": "Polygon", "coordinates": [ [ [ 91.2863, 23.9819 ], [ 91.2858, 23.9803 ], [ 91.285, 23.9798 ], [ 91.2847, 23.9773 ], [ 91.2877, 23.968 ], [ 91.2998, 23.9721 ], [ 91.2973, 23.9763 ], [ 91.3036, 23.9878 ], [ 91.304, 23.998 ], [ 91.3149, 23.9904 ], [ 91.3236, 23.9945 ], [ 91.3301, 23.9925 ], [ 91.3412, 23.982 ], [ 91.3475, 23.9842 ], [ 91.3528, 23.9817 ], [ 91.3617, 23.9863 ], [ 91.3736, 23.9752 ], [ 91.3795, 23.9753 ], [ 91.3801, 23.9825 ], [ 91.3762, 23.9867 ], [ 91.379, 23.991 ], [ 91.3742, 23.995 ], [ 91.3733, 24.0026 ], [ 91.3909, 24.0258 ], [ 91.3966, 24.0496 ], [ 91.3771, 24.0798 ], [ 91.3746, 24.1078 ], [ 91.3872, 24.1072 ], [ 91.4015, 24.1115 ], [ 91.4038, 24.1091 ], [ 91.4281, 24.1085 ], [ 91.4308, 24.0999 ], [ 91.4405, 24.1025 ], [ 91.443, 24.0972 ], [ 91.4496, 24.1015 ], [ 91.4548, 24.0966 ], [ 91.4625, 24.0961 ], [ 91.4732, 24.1018 ], [ 91.4849, 24.0964 ], [ 91.4797, 24.0935 ], [ 91.4807, 24.0797 ], [ 91.4731, 24.0761 ], [ 91.4891, 24.054 ], [ 91.4866, 24.0421 ], [ 91.4962, 24.0079 ], [ 91.4943, 23.9989 ], [ 91.5086, 23.987 ], [ 91.5062, 23.9779 ], [ 91.518, 23.9624 ], [ 91.5194, 23.9475 ], [ 91.5269, 23.9392 ], [ 91.5135, 23.9326 ], [ 91.5076, 23.9235 ], [ 91.4901, 23.9232 ], [ 91.4866, 23.9186 ], [ 91.4796, 23.9258 ], [ 91.4566, 23.925 ], [ 91.4506, 23.9307 ], [ 91.4437, 23.9297 ], [ 91.4388, 23.9238 ], [ 91.433, 23.9256 ], [ 91.4282, 23.9226 ], [ 91.4196, 23.9088 ], [ 91.4086, 23.9072 ], [ 91.4014, 23.9018 ], [ 91.3854, 23.9015 ], [ 91.3678, 23.8826 ], [ 91.3598, 23.8896 ], [ 91.3593, 23.8958 ], [ 91.3535, 23.897 ], [ 91.3506, 23.9053 ], [ 91.3444, 23.9006 ], [ 91.3458, 23.8953 ], [ 91.34, 23.8949 ], [ 91.3338, 23.8772 ], [ 91.3296, 23.8838 ], [ 91.323, 23.8814 ], [ 91.3203, 23.887 ], [ 91.3101, 23.8861 ], [ 91.31, 23.8834 ], [ 91.3075, 23.8927 ], [ 91.3013, 23.8915 ], [ 91.2857, 23.8801 ], [ 91.2762, 23.8813 ], [ 91.2727, 23.8749 ], [ 91.2745, 23.8583 ], [ 91.2705, 23.8583 ], [ 91.2683, 23.8514 ], [ 91.2614, 23.8478 ], [ 91.2502, 23.8463 ], [ 91.2358, 23.8775 ], [ 91.2296, 23.8806 ], [ 91.2285, 23.8986 ], [ 91.2448, 23.9069 ], [ 91.2462, 23.9131 ], [ 91.2414, 23.9227 ], [ 91.233, 23.927 ], [ 91.2762, 23.9225 ], [ 91.2729, 23.9376 ], [ 91.2642, 23.9442 ], [ 91.2861, 23.9821 ], [ 91.2863, 23.9819 ] ] ] } },
{ "type": "Feature", "properties": { "unit_id": "IND.33.1.2_1", "name": "Kamalpur", "district": "Dhalai", "did": "tripura:Dhalai", "state_key": "tripura" }, "geometry": { "type": "Polygon", "coordinates": [ [ [ 91.8062, 24.2207 ], [ 91.8125, 24.212 ], [ 91.8207, 24.2092 ], [ 91.8292, 24.2132 ], [ 91.8312, 24.2182 ], [ 91.8379, 24.2187 ], [ 91.837, 24.2256 ], [ 91.8451, 24.2255 ], [ 91.8431, 24.2202 ], [ 91.8493, 24.2212 ], [ 91.8457, 24.2175 ], [ 91.8552, 24.2124 ], [ 91.8498, 24.2128 ], [ 91.8521, 24.2086 ], [ 91.8492, 24.2037 ], [ 91.842, 24.2013 ], [ 91.8454, 24.1914 ], [ 91.8528, 24.1898 ], [ 91.8556, 24.1814 ], [ 91.861, 24.1829 ], [ 91.8662, 24.1765 ], [ 91.874, 24.1745 ], [ 91.8752, 24.1551 ], [ 91.8845, 24.1387 ], [ 91.9034, 24.1375 ], [ 91.9155, 24.1232 ], [ 91.9131, 24.1245 ], [ 91.9103, 24.1006 ], [ 91.9054, 24.0983 ], [ 91.9088, 24.091 ], [ 91.9008, 24.0856 ], [ 91.9059, 24.0702 ], [ 91.9062, 24.0435 ], [ 91.9022, 24.0354 ], [ 91.9106, 24.0007 ], [ 91.9085, 23.9804 ], [ 91.9165, 23.9591 ], [ 91.902, 23.9644 ], [ 91.8936, 23.9841 ], [ 91.889, 23.9807 ], [ 91.8659, 23.9791 ], [ 91.8643, 24.0039 ], [ 91.8608, 24.0073 ], [ 91.8562, 23.9937 ], [ 91.8401, 23.9906 ], [ 91.8354, 23.9855 ], [ 91.8219, 23.9927 ], [ 91.809, 23.9854 ], [ 91.7982, 23.9878 ], [ 91.7779, 23.9819 ], [ 91.7563, 23.9954 ], [ 91.7595, 24.0251 ], [ 91.7549, 24.0331 ], [ 91.7583, 24.045 ], [ 91.7556, 24.0627 ], [ 91.7597, 24.0682 ], [ 91.7526, 24.0812 ], [ 91.7598, 24.092 ], [ 91.7541, 24.1169 ], [ 91.7593, 24.1303 ], [ 91.7562, 24.1347 ], [ 91.7606, 24.1401 ], [ 91.745, 24.247 ], [ 91.7887, 24.2214 ], [ 91.8062, 24.2207 ] ] ] } },
{ "type": "Feature", "properties": { "unit_id": "IND.33.3.1_1", "name": "Khowai", "district": "Khowai", "did": "tripura:Khowai", "state_key": "tripura" }, "geometry": { "type": "Polygon", "coordinates": [ [ [ 91.495, 24.0955 ], [ 91.4925, 24.0909 ], [ 91.4977, 24.0873 ], [ 91.5453, 24.0742 ], [ 91.5573, 24.0768 ], [ 91.5729, 24.0747 ], [ 91.5744, 24.08 ], [ 91.5861, 24.0726 ], [ 91.5985, 24.0845 ], [ 91.5913, 24.0926 ], [ 91.5954, 24.0933 ], [ 91.5945, 24.0965 ], [ 91.6026, 24.0966 ], [ 91.6114, 24.0917 ], [ 91.6292, 24.1015 ], [ 91.6371, 24.1021 ], [ 91.6412, 24.1131 ], [ 91.6344, 24.1381 ], [ 91.6466, 24.1566 ], [ 91.6468, 24.1786 ], [ 91.6563, 24.1762 ], [ 91.6601, 24.1895 ], [ 91.6591, 24.1954 ], [ 91.6526, 24.1959 ], [ 91.6545, 24.2025 ], [ 91.6477, 24.2185 ], [ 91.6585, 24.2282 ], [ 91.6642, 24.2291 ], [ 91.6654, 24.2335 ], [ 91.667, 24.2105 ], [ 91.6767, 24.2006 ], [ 91.6802, 24.1756 ], [ 91.6883, 24.1621 ], [ 91.695, 24.1595 ], [ 91.6974, 24.1637 ], [ 91.7033, 24.1635 ], [ 91.7061, 24.1543 ], [ 91.7218, 24.1525 ], [ 91.7284, 24.1432 ], [ 91.7367, 24.1459 ], [ 91.7395, 24.1415 ], [ 91.7605, 24.1407 ], [ 91.7562, 24.1347 ], [ 91.7593, 24.1303 ], [ 91.7541, 24.1169 ], [ 91.7598, 24.092 ], [ 91.7526, 24.0812 ], [ 91.7597, 24.0682 ], [ 91.7556, 24.0627 ], [ 91.7583, 24.045 ], [ 91.7549, 24.0331 ], [ 91.7595, 24.0251 ], [ 91.7544, 24.0006 ], [ 91.755, 23.9869 ], [ 91.7614, 23.9738 ], [ 91.757, 23.9616 ], [ 91.7594, 23.9574 ], [ 91.7361, 23.9562 ], [ 91.734, 23.9616 ], [ 91.728, 23.9612 ], [ 91.728, 23.9684 ], [ 91.7204, 23.9692 ], [ 91.718, 23.9833 ], [ 91.7108, 23.9833 ], [ 91.7071, 23.9747 ], [ 91.6883, 23.9632 ], [ 91.69, 23.9508 ], [ 91.6843, 23.9499 ], [ 91.6825, 23.9451 ], [ 91.6729, 23.9465 ], [ 91.6595, 23.9416 ], [ 91.6666, 23.9543 ], [ 91.6685, 23.9705 ], [ 91.6593, 23.9769 ], [ 91.6292, 23.9807 ], [ 91.622, 23.9845 ], [ 91.622, 23.9789 ], [ 91.6179, 23.9792 ], [ 91.6165, 23.9757 ], [ 91.6024, 23.9726 ], [ 91.5985, 23.9778 ], [ 91.5936, 23.9673 ], [ 91.5956, 23.9535 ], [ 91.5862, 23.944 ], [ 91.5552, 23.9426 ], [ 91.5482, 23.95 ], [ 91.5404, 23.948 ], [ 91.5378, 23.9391 ], [ 91.5272, 23.9361 ], [ 91.5194, 23.9475 ], [ 91.518, 23.9624 ], [ 91.5062, 23.9779 ], [ 91.5086, 23.987 ], [ 91.4943, 23.9989 ], [ 91.4962, 24.0079 ], [ 91.4866, 24.0421 ], [ 91.4891, 24.054 ], [ 91.4731, 24.0761 ], [ 91.4807, 24.0797 ], [ 91.4797, 24.0935 ], [ 91.4922, 24.0971 ], [ 91.495, 24.0955 ] ] ] } },
{ "type": "Feature", "properties": { "unit_id": "IND.33.3.1_1", "name": "Teliamura", "district": "Khowai", "did": "tripura:Khowai", "state_key": "tripura" }, "geometry": { "type": "Polygon", "coordinates": [ [ [ 91.7204, 23.9692 ], [ 91.728, 23.9684 ], [ 91.728, 23.9612 ], [ 91.734, 23.9616 ], [ 91.7361, 23.9562 ], [ 91.7594, 23.9574 ], [ 91.765, 23.9533 ], [ 91.7644, 23.9423 ], [ 91.7687, 23.9342 ], [ 91.7645, 23.9307 ], [ 91.7652, 23.9211 ], [ 91.7739, 23.922 ], [ 91.7784, 23.9191 ], [ 91.7831, 23.9215 ], [ 91.7897, 23.9095 ], [ 91.7949, 23.9148 ], [ 91.7979, 23.9056 ], [ 91.7896, 23.9022 ], [ 91.7897, 23.8922 ], [ 91.7958, 23.8886 ], [ 91.7973, 23.8798 ], [ 91.8065, 23.8682 ], [ 91.8068, 23.8491 ], [ 91.8023, 23.845 ], [ 91.8046, 23.8275 ], [ 91.8086, 23.825 ], [ 91.8022, 23.7838 ], [ 91.8031, 23.7535 ], [ 91.7848, 23.7551 ], [ 91.7727, 23.7323 ], [ 91.774, 23.7251 ], [ 91.7633, 23.7242 ], [ 91.7626, 23.6887 ], [ 91.7493, 23.6751 ], [ 91.7457, 23.6844 ], [ 91.7416, 23.6853 ], [ 91.7418, 23.6925 ], [ 91.7299, 23.7013 ], [ 91.7313, 23.7084 ], [ 91.7433, 23.7142 ], [ 91.7439, 23.7294 ], [ 91.7396, 23.732 ], [ 91.7378, 23.7411 ], [ 91.7227, 23.7507 ], [ 91.7223, 23.7581 ], [ 91.7173, 23.7598 ], [ 91.7172, 23.769 ], [ 91.7057, 23.7606 ], [ 91.6928, 23.7577 ], [ 91.6733, 23.7646 ], [ 91.649, 23.7643 ], [ 91.6469, 23.7687 ], [ 91.633, 23.7648 ], [ 91.6311, 23.7682 ], [ 91.6174, 23.7681 ], [ 91.5888, 23.7572 ], [ 91.5819, 23.7637 ], [ 91.5766, 23.7597 ], [ 91.5725, 23.7627 ], [ 91.5629, 23.8154 ], [ 91.5653, 23.8197 ], [ 91.5595, 23.8252 ], [ 91.5645, 23.8698 ], [ 91.5544, 23.8802 ], [ 91.5582, 23.9 ], [ 91.5539, 23.9123 ], [ 91.5448, 23.9056 ], [ 91.5444, 23.9086 ], [ 91.5351, 23.9076 ], [ 91.5272, 23.9108 ], [ 91.5359, 23.9299 ], [ 91.5313, 23.9301 ], [ 91.5326, 23.9332 ], [ 91.5273, 23.9334 ], [ 91.5259, 23.9371 ], [ 91.5378, 23.9391 ], [ 91.5404, 23.948 ], [ 91.5482, 23.95 ], [ 91.5552, 23.9426 ], [ 91.5862, 23.944 ], [ 91.5956, 23.9535 ], [ 91.5936, 23.9673 ], [ 91.5985, 23.9778 ], [ 91.6024, 23.9726 ], [ 91.6165, 23.9757 ], [ 91.6179, 23.9792 ], [ 91.622, 23.9789 ], [ 91.6227, 23.9846 ], [ 91.6292, 23.9807 ], [ 91.6593, 23.9769 ], [ 91.6698, 23.9688 ], [ 91.6651, 23.9504 ], [ 91.6588, 23.9429 ], [ 91.6635, 23.9415 ], [ 91.6724, 23.9464 ], [ 91.6825, 23.9451 ], [ 91.6843, 23.9499 ], [ 91.69, 23.9508 ], [ 91.6883, 23.9632 ], [ 91.7071, 23.9747 ], [ 91.7108, 23.9833 ], [ 91.7184, 23.9827 ], [ 91.7204, 23.9692 ] ] ] } },
{ "type": "Feature", "properties": { "unit_id": "IND.33.1.2_1", "name": "Ambasa", "district": "Dhalai", "did": "tripura:Dhalai", "state_key": "tripura" }, "geometry": { "type": "Polygon", "coordinates": [ [ [ 91.9206, 23.6941 ], [ 91.9129, 23.6872 ], [ 91.908, 23.6721 ], [ 91.8934, 23.6699 ], [ 91.8863, 23.6651 ], [ 91.8815, 23.6695 ], [ 91.8737, 23.6642 ], [ 91.8714, 23.6571 ], [ 91.8618, 23.6552 ], [ 91.8555, 23.6499 ], [ 91.8353, 23.6518 ], [ 91.8418, 23.6584 ], [ 91.8447, 23.6695 ], [ 91.8403, 23.6748 ], [ 91.8227, 23.6706 ], [ 91.8191, 23.6747 ], [ 91.8113, 23.6704 ], [ 91.7998, 23.6772 ], [ 91.7941, 23.6749 ], [ 91.7834, 23.6775 ], [ 91.7729, 23.6877 ], [ 91.7662, 23.6787 ], [ 91.7522, 23.6767 ], [ 91.7628, 23.6893 ], [ 91.7604, 23.7015 ], [ 91.7633, 23.7242 ], [ 91.774, 23.7251 ], [ 91.7727, 23.7323 ], [ 91.7848, 23.7551 ], [ 91.8031, 23.7535 ], [ 91.8022, 23.7838 ], [ 91.8086, 23.825 ], [ 91.8046, 23.8275 ], [ 91.8023, 23.8449 ], [ 91.8068, 23.8491 ], [ 91.8064, 23.8685 ], [ 91.7973, 23.8798 ], [ 91.7958, 23.8886 ], [ 91.7897, 23.8922 ], [ 91.7896, 23.9022 ], [ 91.7978, 23.9064 ], [ 91.7949, 23.9148 ], [ 91.7894, 23.9096 ], [ 91.7831, 23.9215 ], [ 91.7784, 23.9191 ], [ 91.7739, 23.922 ], [ 91.7652, 23.9211 ], [ 91.7645, 23.9307 ], [ 91.7687, 23.9342 ], [ 91.7644, 23.9423 ], [ 91.765, 23.9533 ], [ 91.757, 23.9614 ], [ 91.7614, 23.9738 ], [ 91.7549, 23.987 ], [ 91.7563, 23.9954 ], [ 91.7779, 23.9819 ], [ 91.7982, 23.9878 ], [ 91.809, 23.9854 ], [ 91.8219, 23.9927 ], [ 91.8354, 23.9855 ], [ 91.8401, 23.9906 ], [ 91.8562, 23.9937 ], [ 91.8608, 24.0073 ], [ 91.8643, 24.0039 ], [ 91.8659, 23.9791 ], [ 91.889, 23.9807 ], [ 91.8936, 23.9841 ], [ 91.9007, 23.9658 ], [ 91.9165, 23.9591 ], [ 91.9201, 23.9537 ], [ 91.9376, 23.901 ], [ 91.9467, 23.8937 ], [ 91.9494, 23.8796 ], [ 91.955, 23.8738 ], [ 91.9522, 23.8679 ], [ 91.9629, 23.8465 ], [ 91.9538, 23.8267 ], [ 91.9567, 23.8037 ], [ 91.9783, 23.7331 ], [ 91.9673, 23.7294 ], [ 91.9662, 23.7336 ], [ 91.957, 23.734 ], [ 91.9543, 23.7263 ], [ 91.9506, 23.7261 ], [ 91.9541, 23.7194 ], [ 91.9482, 23.714 ], [ 91.9507, 23.6996 ], [ 91.9579, 23.6944 ], [ 91.9414, 23.6919 ], [ 91.9206, 23.6941 ] ] ] } },
{ "type": "Feature", "properties": { "unit_id": "IND.33.2.1_1", "name": "Amarpur", "district": "Gomati", "did": "tripura:Gomati", "state_key": "tripura" }, "geometry": { "type": "Polygon", "coordinates": [ [ [ 91.8102, 23.4693 ], [ 91.8198, 23.4518 ], [ 91.8258, 23.4271 ], [ 91.8051, 23.4248 ], [ 91.7996, 23.4183 ], [ 91.7982, 23.4352 ], [ 91.7786, 23.4266 ], [ 91.7779, 23.4326 ], [ 91.7631, 23.4335 ], [ 91.749, 23.4255 ], [ 91.7412, 23.4303 ], [ 91.7401, 23.4377 ], [ 91.7295, 23.4246 ], [ 91.7275, 23.4312 ], [ 91.7218, 23.4298 ], [ 91.7131, 23.4345 ], [ 91.7085, 23.4333 ], [ 91.7047, 23.4228 ], [ 91.7019, 23.4314 ], [ 91.6935, 23.4314 ], [ 91.6811, 23.4247 ], [ 91.6776, 23.4178 ], [ 91.6537, 23.4255 ], [ 91.6452, 23.4329 ], [ 91.6458, 23.4421 ], [ 91.6275, 23.4416 ], [ 91.6251, 23.4615 ], [ 91.618, 23.4724 ], [ 91.6222, 23.4872 ], [ 91.6136, 23.4887 ], [ 91.6082, 23.4999 ], [ 91.599, 23.5029 ], [ 91.6008, 23.5171 ], [ 91.5899, 23.5335 ], [ 91.593, 23.5406 ], [ 91.5901, 23.5542 ], [ 91.6075, 23.5508 ], [ 91.5995, 23.5719 ], [ 91.6053, 23.5828 ], [ 91.5997, 23.5955 ], [ 91.6033, 23.6031 ], [ 91.5976, 23.6087 ], [ 91.6011, 23.6136 ], [ 91.5956, 23.6281 ], [ 91.6003, 23.6289 ], [ 91.6004, 23.6335 ], [ 91.5947, 23.663 ], [ 91.5883, 23.6726 ], [ 91.5852, 23.6895 ], [ 91.5786, 23.7009 ], [ 91.5802, 23.7089 ], [ 91.5683, 23.7361 ], [ 91.5765, 23.7523 ], [ 91.5725, 23.7627 ], [ 91.5766, 23.7597 ], [ 91.5819, 23.7637 ], [ 91.5888, 23.7572 ], [ 91.6174, 23.7681 ], [ 91.6311, 23.7682 ], [ 91.633, 23.7648 ], [ 91.6469, 23.7687 ], [ 91.649, 23.7643 ], [ 91.6733, 23.7646 ], [ 91.6928, 23.7577 ], [ 91.7057, 23.7606 ], [ 91.7172, 23.769 ], [ 91.7173, 23.7598 ], [ 91.7223, 23.7581 ], [ 91.7227, 23.7507 ], [ 91.7378, 23.7411 ], [ 91.7396, 23.732 ], [ 91.7439, 23.7294 ], [ 91.7433, 23.7142 ], [ 91.7313, 23.7084 ], [ 91.7299, 23.7013 ], [ 91.7418, 23.6925 ], [ 91.7459, 23.6771 ], [ 91.7522, 23.6767 ], [ 91.7526, 23.6514 ], [ 91.7612, 23.644 ], [ 91.7717, 23.6435 ], [ 91.7757, 23.6322 ], [ 91.766, 23.6287 ], [ 91.7713, 23.6056 ], [ 91.7569, 23.5771 ], [ 91.7525, 23.5749 ], [ 91.7548, 23.5711 ], [ 91.7624, 23.5716 ], [ 91.7653, 23.5668 ], [ 91.7793, 23.5642 ], [ 91.7879, 23.533 ], [ 91.7951, 23.5348 ], [ 91.7947, 23.5307 ], [ 91.8009, 23.5366 ], [ 91.8055, 23.5327 ], [ 91.8078, 23.5261 ], [ 91.801, 23.5186 ], [ 91.8043, 23.5124 ], [ 91.7986, 23.5061 ], [ 91.8017, 23.5038 ], [ 91.7979, 23.4893 ], [ 91.8128, 23.4726 ], [ 91.8102, 23.4693 ] ] ] } },
{ "type": "Feature", "properties": { "unit_id": "IND.33.2.2_1", "name": "Udaipur", "district": "Gomati", "did": "tripura:Gomati", "state_key": "tripura" }, "geometry": { "type": "Polygon", "coordinates": [ [ [ 91.6173, 23.4192 ], [ 91.6118, 23.4093 ], [ 91.6043, 23.4098 ], [ 91.5924, 23.3983 ], [ 91.5785, 23.4063 ], [ 91.5774, 23.4195 ], [ 91.5636, 23.4255 ], [ 91.5308, 23.4201 ], [ 91.5223, 23.4144 ], [ 91.5169, 23.4156 ], [ 91.5072, 23.4082 ], [ 91.4689, 23.4055 ], [ 91.4703, 23.3903 ], [ 91.4615, 23.3898 ], [ 91.4604, 23.3774 ], [ 91.4425, 23.3654 ], [ 91.4204, 23.3743 ], [ 91.4228, 23.3817 ], [ 91.4191, 23.3834 ], [ 91.4187, 23.3898 ], [ 91.4087, 23.3897 ], [ 91.4045, 23.3956 ], [ 91.3851, 23.4038 ], [ 91.3836, 23.4203 ], [ 91.3878, 23.4237 ], [ 91.389, 23.4334 ], [ 91.3802, 23.4369 ], [ 91.3769, 23.4444 ], [ 91.3811, 23.4678 ], [ 91.3924, 23.4787 ], [ 91.3826, 23.4863 ], [ 91.3863, 23.5005 ], [ 91.3822, 23.5022 ], [ 91.3821, 23.5115 ], [ 91.3753, 23.5177 ], [ 91.3874, 23.5256 ], [ 91.4014, 23.5242 ], [ 91.4023, 23.5296 ], [ 91.3955, 23.5367 ], [ 91.3991, 23.5407 ], [ 91.3945, 23.554 ], [ 91.3985, 23.562 ], [ 91.3977, 23.5848 ], [ 91.4329, 23.6089 ], [ 91.4403, 23.6219 ], [ 91.4373, 23.6248 ], [ 91.448, 23.6321 ], [ 91.4487, 23.6388 ], [ 91.4595, 23.6441 ], [ 91.4627, 23.6626 ], [ 91.472, 23.6649 ], [ 91.4797, 23.6729 ], [ 91.4878, 23.6771 ], [ 91.4871, 23.6694 ], [ 91.4949, 23.6711 ], [ 91.4959, 23.665 ], [ 91.5061, 23.6576 ], [ 91.5053, 23.6484 ], [ 91.5085, 23.6462 ], [ 91.5208, 23.6549 ], [ 91.5198, 23.658 ], [ 91.5256, 23.6583 ], [ 91.5234, 23.6699 ], [ 91.5274, 23.6797 ], [ 91.5404, 23.6833 ], [ 91.5438, 23.6883 ], [ 91.5348, 23.7035 ], [ 91.5291, 23.7065 ], [ 91.5331, 23.7111 ], [ 91.5386, 23.7113 ], [ 91.5371, 23.7265 ], [ 91.5586, 23.7278 ], [ 91.5647, 23.7362 ], [ 91.5688, 23.7357 ], [ 91.5757, 23.7221 ], [ 91.5804, 23.7079 ], [ 91.5786, 23.7009 ], [ 91.5852, 23.6895 ], [ 91.5883, 23.6726 ], [ 91.5939, 23.6662 ], [ 91.6004, 23.6335 ], [ 91.6003, 23.6289 ], [ 91.5956, 23.6281 ], [ 91.6011, 23.6136 ], [ 91.5976, 23.6087 ], [ 91.6034, 23.6027 ], [ 91.5999, 23.5948 ], [ 91.6053, 23.5828 ], [ 91.5995, 23.5719 ], [ 91.6075, 23.5508 ], [ 91.5901, 23.5542 ], [ 91.593, 23.5406 ], [ 91.59, 23.5329 ], [ 91.6008, 23.5171 ], [ 91.599, 23.5029 ], [ 91.6082, 23.4999 ], [ 91.6136, 23.4887 ], [ 91.6222, 23.4872 ], [ 91.618, 23.4724 ], [ 91.6251, 23.4615 ], [ 91.6253, 23.4241 ], [ 91.6173, 23.4192 ] ] ] } },
{ "type": "Feature", "properties": { "unit_id": "IND.33.1.2_1", "name": "Dambur Nagar Block", "district": "Dhalai", "did": "tripura:Dhalai", "state_key": "tripura" }, "geometry": { "type": "Polygon", "coordinates": [ [ [ 91.919, 23.4395 ], [ 91.9094, 23.4365 ], [ 91.8997, 23.4406 ], [ 91.8953, 23.4314 ], [ 91.8874, 23.4329 ], [ 91.8866, 23.4265 ], [ 91.8765, 23.4223 ], [ 91.8738, 23.414 ], [ 91.8673, 23.4125 ], [ 91.8606, 23.4052 ], [ 91.845, 23.4047 ], [ 91.8429, 23.4 ], [ 91.8387, 23.4201 ], [ 91.8432, 23.4248 ], [ 91.8383, 23.4284 ], [ 91.8401, 23.4324 ], [ 91.835, 23.442 ], [ 91.8288, 23.4427 ], [ 91.8319, 23.4504 ], [ 91.8271, 23.4629 ], [ 91.8239, 23.4677 ], [ 91.8134, 23.4687 ], [ 91.8113, 23.4763 ], [ 91.8057, 23.4791 ], [ 91.8068, 23.4828 ], [ 91.7979, 23.4893 ], [ 91.8017, 23.5038 ], [ 91.7986, 23.5061 ], [ 91.8043, 23.5124 ], [ 91.801, 23.5186 ], [ 91.8078, 23.5261 ], [ 91.8055, 23.5327 ], [ 91.8009, 23.5366 ], [ 91.7947, 23.5307 ], [ 91.7951, 23.5348 ], [ 91.7879, 23.533 ], [ 91.7793, 23.5642 ], [ 91.7653, 23.5668 ], [ 91.7624, 23.5716 ], [ 91.7548, 23.5711 ], [ 91.7525, 23.5749 ], [ 91.7569, 23.5771 ], [ 91.7713, 23.6056 ], [ 91.766, 23.6287 ], [ 91.7757, 23.6322 ], [ 91.7717, 23.6435 ], [ 91.7612, 23.644 ], [ 91.7526, 23.6514 ], [ 91.7504, 23.6732 ], [ 91.7557, 23.6783 ], [ 91.7662, 23.6787 ], [ 91.7722, 23.6877 ], [ 91.7834, 23.6775 ], [ 91.7941, 23.6749 ], [ 91.7998, 23.6772 ], [ 91.8113, 23.6704 ], [ 91.8191, 23.6747 ], [ 91.8203, 23.6707 ], [ 91.8429, 23.6737 ], [ 91.8419, 23.6588 ], [ 91.8353, 23.6518 ], [ 91.8555, 23.6499 ], [ 91.8618, 23.6552 ], [ 91.8714, 23.6571 ], [ 91.8737, 23.6642 ], [ 91.8815, 23.6695 ], [ 91.8863, 23.6651 ], [ 91.8934, 23.6699 ], [ 91.908, 23.6721 ], [ 91.9129, 23.6872 ], [ 91.9206, 23.6941 ], [ 91.9414, 23.692 ], [ 91.934, 23.6846 ], [ 91.9421, 23.6694 ], [ 91.9392, 23.6593 ], [ 91.9457, 23.6489 ], [ 91.9468, 23.6376 ], [ 91.9424, 23.6338 ], [ 91.9543, 23.6096 ], [ 91.9519, 23.6004 ], [ 91.9595, 23.564 ], [ 91.9568, 23.5513 ], [ 91.9646, 23.5353 ], [ 91.959, 23.5325 ], [ 91.9563, 23.5257 ], [ 91.9601, 23.5185 ], [ 91.9644, 23.5191 ], [ 91.9728, 23.4924 ], [ 91.9686, 23.4874 ], [ 91.9691, 23.4764 ], [ 91.9583, 23.4794 ], [ 91.9587, 23.4729 ], [ 91.9554, 23.4757 ], [ 91.9469, 23.4659 ], [ 91.9367, 23.4666 ], [ 91.9431, 23.4353 ], [ 91.9372, 23.4323 ], [ 91.9332, 23.436 ], [ 91.9231, 23.435 ], [ 91.919, 23.4395 ] ] ] } },
{ "type": "Feature", "properties": { "unit_id": "IND.33.2.1_1", "name": "Karbook", "district": "Gomati", "did": "tripura:Gomati", "state_key": "tripura" }, "geometry": { "type": "Polygon", "coordinates": [ [ [ 91.8134, 23.4687 ], [ 91.8248, 23.4672 ], [ 91.8319, 23.4504 ], [ 91.8288, 23.4427 ], [ 91.835, 23.442 ], [ 91.8401, 23.4324 ], [ 91.8383, 23.4284 ], [ 91.8432, 23.4248 ], [ 91.8388, 23.4222 ], [ 91.8431, 23.3993 ], [ 91.8419, 23.3884 ], [ 91.8362, 23.3864 ], [ 91.8377, 23.371 ], [ 91.8256, 23.3631 ], [ 91.8251, 23.3523 ], [ 91.8193, 23.3511 ], [ 91.8153, 23.3438 ], [ 91.8094, 23.344 ], [ 91.8053, 23.3328 ], [ 91.7833, 23.3244 ], [ 91.7793, 23.3175 ], [ 91.7644, 23.3093 ], [ 91.7598, 23.2833 ], [ 91.7651, 23.2725 ], [ 91.7771, 23.2692 ], [ 91.775, 23.2567 ], [ 91.7798, 23.2537 ], [ 91.7805, 23.247 ], [ 91.7762, 23.2432 ], [ 91.7797, 23.2393 ], [ 91.7836, 23.2433 ], [ 91.7842, 23.2325 ], [ 91.7911, 23.2267 ], [ 91.7919, 23.2181 ], [ 91.7879, 23.2151 ], [ 91.7926, 23.2092 ], [ 91.7889, 23.2044 ], [ 91.7989, 23.1936 ], [ 91.7947, 23.1866 ], [ 91.8063, 23.1791 ], [ 91.8032, 23.1768 ], [ 91.8067, 23.1752 ], [ 91.8049, 23.1681 ], [ 91.8101, 23.165 ], [ 91.8061, 23.1573 ], [ 91.8142, 23.1452 ], [ 91.8081, 23.1355 ], [ 91.8104, 23.1337 ], [ 91.8112, 23.1369 ], [ 91.8148, 23.1333 ], [ 91.8109, 23.1217 ], [ 91.8181, 23.112 ], [ 91.8176, 23.102 ], [ 91.8135, 23.0992 ], [ 91.8251, 23.0989 ], [ 91.8358, 23.0933 ], [ 91.8228, 23.0866 ], [ 91.8243, 23.0837 ], [ 91.8097, 23.09 ], [ 91.8068, 23.0962 ], [ 91.8016, 23.0961 ], [ 91.7846, 23.1288 ], [ 91.7807, 23.1281 ], [ 91.7838, 23.1201 ], [ 91.7802, 23.1172 ], [ 91.7726, 23.1227 ], [ 91.7737, 23.1321 ], [ 91.7669, 23.1371 ], [ 91.7589, 23.1375 ], [ 91.7492, 23.144 ], [ 91.7313, 23.1413 ], [ 91.727, 23.1573 ], [ 91.7231, 23.1585 ], [ 91.7248, 23.1636 ], [ 91.7212, 23.1653 ], [ 91.7246, 23.1679 ], [ 91.7247, 23.1843 ], [ 91.7162, 23.1896 ], [ 91.7287, 23.1979 ], [ 91.7572, 23.1928 ], [ 91.7601, 23.1988 ], [ 91.7521, 23.2156 ], [ 91.7562, 23.2212 ], [ 91.7486, 23.231 ], [ 91.7493, 23.2364 ], [ 91.7429, 23.2391 ], [ 91.7465, 23.2473 ], [ 91.7395, 23.2705 ], [ 91.7284, 23.2815 ], [ 91.7284, 23.307 ], [ 91.7321, 23.3074 ], [ 91.7356, 23.315 ], [ 91.7336, 23.3219 ], [ 91.7289, 23.3253 ], [ 91.7281, 23.3196 ], [ 91.7212, 23.3215 ], [ 91.7214, 23.3259 ], [ 91.7105, 23.3318 ], [ 91.7027, 23.3419 ], [ 91.704, 23.3462 ], [ 91.6973, 23.3467 ], [ 91.704, 23.3598 ], [ 91.6886, 23.3742 ], [ 91.6874, 23.3704 ], [ 91.6781, 23.3722 ], [ 91.6747, 23.3668 ], [ 91.6667, 23.367 ], [ 91.652, 23.3591 ], [ 91.6508, 23.3658 ], [ 91.6454, 23.3695 ], [ 91.641, 23.3934 ], [ 91.6321, 23.3926 ], [ 91.6315, 23.4058 ], [ 91.6283, 23.408 ], [ 91.6324, 23.4165 ], [ 91.6246, 23.4303 ], [ 91.6283, 23.4421 ], [ 91.6458, 23.4421 ], [ 91.6452, 23.4329 ], [ 91.6537, 23.4255 ], [ 91.6776, 23.4178 ], [ 91.6811, 23.4247 ], [ 91.6935, 23.4314 ], [ 91.7019, 23.4314 ], [ 91.7047, 23.4228 ], [ 91.7085, 23.4333 ], [ 91.7131, 23.4345 ], [ 91.7218, 23.4298 ], [ 91.7275, 23.4312 ], [ 91.7295, 23.4246 ], [ 91.7394, 23.4376 ], [ 91.7426, 23.436 ], [ 91.7412, 23.4303 ], [ 91.749, 23.4255 ], [ 91.7653, 23.4336 ], [ 91.7779, 23.4326 ], [ 91.7779, 23.427 ], [ 91.7816, 23.4269 ], [ 91.7976, 23.4326 ], [ 91.7974, 23.4354 ], [ 91.7994, 23.434 ], [ 91.7973, 23.4197 ], [ 91.7996, 23.4183 ], [ 91.8051, 23.4248 ], [ 91.8258, 23.4271 ], [ 91.8198, 23.4518 ], [ 91.8102, 23.4693 ], [ 91.8128, 23.4726 ], [ 91.8134, 23.4687 ] ] ] } },
{ "type": "Feature", "properties": { "unit_id": "IND.33.6.2_1", "name": "Sabrum", "district": "South Tripura", "did": "tripura:South Tripura", "state_key": "tripura" }, "geometry": { "type": "Polygon", "coordinates": [ [ [ 91.5315, 23.0553 ], [ 91.5451, 23.0596 ], [ 91.5656, 23.0583 ], [ 91.5733, 23.0687 ], [ 91.5883, 23.0689 ], [ 91.5907, 23.0754 ], [ 91.5875, 23.0962 ], [ 91.5768, 23.1143 ], [ 91.5796, 23.1187 ], [ 91.5738, 23.1302 ], [ 91.5787, 23.1439 ], [ 91.5845, 23.1484 ], [ 91.5816, 23.1602 ], [ 91.5978, 23.1623 ], [ 91.5997, 23.1655 ], [ 91.6212, 23.1652 ], [ 91.6253, 23.1687 ], [ 91.6291, 23.166 ], [ 91.6403, 23.1672 ], [ 91.6488, 23.1725 ], [ 91.6675, 23.1736 ], [ 91.68, 23.1819 ], [ 91.6923, 23.1764 ], [ 91.699, 23.1836 ], [ 91.7015, 23.1815 ], [ 91.7065, 23.1873 ], [ 91.7162, 23.1896 ], [ 91.7247, 23.1843 ], [ 91.7246, 23.1679 ], [ 91.7212, 23.1653 ], [ 91.7248, 23.1636 ], [ 91.7231, 23.1585 ], [ 91.727, 23.1573 ], [ 91.732, 23.1403 ], [ 91.7492, 23.144 ], [ 91.7589, 23.1375 ], [ 91.7669, 23.1371 ], [ 91.7737, 23.1321 ], [ 91.7726, 23.1227 ], [ 91.7802, 23.1172 ], [ 91.7838, 23.1201 ], [ 91.7807, 23.1281 ], [ 91.7846, 23.1288 ], [ 91.8016, 23.0961 ], [ 91.8068, 23.0962 ], [ 91.8138, 23.0871 ], [ 91.8245, 23.0837 ], [ 91.8197, 23.0798 ], [ 91.8183, 23.083 ], [ 91.8147, 23.0806 ], [ 91.8184, 23.0727 ], [ 91.8132, 23.0735 ], [ 91.8123, 23.0663 ], [ 91.806, 23.067 ], [ 91.806, 23.063 ], [ 91.7992, 23.0649 ], [ 91.7941, 23.0623 ], [ 91.7958, 23.0673 ], [ 91.7895, 23.0717 ], [ 91.789, 23.0672 ], [ 91.7848, 23.0715 ], [ 91.7745, 23.0696 ], [ 91.7841, 23.0379 ], [ 91.7817, 23.0339 ], [ 91.7789, 23.0365 ], [ 91.7806, 23.0291 ], [ 91.7743, 23.0271 ], [ 91.7744, 23.0385 ], [ 91.7685, 23.0409 ], [ 91.7719, 23.033 ], [ 91.7682, 23.0342 ], [ 91.7611, 23.0299 ], [ 91.7615, 23.0262 ], [ 91.7534, 23.0221 ], [ 91.7439, 23.0064 ], [ 91.7261, 22.9989 ], [ 91.7206, 22.9874 ], [ 91.7121, 22.9889 ], [ 91.7088, 22.9819 ], [ 91.7033, 22.9883 ], [ 91.6937, 22.9883 ], [ 91.6818, 22.9772 ], [ 91.678, 22.9808 ], [ 91.6709, 22.9771 ], [ 91.6646, 22.9816 ], [ 91.6619, 22.9792 ], [ 91.6577, 22.9817 ], [ 91.6581, 22.9781 ], [ 91.6515, 22.9767 ], [ 91.6455, 22.985 ], [ 91.6457, 22.9766 ], [ 91.6408, 22.9749 ], [ 91.6356, 22.9611 ], [ 91.6309, 22.959 ], [ 91.6246, 22.9616 ], [ 91.6256, 22.9443 ], [ 91.62, 22.9384 ], [ 91.6127, 22.947 ], [ 91.6158, 22.9515 ], [ 91.6068, 22.9505 ], [ 91.609, 22.957 ], [ 91.6003, 22.9543 ], [ 91.6049, 22.9622 ], [ 91.6138, 22.9584 ], [ 91.6056, 22.9653 ], [ 91.6061, 22.9719 ], [ 91.6014, 22.9713 ], [ 91.5992, 22.9759 ], [ 91.5931, 22.9726 ], [ 91.5906, 22.9769 ], [ 91.5768, 22.9652 ], [ 91.5572, 22.9785 ], [ 91.557, 22.9966 ], [ 91.5475, 22.9942 ], [ 91.5425, 22.9995 ], [ 91.5482, 23.0192 ], [ 91.5384, 23.0192 ], [ 91.5504, 23.0384 ], [ 91.5305, 23.0383 ], [ 91.5352, 23.0553 ], [ 91.5315, 23.0553 ] ] ] } },
{ "type": "Feature", "properties": { "unit_id": "IND.33.6.1_1", "name": "Santir Bazar", "district": "South Tripura", "did": "tripura:South Tripura", "state_key": "tripura" }, "geometry": { "type": "Polygon", "coordinates": [ [ [ 91.6324, 23.4165 ], [ 91.6283, 23.408 ], [ 91.6315, 23.4058 ], [ 91.6321, 23.3926 ], [ 91.641, 23.3934 ], [ 91.6454, 23.3695 ], [ 91.6508, 23.3658 ], [ 91.652, 23.3591 ], [ 91.6667, 23.367 ], [ 91.6747, 23.3668 ], [ 91.6781, 23.3722 ], [ 91.6874, 23.3704 ], [ 91.6886, 23.3742 ], [ 91.704, 23.3598 ], [ 91.6973, 23.3467 ], [ 91.704, 23.3462 ], [ 91.7027, 23.3419 ], [ 91.7105, 23.3318 ], [ 91.7214, 23.3259 ], [ 91.7212, 23.3215 ], [ 91.7273, 23.3194 ], [ 91.7283, 23.325 ], [ 91.7329, 23.3235 ], [ 91.7356, 23.315 ], [ 91.7321, 23.3074 ], [ 91.7284, 23.307 ], [ 91.7284, 23.2815 ], [ 91.7395, 23.2705 ], [ 91.7465, 23.2473 ], [ 91.7429, 23.2391 ], [ 91.7493, 23.2364 ], [ 91.7486, 23.231 ], [ 91.7562, 23.2212 ], [ 91.7521, 23.2156 ], [ 91.7601, 23.1988 ], [ 91.7572, 23.1928 ], [ 91.7287, 23.1979 ], [ 91.7138, 23.188 ], [ 91.7065, 23.1873 ], [ 91.7035, 23.1823 ], [ 91.699, 23.1836 ], [ 91.6923, 23.1764 ], [ 91.68, 23.1819 ], [ 91.6675, 23.1736 ], [ 91.6488, 23.1725 ], [ 91.6403, 23.1672 ], [ 91.6291, 23.166 ], [ 91.6253, 23.1687 ], [ 91.6212, 23.1652 ], [ 91.5997, 23.1655 ], [ 91.5978, 23.1623 ], [ 91.5881, 23.1609 ], [ 91.5566, 23.2312 ], [ 91.555, 23.2623 ], [ 91.5383, 23.2879 ], [ 91.5348, 23.3014 ], [ 91.5388, 23.3122 ], [ 91.517, 23.3038 ], [ 91.5036, 23.3119 ], [ 91.5025, 23.3165 ], [ 91.5138, 23.3359 ], [ 91.507, 23.3425 ], [ 91.4948, 23.3401 ], [ 91.4766, 23.3579 ], [ 91.4767, 23.3619 ], [ 91.4875, 23.3662 ], [ 91.4876, 23.3698 ], [ 91.4677, 23.404 ], [ 91.5072, 23.4082 ], [ 91.5169, 23.4156 ], [ 91.5223, 23.4144 ], [ 91.5308, 23.4201 ], [ 91.5636, 23.4255 ], [ 91.5774, 23.4195 ], [ 91.5785, 23.4063 ], [ 91.5924, 23.3983 ], [ 91.6043, 23.4098 ], [ 91.6118, 23.4093 ], [ 91.6255, 23.4253 ], [ 91.6324, 23.4165 ] ] ] } },
{ "type": "Feature", "properties": { "unit_id": "IND.33.6.1_1", "name": "Belona", "district": "South Tripura", "did": "tripura:South Tripura", "state_key": "tripura" }, "geometry": { "type": "Polygon", "coordinates": [ [ [ 91.4876, 23.3698 ], [ 91.4875, 23.3662 ], [ 91.4767, 23.3619 ], [ 91.4766, 23.3579 ], [ 91.4948, 23.3401 ], [ 91.507, 23.3425 ], [ 91.5138, 23.3359 ], [ 91.5025, 23.3165 ], [ 91.5036, 23.3119 ], [ 91.517, 23.3038 ], [ 91.5388, 23.3122 ], [ 91.5348, 23.3014 ], [ 91.5383, 23.2879 ], [ 91.555, 23.2623 ], [ 91.5566, 23.2312 ], [ 91.5869, 23.1611 ], [ 91.5813, 23.16 ], [ 91.5845, 23.1484 ], [ 91.5787, 23.1439 ], [ 91.5738, 23.1302 ], [ 91.5796, 23.1187 ], [ 91.5768, 23.1143 ], [ 91.5863, 23.1009 ], [ 91.5907, 23.0748 ], [ 91.587, 23.0678 ], [ 91.5733, 23.0687 ], [ 91.5656, 23.0583 ], [ 91.5451, 23.0596 ], [ 91.525, 23.0553 ], [ 91.5258, 23.06 ], [ 91.5353, 23.0633 ], [ 91.5251, 23.0828 ], [ 91.53, 23.0857 ], [ 91.5298, 23.0917 ], [ 91.5189, 23.0942 ], [ 91.5224, 23.104 ], [ 91.5113, 23.1042 ], [ 91.5123, 23.1132 ], [ 91.5204, 23.1144 ], [ 91.5154, 23.1176 ], [ 91.5176, 23.1254 ], [ 91.5038, 23.1272 ], [ 91.5031, 23.1305 ], [ 91.5149, 23.1386 ], [ 91.5153, 23.145 ], [ 91.5082, 23.1396 ], [ 91.4987, 23.1425 ], [ 91.4947, 23.1471 ], [ 91.5072, 23.1542 ], [ 91.4943, 23.1522 ], [ 91.4909, 23.1576 ], [ 91.4983, 23.1716 ], [ 91.4924, 23.1719 ], [ 91.4917, 23.1776 ], [ 91.5067, 23.1799 ], [ 91.5075, 23.1837 ], [ 91.5011, 23.1853 ], [ 91.5032, 23.1921 ], [ 91.4922, 23.1888 ], [ 91.4885, 23.1921 ], [ 91.4849, 23.1882 ], [ 91.4708, 23.1964 ], [ 91.4824, 23.1984 ], [ 91.4844, 23.2092 ], [ 91.4754, 23.2204 ], [ 91.4586, 23.2133 ], [ 91.4506, 23.2194 ], [ 91.4533, 23.2232 ], [ 91.4703, 23.2276 ], [ 91.4579, 23.246 ], [ 91.4471, 23.2438 ], [ 91.4452, 23.2471 ], [ 91.4554, 23.2564 ], [ 91.4542, 23.2604 ], [ 91.4314, 23.2624 ], [ 91.4249, 23.258 ], [ 91.4212, 23.2618 ], [ 91.4183, 23.2554 ], [ 91.4154, 23.2633 ], [ 91.4196, 23.2733 ], [ 91.4156, 23.2828 ], [ 91.4089, 23.2851 ], [ 91.4113, 23.2557 ], [ 91.4056, 23.2566 ], [ 91.4004, 23.2657 ], [ 91.3976, 23.2651 ], [ 91.3973, 23.2562 ], [ 91.4087, 23.2476 ], [ 91.3926, 23.2459 ], [ 91.4009, 23.2291 ], [ 91.3865, 23.2276 ], [ 91.3921, 23.22 ], [ 91.3808, 23.2084 ], [ 91.3878, 23.2079 ], [ 91.3855, 23.1918 ], [ 91.381, 23.1916 ], [ 91.3799, 23.1845 ], [ 91.383, 23.1845 ], [ 91.3819, 23.175 ], [ 91.3852, 23.1752 ], [ 91.3848, 23.1562 ], [ 91.3893, 23.1526 ], [ 91.3973, 23.1301 ], [ 91.397, 23.1177 ], [ 91.4034, 23.1137 ], [ 91.4003, 23.0964 ], [ 91.4061, 23.0969 ], [ 91.4081, 23.0835 ], [ 91.4175, 23.0829 ], [ 91.4109, 23.0662 ], [ 91.4172, 23.065 ], [ 91.416, 23.0626 ], [ 91.3959, 23.056 ], [ 91.3698, 23.0704 ], [ 91.347, 23.1023 ], [ 91.3476, 23.1188 ], [ 91.3419, 23.1178 ], [ 91.3331, 23.1528 ], [ 91.3233, 23.158 ], [ 91.3237, 23.2374 ], [ 91.3189, 23.2398 ], [ 91.3187, 23.2455 ], [ 91.3255, 23.2471 ], [ 91.3266, 23.2523 ], [ 91.318, 23.2529 ], [ 91.3098, 23.2764 ], [ 91.3161, 23.28 ], [ 91.3271, 23.2765 ], [ 91.3409, 23.2791 ], [ 91.3706, 23.3026 ], [ 91.3778, 23.3235 ], [ 91.3877, 23.3255 ], [ 91.3865, 23.331 ], [ 91.3923, 23.3416 ], [ 91.3877, 23.3556 ], [ 91.3938, 23.3608 ], [ 91.3986, 23.3584 ], [ 91.4052, 23.3684 ], [ 91.4102, 23.3671 ], [ 91.4204, 23.3743 ], [ 91.4425, 23.3654 ], [ 91.4604, 23.3774 ], [ 91.4615, 23.3898 ], [ 91.47, 23.3901 ], [ 91.4703, 23.3954 ], [ 91.4854, 23.3785 ], [ 91.4876, 23.3698 ] ] ] } },
{ "type": "Feature", "properties": { "unit_id": "IND.33.5.1_1", "name": "Sonamura", "district": "Sepahijala", "did": "tripura:Sepahijala", "state_key": "tripura" }, "geometry": { "type": "Polygon", "coordinates": [ [ [ 91.1738, 23.6564 ], [ 91.176, 23.6596 ], [ 91.1819, 23.6564 ], [ 91.1827, 23.6597 ], [ 91.1929, 23.6544 ], [ 91.1907, 23.6469 ], [ 91.1938, 23.646 ], [ 91.2046, 23.6504 ], [ 91.2025, 23.6539 ], [ 91.2056, 23.6565 ], [ 91.2135, 23.6562 ], [ 91.2173, 23.6313 ], [ 91.2236, 23.6258 ], [ 91.2234, 23.6194 ], [ 91.2179, 23.6162 ], [ 91.2229, 23.6043 ], [ 91.2214, 23.597 ], [ 91.2322, 23.5933 ], [ 91.2359, 23.5832 ], [ 91.241, 23.5883 ], [ 91.2433, 23.585 ], [ 91.2473, 23.5875 ], [ 91.2467, 23.5952 ], [ 91.2563, 23.5937 ], [ 91.2529, 23.5864 ], [ 91.2622, 23.5808 ], [ 91.2664, 23.5698 ], [ 91.2713, 23.5731 ], [ 91.273, 23.5689 ], [ 91.3013, 23.5658 ], [ 91.3096, 23.5739 ], [ 91.3089, 23.5807 ], [ 91.3177, 23.5841 ], [ 91.3319, 23.5763 ], [ 91.3432, 23.5775 ], [ 91.3525, 23.5708 ], [ 91.3583, 23.5753 ], [ 91.3642, 23.5746 ], [ 91.368, 23.5834 ], [ 91.3825, 23.589 ], [ 91.3976, 23.5846 ], [ 91.3985, 23.562 ], [ 91.3945, 23.554 ], [ 91.3991, 23.5407 ], [ 91.3955, 23.5367 ], [ 91.4022, 23.5293 ], [ 91.4008, 23.5234 ], [ 91.3881, 23.5257 ], [ 91.3753, 23.5177 ], [ 91.3821, 23.5115 ], [ 91.3822, 23.5022 ], [ 91.3863, 23.5005 ], [ 91.3826, 23.4863 ], [ 91.3924, 23.4787 ], [ 91.3811, 23.4678 ], [ 91.3769, 23.4444 ], [ 91.3802, 23.4369 ], [ 91.389, 23.4334 ], [ 91.3878, 23.4237 ], [ 91.3836, 23.4203 ], [ 91.3852, 23.4034 ], [ 91.4045, 23.3956 ], [ 91.4087, 23.3897 ], [ 91.4187, 23.3898 ], [ 91.4227, 23.3813 ], [ 91.42, 23.3735 ], [ 91.4102, 23.3671 ], [ 91.4052, 23.3684 ], [ 91.3986, 23.3584 ], [ 91.3938, 23.3608 ], [ 91.3877, 23.3556 ], [ 91.3923, 23.3416 ], [ 91.3865, 23.331 ], [ 91.3876, 23.3253 ], [ 91.3784, 23.3243 ], [ 91.3708, 23.3028 ], [ 91.3409, 23.2791 ], [ 91.3262, 23.2766 ], [ 91.3023, 23.2864 ], [ 91.3002, 23.2925 ], [ 91.3072, 23.2998 ], [ 91.315, 23.2966 ], [ 91.3132, 23.3063 ], [ 91.3095, 23.3139 ], [ 91.2962, 23.3134 ], [ 91.2899, 23.3185 ], [ 91.2962, 23.3409 ], [ 91.3108, 23.3424 ], [ 91.3111, 23.3527 ], [ 91.318, 23.353 ], [ 91.3201, 23.3601 ], [ 91.3149, 23.3609 ], [ 91.3011, 23.3516 ], [ 91.2911, 23.3507 ], [ 91.2949, 23.3612 ], [ 91.2862, 23.3631 ], [ 91.2842, 23.3711 ], [ 91.2938, 23.3712 ], [ 91.2943, 23.3747 ], [ 91.2921, 23.3781 ], [ 91.2885, 23.3754 ], [ 91.2798, 23.3766 ], [ 91.2764, 23.4147 ], [ 91.2634, 23.4237 ], [ 91.2707, 23.4298 ], [ 91.2565, 23.4415 ], [ 91.2516, 23.4536 ], [ 91.2493, 23.4902 ], [ 91.2364, 23.489 ], [ 91.2356, 23.5018 ], [ 91.2235, 23.4973 ], [ 91.218, 23.4995 ], [ 91.2236, 23.514 ], [ 91.2078, 23.512 ], [ 91.2008, 23.52 ], [ 91.2129, 23.5504 ], [ 91.2075, 23.5454 ], [ 91.202, 23.5501 ], [ 91.1945, 23.5472 ], [ 91.1951, 23.5625 ], [ 91.1873, 23.5775 ], [ 91.1753, 23.5855 ], [ 91.1771, 23.5932 ], [ 91.1625, 23.595 ], [ 91.1581, 23.6218 ], [ 91.1614, 23.6543 ], [ 91.1563, 23.6707 ], [ 91.1704, 23.6575 ], [ 91.1738, 23.6564 ] ] ] } },
{ "type": "Feature", "properties": { "unit_id": "IND.33.5.1_1", "name": "Bishalgarh", "district": "Sepahijala", "did": "tripura:Sepahijala", "state_key": "tripura" }, "geometry": { "type": "Polygon", "coordinates": [ [ [ 91.2085, 23.6864 ], [ 91.2037, 23.6854 ], [ 91.1955, 23.6921 ], [ 91.1535, 23.6892 ], [ 91.1492, 23.7115 ], [ 91.1571, 23.742 ], [ 91.1676, 23.7496 ], [ 91.1966, 23.7511 ], [ 91.2104, 23.7492 ], [ 91.219, 23.7364 ], [ 91.2215, 23.7431 ], [ 91.2336, 23.7322 ], [ 91.2393, 23.7388 ], [ 91.2438, 23.739 ], [ 91.25, 23.73 ], [ 91.2655, 23.7341 ], [ 91.2695, 23.7293 ], [ 91.2813, 23.7266 ], [ 91.285, 23.7271 ], [ 91.2886, 23.7383 ], [ 91.2928, 23.7389 ], [ 91.2948, 23.7384 ], [ 91.3058, 23.7292 ], [ 91.3211, 23.7236 ], [ 91.3361, 23.71 ], [ 91.3313, 23.6877 ], [ 91.3554, 23.6879 ], [ 91.3574, 23.6808 ], [ 91.3634, 23.679 ], [ 91.3773, 23.6869 ], [ 91.389, 23.6726 ], [ 91.3826, 23.661 ], [ 91.3747, 23.6641 ], [ 91.3663, 23.6596 ], [ 91.3638, 23.6664 ], [ 91.3545, 23.6686 ], [ 91.3531, 23.664 ], [ 91.3438, 23.6624 ], [ 91.3342, 23.6679 ], [ 91.3262, 23.6419 ], [ 91.3311, 23.6349 ], [ 91.3366, 23.6383 ], [ 91.3566, 23.6328 ], [ 91.3585, 23.6138 ], [ 91.3918, 23.5988 ], [ 91.3972, 23.5944 ], [ 91.3959, 23.5864 ], [ 91.4002, 23.586 ], [ 91.3976, 23.5846 ], [ 91.3944, 23.5851 ], [ 91.3825, 23.589 ], [ 91.368, 23.5834 ], [ 91.3642, 23.5746 ], [ 91.3583, 23.5753 ], [ 91.3525, 23.5708 ], [ 91.3432, 23.5775 ], [ 91.3319, 23.5763 ], [ 91.3177, 23.5841 ], [ 91.3089, 23.5807 ], [ 91.3096, 23.5739 ], [ 91.3013, 23.5658 ], [ 91.273, 23.5689 ], [ 91.2713, 23.5731 ], [ 91.2664, 23.5698 ], [ 91.2622, 23.5808 ], [ 91.2529, 23.5864 ], [ 91.2563, 23.5937 ], [ 91.2467, 23.5952 ], [ 91.2473, 23.5875 ], [ 91.2433, 23.585 ], [ 91.241, 23.5883 ], [ 91.2359, 23.5832 ], [ 91.2322, 23.5933 ], [ 91.2222, 23.5957 ], [ 91.2179, 23.6162 ], [ 91.2234, 23.6194 ], [ 91.2236, 23.6258 ], [ 91.2173, 23.6313 ], [ 91.2135, 23.6562 ], [ 91.2015, 23.6559 ], [ 91.2033, 23.6801 ], [ 91.2085, 23.6864 ] ] ] } },
{ "type": "Feature", "properties": { "unit_id": "IND.33.5.1_1", "name": "Jampuijala", "district": "Sepahijala", "did": "tripura:Sepahijala", "state_key": "tripura" }, "geometry": { "type": "Polygon", "coordinates": [ [ [ 91.3959, 23.5864 ], [ 91.3972, 23.5944 ], [ 91.3918, 23.5988 ], [ 91.3585, 23.6138 ], [ 91.3566, 23.6328 ], [ 91.3366, 23.6383 ], [ 91.3311, 23.6349 ], [ 91.3265, 23.6412 ], [ 91.3342, 23.6679 ], [ 91.3438, 23.6624 ], [ 91.3531, 23.664 ], [ 91.3545, 23.6686 ], [ 91.3638, 23.6664 ], [ 91.3663, 23.6596 ], [ 91.3747, 23.6641 ], [ 91.3826, 23.661 ], [ 91.389, 23.6726 ], [ 91.3773, 23.6869 ], [ 91.3634, 23.679 ], [ 91.3574, 23.6808 ], [ 91.3554, 23.6879 ], [ 91.3313, 23.6877 ], [ 91.3367, 23.7089 ], [ 91.3154, 23.726 ], [ 91.3179, 23.7566 ], [ 91.3316, 23.7584 ], [ 91.3603, 23.7405 ], [ 91.3667, 23.7405 ], [ 91.3744, 23.7451 ], [ 91.3866, 23.7452 ], [ 91.3872, 23.7644 ], [ 91.3797, 23.7692 ], [ 91.3843, 23.7716 ], [ 91.4009, 23.7639 ], [ 91.4325, 23.7645 ], [ 91.443, 23.745 ], [ 91.4665, 23.7455 ], [ 91.4764, 23.7411 ], [ 91.4814, 23.7458 ], [ 91.4933, 23.7411 ], [ 91.4972, 23.7473 ], [ 91.5082, 23.7516 ], [ 91.5169, 23.7506 ], [ 91.5204, 23.7621 ], [ 91.5414, 23.7686 ], [ 91.5519, 23.7806 ], [ 91.5521, 23.7856 ], [ 91.5577, 23.7823 ], [ 91.566, 23.7871 ], [ 91.5765, 23.7528 ], [ 91.5753, 23.7455 ], [ 91.5586, 23.7278 ], [ 91.5372, 23.7267 ], [ 91.5386, 23.7113 ], [ 91.5331, 23.7111 ], [ 91.5291, 23.7065 ], [ 91.5348, 23.7035 ], [ 91.5438, 23.6883 ], [ 91.5404, 23.6833 ], [ 91.5274, 23.6797 ], [ 91.5234, 23.6699 ], [ 91.5256, 23.6583 ], [ 91.5198, 23.658 ], [ 91.5208, 23.6549 ], [ 91.5085, 23.6462 ], [ 91.5053, 23.6484 ], [ 91.5061, 23.6576 ], [ 91.4959, 23.665 ], [ 91.4949, 23.6711 ], [ 91.4871, 23.6694 ], [ 91.4878, 23.6771 ], [ 91.4797, 23.6729 ], [ 91.472, 23.6649 ], [ 91.4627, 23.6626 ], [ 91.4595, 23.6441 ], [ 91.4487, 23.6388 ], [ 91.448, 23.6321 ], [ 91.4373, 23.6248 ], [ 91.4403, 23.6219 ], [ 91.4329, 23.6089 ], [ 91.4002, 23.586 ], [ 91.3959, 23.5864 ] ] ] } },
{ "type": "Feature", "properties": { "unit_id": "IND.33.8.1_1", "name": "Sadar", "district": "West Tripura", "did": "tripura:West Tripura", "state_key": "tripura" }, "geometry": { "type": "Polygon", "coordinates": [ [ [ 91.2502, 23.8463 ], [ 91.2614, 23.8478 ], [ 91.2683, 23.8514 ], [ 91.2705, 23.8583 ], [ 91.2745, 23.8583 ], [ 91.2727, 23.8749 ], [ 91.2762, 23.8813 ], [ 91.2857, 23.8801 ], [ 91.3071, 23.8928 ], [ 91.31, 23.8834 ], [ 91.3101, 23.8861 ], [ 91.3203, 23.887 ], [ 91.3237, 23.8852 ], [ 91.3172, 23.8713 ], [ 91.3194, 23.8621 ], [ 91.332, 23.8569 ], [ 91.3409, 23.8448 ], [ 91.3215, 23.839 ], [ 91.3243, 23.8273 ], [ 91.331, 23.8227 ], [ 91.3293, 23.8111 ], [ 91.3325, 23.807 ], [ 91.3448, 23.8078 ], [ 91.3446, 23.7774 ], [ 91.3371, 23.7715 ], [ 91.3623, 23.7635 ], [ 91.3759, 23.7687 ], [ 91.3828, 23.7677 ], [ 91.3872, 23.7644 ], [ 91.3866, 23.7452 ], [ 91.3603, 23.7405 ], [ 91.3316, 23.7584 ], [ 91.3238, 23.7592 ], [ 91.3166, 23.7528 ], [ 91.3152, 23.7259 ], [ 91.2932, 23.7389 ], [ 91.2886, 23.7383 ], [ 91.2839, 23.7269 ], [ 91.2698, 23.7291 ], [ 91.2655, 23.7341 ], [ 91.25, 23.73 ], [ 91.2438, 23.739 ], [ 91.2393, 23.7388 ], [ 91.2336, 23.7322 ], [ 91.2215, 23.7431 ], [ 91.2307, 23.7649 ], [ 91.2305, 23.7844 ], [ 91.2264, 23.7909 ], [ 91.2541, 23.837 ], [ 91.2502, 23.8463 ] ] ] } }
]
}
