{
"type": "FeatureCollection",
"crs": { "type": "name", "properties": { "name": "urn:ogc:def:crs:OGC:1.3:CRS84" } },
"xy_coordinate_resolution": 0.0001,
"features": [
{ "type": "Feature", "properties": { "unit_id": "IND.23.1.1_1", "name": "Sakawrdai", "district": "Aizwal", "did": "mizoram:Aizwal", "state_key": "mizoram" }, "geometry": { "type": "Polygon", "coordinates": [ [ [ 92.7994, 24.4191 ], [ 92.8068, 24.4188 ], [ 92.8124, 24.4093 ], [ 92.8189, 24.4101 ], [ 92.8202, 24.4037 ], [ 92.8299, 24.4003 ], [ 92.8231, 24.3865 ], [ 92.8296, 24.3736 ], [ 92.8358, 24.3785 ], [ 92.8434, 24.3779 ], [ 92.8462, 24.386 ], [ 92.8609, 24.3985 ], [ 92.8733, 24.3949 ], [ 92.8837, 24.4024 ], [ 92.8886, 24.3983 ], [ 92.8915, 24.4004 ], [ 92.893, 24.3927 ], [ 92.9029, 24.3911 ], [ 92.9093, 24.4129 ], [ 92.922, 24.4035 ], [ 92.9242, 24.3961 ], [ 92.934, 24.3923 ], [ 92.9391, 24.4006 ], [ 92.9512, 24.403 ], [ 92.9602, 24.3919 ], [ 92.9763, 24.4083 ], [ 93.0204, 24.3879 ], [ 93.0131, 24.3774 ], [ 93.0181, 24.3716 ], [ 93.0175, 24.3442 ], [ 93.0393, 24.3407 ], [ 93.0312, 24.3158 ], [ 93.0041, 24.2779 ], [ 93.0098, 24.2691 ], [ 93.0027, 24.2602 ], [ 93.0026, 24.2514 ], [ 93.0139, 24.2338 ], [ 93.0225, 24.23 ], [ 93.0153, 24.2263 ], [ 93.0181, 24.2075 ], [ 93.0138, 24.205 ], [ 93.0125, 24.1974 ], [ 92.9989, 24.195 ], [ 93.0067, 24.1796 ], [ 92.9991, 24.1715 ], [ 93.0013, 24.1581 ], [ 92.987, 24.1478 ], [ 92.9887, 24.1379 ], [ 92.9852, 24.1293 ], [ 92.9694, 24.1214 ], [ 92.9727, 24.1123 ], [ 92.9674, 24.1074 ], [ 92.9703, 24.0965 ], [ 92.9667, 24.094 ], [ 92.9814, 24.0926 ], [ 92.9925, 24.0875 ], [ 92.9921, 24.0104 ], [ 92.9976, 23.9998 ], [ 92.9979, 23.9864 ], [ 92.9906, 23.9721 ], [ 92.9924, 23.9616 ], [ 92.9833, 23.9574 ], [ 92.9968, 23.9323 ], [ 92.9903, 23.9236 ], [ 92.979, 23.9176 ], [ 92.9857, 23.8896 ], [ 92.9805, 23.886 ], [ 92.9655, 23.8849 ], [ 92.9593, 23.8782 ], [ 92.9316, 23.8826 ], [ 92.897, 23.8767 ], [ 92.8903, 23.8901 ], [ 92.89, 23.9088 ], [ 92.8826, 23.9179 ], [ 92.8615, 23.9113 ], [ 92.8569, 23.9143 ], [ 92.8555, 23.9232 ], [ 92.8479, 23.9266 ], [ 92.844, 23.9215 ], [ 92.8385, 23.9274 ], [ 92.8324, 23.9279 ], [ 92.8301, 23.9123 ], [ 92.8196, 23.9063 ], [ 92.8209, 23.9155 ], [ 92.8153, 23.9139 ], [ 92.8165, 23.9185 ], [ 92.8111, 23.9162 ], [ 92.8066, 23.9196 ], [ 92.8186, 23.935 ], [ 92.815, 23.9388 ], [ 92.8225, 23.9534 ], [ 92.8161, 23.9664 ], [ 92.8205, 23.9719 ], [ 92.8205, 23.9817 ], [ 92.8267, 23.9861 ], [ 92.8216, 23.9869 ], [ 92.8252, 23.9906 ], [ 92.8208, 23.9941 ], [ 92.827, 24.0005 ], [ 92.8313, 24.0237 ], [ 92.8389, 24.0151 ], [ 92.841, 24.0264 ], [ 92.8458, 24.0268 ], [ 92.8417, 24.0331 ], [ 92.8433, 24.0362 ], [ 92.8475, 24.0349 ], [ 92.8446, 24.0547 ], [ 92.8476, 24.0683 ], [ 92.8543, 24.0731 ], [ 92.8577, 24.0884 ], [ 92.8554, 24.0998 ], [ 92.8587, 24.0993 ], [ 92.8586, 24.1072 ], [ 92.8676, 24.1097 ], [ 92.8661, 24.1186 ], [ 92.8707, 24.1279 ], [ 92.8765, 24.1303 ], [ 92.8715, 24.1401 ], [ 92.8819, 24.1547 ], [ 92.8799, 24.1581 ], [ 92.8857, 24.1687 ], [ 92.8819, 24.1704 ], [ 92.8908, 24.1738 ], [ 92.8918, 24.2001 ], [ 92.8971, 24.2058 ], [ 92.8982, 24.2122 ], [ 92.8946, 24.2122 ], [ 92.9003, 24.226 ], [ 92.8967, 24.239 ], [ 92.8881, 24.2456 ], [ 92.8796, 24.2332 ], [ 92.8709, 24.243 ], [ 92.8591, 24.2436 ], [ 92.8588, 24.2503 ], [ 92.8645, 24.2523 ], [ 92.8621, 24.2585 ], [ 92.8585, 24.2587 ], [ 92.8652, 24.2624 ], [ 92.8602, 24.268 ], [ 92.866, 24.2767 ], [ 92.8722, 24.2776 ], [ 92.8689, 24.2831 ], [ 92.8724, 24.2869 ], [ 92.8703, 24.2966 ], [ 92.8622, 24.3023 ], [ 92.8621, 24.3086 ], [ 92.8543, 24.3065 ], [ 92.856, 24.3151 ], [ 92.8497, 24.3164 ], [ 92.8373, 24.2993 ], [ 92.8174, 24.2961 ], [ 92.8116, 24.2993 ], [ 92.8117, 24.3116 ], [ 92.8008, 24.3164 ], [ 92.796, 24.3244 ], [ 92.791, 24.3251 ], [ 92.7926, 24.3227 ], [ 92.7791, 24.3115 ], [ 92.7751, 24.3116 ], [ 92.7726, 24.3168 ], [ 92.7647, 24.3167 ], [ 92.7656, 24.3232 ], [ 92.7696, 24.32 ], [ 92.772, 24.3256 ], [ 92.7668, 24.3292 ], [ 92.7685, 24.3403 ], [ 92.7736, 24.3388 ], [ 92.7751, 24.345 ], [ 92.7803, 24.3454 ], [ 92.7725, 24.3541 ], [ 92.7796, 24.3552 ], [ 92.7823, 24.3615 ], [ 92.7794, 24.3717 ], [ 92.7847, 24.3746 ], [ 92.7773, 24.3852 ], [ 92.7856, 24.3912 ], [ 92.7885, 24.4093 ], [ 92.7913, 24.4094 ], [ 92.7885, 24.4135 ], [ 92.7931, 24.4167 ], [ 92.7901, 24.4185 ], [ 92.7917, 24.4253 ], [ 92.7971, 24.4327 ], [ 92.8027, 24.4244 ], [ 92.7994, 24.4191 ] ] ] } },
{ "type": "Feature", "properties": { "unit_id": "IND.23.3.1_1", "name": "Vairengte", "district": "Kolasib", "did": "mizoram:Kolasib", "state_key": "mizoram" }, "geometry": { "type": "Polygon", "coordinates": [ [ [ 92.7905, 24.4219 ], [ 92.7931, 24.4167 ], [ 92.7885, 24.4135 ], [ 92.7913, 24.4094 ], [ 92.7885, 24.4093 ], [ 92.7856, 24.3912 ], [ 92.7773, 24.3852 ], [ 92.7847, 24.3746 ], [ 92.7794, 24.3717 ], [ 92.7823, 24.3615 ], [ 92.7796, 24.3552 ], [ 92.7725, 24.3541 ], [ 92.7803, 24.3454 ], [ 92.7751, 24.345 ], [ 92.7736, 24.3388 ], [ 92.7685, 24.3403 ], [ 92.7668, 24.3292 ], [ 92.772, 24.3256 ], [ 92.7696, 24.32 ], [ 92.7656, 24.3232 ], [ 92.7647, 24.3167 ], [ 92.7726, 24.3168 ], [ 92.7751, 24.3116 ], [ 92.7791, 24.3115 ], [ 92.7926, 24.3227 ], [ 92.791, 24.3251 ], [ 92.796, 24.3244 ], [ 92.8008, 24.3164 ], [ 92.8117, 24.3116 ], [ 92.8116, 24.2993 ], [ 92.8174, 24.2961 ], [ 92.8373, 24.2993 ], [ 92.8497, 24.3164 ], [ 92.856, 24.3151 ], [ 92.8543, 24.3065 ], [ 92.8621, 24.3086 ], [ 92.8622, 24.3023 ], [ 92.8703, 24.2966 ], [ 92.8724, 24.2869 ], [ 92.8689, 24.2831 ], [ 92.8722, 24.2776 ], [ 92.866, 24.2767 ], [ 92.8602, 24.268 ], [ 92.8652, 24.2624 ], [ 92.8585, 24.2587 ], [ 92.8621, 24.2585 ], [ 92.8645, 24.2523 ], [ 92.8588, 24.2503 ], [ 92.8591, 24.2436 ], [ 92.8709, 24.243 ], [ 92.8796, 24.2332 ], [ 92.8881, 24.2456 ], [ 92.8967, 24.239 ], [ 92.9003, 24.226 ], [ 92.8946, 24.2122 ], [ 92.8982, 24.2122 ], [ 92.8971, 24.2058 ], [ 92.8918, 24.2001 ], [ 92.8911, 24.1749 ], [ 92.8819, 24.1704 ], [ 92.8856, 24.169 ], [ 92.8849, 24.1641 ], [ 92.8715, 24.1401 ], [ 92.8765, 24.1303 ], [ 92.8707, 24.1279 ], [ 92.8661, 24.1186 ], [ 92.8676, 24.1097 ], [ 92.8551, 24.1074 ], [ 92.858, 24.1149 ], [ 92.855, 24.1197 ], [ 92.826, 24.1199 ], [ 92.8243, 24.1086 ], [ 92.8273, 24.1059 ], [ 92.8225, 24.1028 ], [ 92.8126, 24.1029 ], [ 92.785, 24.1138 ], [ 92.7805, 24.1113 ], [ 92.7727, 24.1188 ], [ 92.7643, 24.113 ], [ 92.7526, 24.1145 ], [ 92.7501, 24.1179 ], [ 92.745, 24.1088 ], [ 92.7385, 24.1132 ], [ 92.7409, 24.1257 ], [ 92.7353, 24.1299 ], [ 92.7438, 24.1484 ], [ 92.7376, 24.1631 ], [ 92.7417, 24.1973 ], [ 92.7367, 24.2048 ], [ 92.742, 24.2041 ], [ 92.7392, 24.2071 ], [ 92.7443, 24.2158 ], [ 92.7385, 24.2206 ], [ 92.743, 24.2434 ], [ 92.7382, 24.2463 ], [ 92.7457, 24.2519 ], [ 92.7431, 24.2526 ], [ 92.7398, 24.2515 ], [ 92.7325, 24.2462 ], [ 92.7266, 24.2461 ], [ 92.7223, 24.2603 ], [ 92.7174, 24.241 ], [ 92.7098, 24.2363 ], [ 92.7076, 24.2297 ], [ 92.7018, 24.2289 ], [ 92.6993, 24.233 ], [ 92.694, 24.2323 ], [ 92.6771, 24.2529 ], [ 92.668, 24.2464 ], [ 92.6643, 24.2471 ], [ 92.677, 24.2561 ], [ 92.6757, 24.2583 ], [ 92.6656, 24.2607 ], [ 92.6575, 24.2554 ], [ 92.6515, 24.2568 ], [ 92.6505, 24.2605 ], [ 92.6557, 24.2618 ], [ 92.6514, 24.2671 ], [ 92.6542, 24.2748 ], [ 92.646, 24.2794 ], [ 92.6389, 24.2782 ], [ 92.6329, 24.2554 ], [ 92.6126, 24.254 ], [ 92.6197, 24.2871 ], [ 92.6159, 24.29 ], [ 92.6236, 24.3203 ], [ 92.6224, 24.3313 ], [ 92.6354, 24.3368 ], [ 92.6387, 24.3344 ], [ 92.6363, 24.3313 ], [ 92.6404, 24.3336 ], [ 92.6387, 24.3284 ], [ 92.6458, 24.3278 ], [ 92.6464, 24.331 ], [ 92.6492, 24.3286 ], [ 92.6614, 24.3482 ], [ 92.6643, 24.3461 ], [ 92.6656, 24.3496 ], [ 92.6689, 24.3461 ], [ 92.6772, 24.3502 ], [ 92.6848, 24.3465 ], [ 92.6838, 24.3505 ], [ 92.6898, 24.3536 ], [ 92.6948, 24.3654 ], [ 92.6928, 24.3685 ], [ 92.7036, 24.3754 ], [ 92.7129, 24.4112 ], [ 92.7508, 24.4921 ], [ 92.7522, 24.5062 ], [ 92.763, 24.5211 ], [ 92.7971, 24.4327 ], [ 92.7905, 24.4219 ] ] ] } },
{ "type": "Feature", "properties": { "unit_id": "IND.23.3.1_1", "name": "Kolasib", "district": "Kolasib", "did": "mizoram:Kolasib", "state_key": "mizoram" }, "geometry": { "type": "Polygon", "coordinates": [ [ [ 92.5374, 24.1564 ], [ 92.5268, 24.1652 ], [ 92.5364, 24.1754 ], [ 92.5311, 24.1851 ], [ 92.5471, 24.2202 ], [ 92.5509, 24.2472 ], [ 92.5721, 24.2519 ], [ 92.606, 24.2485 ], [ 92.6126, 24.254 ], [ 92.6329, 24.2554 ], [ 92.6389, 24.2782 ], [ 92.646, 24.2794 ], [ 92.6542, 24.2748 ], [ 92.6514, 24.2671 ], [ 92.6557, 24.2618 ], [ 92.6505, 24.2605 ], [ 92.6515, 24.2568 ], [ 92.6575, 24.2554 ], [ 92.6656, 24.2607 ], [ 92.6757, 24.2583 ], [ 92.677, 24.2561 ], [ 92.6643, 24.2471 ], [ 92.668, 24.2464 ], [ 92.6771, 24.2529 ], [ 92.694, 24.2323 ], [ 92.6993, 24.233 ], [ 92.7018, 24.2289 ], [ 92.7076, 24.2297 ], [ 92.7098, 24.2363 ], [ 92.7174, 24.241 ], [ 92.7223, 24.2603 ], [ 92.7266, 24.2461 ], [ 92.7457, 24.2519 ], [ 92.7382, 24.2463 ], [ 92.743, 24.2434 ], [ 92.7385, 24.2206 ], [ 92.7443, 24.2158 ], [ 92.7392, 24.2071 ], [ 92.742, 24.2041 ], [ 92.7367, 24.2048 ], [ 92.7417, 24.1973 ], [ 92.7376, 24.1631 ], [ 92.7438, 24.1484 ], [ 92.7347, 24.1268 ], [ 92.7261, 24.1271 ], [ 92.7247, 24.1344 ], [ 92.7051, 24.1283 ], [ 92.69, 24.1313 ], [ 92.6563, 24.146 ], [ 92.6434, 24.1421 ], [ 92.6293, 24.1505 ], [ 92.617, 24.1478 ], [ 92.6115, 24.1553 ], [ 92.6021, 24.1584 ], [ 92.5985, 24.1556 ], [ 92.6007, 24.1467 ], [ 92.5865, 24.1453 ], [ 92.5655, 24.1512 ], [ 92.5608, 24.1602 ], [ 92.5578, 24.1583 ], [ 92.554, 24.163 ], [ 92.5452, 24.1412 ], [ 92.5374, 24.1564 ] ] ] } },
{ "type": "Feature", "properties": { "unit_id": "IND.23.3.1_1", "name": "Kawnpui", "district": "Kolasib", "did": "mizoram:Kolasib", "state_key": "mizoram" }, "geometry": { "type": "Polygon", "coordinates": [ [ [ 92.7409, 24.1257 ], [ 92.7385, 24.1132 ], [ 92.7429, 24.1089 ], [ 92.7501, 24.1179 ], [ 92.7526, 24.1145 ], [ 92.7643, 24.113 ], [ 92.7727, 24.1188 ], [ 92.7805, 24.1113 ], [ 92.785, 24.1138 ], [ 92.8126, 24.1029 ], [ 92.8225, 24.1028 ], [ 92.8273, 24.1059 ], [ 92.8243, 24.1086 ], [ 92.8258, 24.1198 ], [ 92.855, 24.1197 ], [ 92.858, 24.1151 ], [ 92.855, 24.1083 ], [ 92.8588, 24.1074 ], [ 92.8588, 24.0998 ], [ 92.8556, 24.1 ], [ 92.8545, 24.0939 ], [ 92.8577, 24.0884 ], [ 92.8446, 24.0547 ], [ 92.8477, 24.0362 ], [ 92.8417, 24.0331 ], [ 92.8459, 24.0273 ], [ 92.841, 24.0264 ], [ 92.8389, 24.0151 ], [ 92.8331, 24.0241 ], [ 92.8289, 24.0191 ], [ 92.827, 24.0005 ], [ 92.8208, 23.9941 ], [ 92.8252, 23.9906 ], [ 92.8216, 23.9869 ], [ 92.8267, 23.9861 ], [ 92.8205, 23.9817 ], [ 92.8205, 23.9719 ], [ 92.8161, 23.9664 ], [ 92.8225, 23.9547 ], [ 92.815, 23.9388 ], [ 92.8186, 23.935 ], [ 92.8067, 23.9199 ], [ 92.8111, 23.9162 ], [ 92.8163, 23.9186 ], [ 92.8153, 23.9139 ], [ 92.8197, 23.9163 ], [ 92.8219, 23.9121 ], [ 92.8185, 23.9098 ], [ 92.8174, 23.8962 ], [ 92.8101, 23.8943 ], [ 92.8106, 23.887 ], [ 92.806, 23.886 ], [ 92.8019, 23.8571 ], [ 92.7971, 23.848 ], [ 92.7768, 23.8522 ], [ 92.7492, 23.8459 ], [ 92.7435, 23.8501 ], [ 92.7262, 23.8511 ], [ 92.7087, 23.8618 ], [ 92.6956, 23.8558 ], [ 92.6799, 23.8672 ], [ 92.6703, 23.8654 ], [ 92.6625, 23.8679 ], [ 92.6618, 23.8814 ], [ 92.65, 23.8918 ], [ 92.6519, 23.8996 ], [ 92.661, 23.9053 ], [ 92.6591, 23.9167 ], [ 92.6533, 23.9223 ], [ 92.6441, 23.9223 ], [ 92.6419, 23.9305 ], [ 92.6213, 23.9373 ], [ 92.6244, 23.9442 ], [ 92.6291, 23.9455 ], [ 92.6204, 23.9623 ], [ 92.6258, 23.9819 ], [ 92.6318, 23.9852 ], [ 92.6295, 23.9936 ], [ 92.6329, 23.9983 ], [ 92.6214, 24.0055 ], [ 92.6186, 24.0124 ], [ 92.6287, 24.0326 ], [ 92.6355, 24.0317 ], [ 92.6363, 24.0351 ], [ 92.6245, 24.043 ], [ 92.622, 24.032 ], [ 92.6117, 24.0519 ], [ 92.6011, 24.0523 ], [ 92.5932, 24.0628 ], [ 92.5856, 24.0637 ], [ 92.5862, 24.0757 ], [ 92.5808, 24.0775 ], [ 92.5716, 24.0759 ], [ 92.5754, 24.0667 ], [ 92.5708, 24.0618 ], [ 92.5737, 24.0533 ], [ 92.5661, 24.0411 ], [ 92.5638, 24.0432 ], [ 92.5588, 24.0409 ], [ 92.5636, 24.0544 ], [ 92.5577, 24.0547 ], [ 92.5576, 24.062 ], [ 92.5541, 24.0634 ], [ 92.551, 24.0621 ], [ 92.5496, 24.042 ], [ 92.5382, 24.0357 ], [ 92.5343, 24.0449 ], [ 92.5392, 24.0795 ], [ 92.5359, 24.0926 ], [ 92.5401, 24.0994 ], [ 92.5366, 24.1097 ], [ 92.5437, 24.1248 ], [ 92.536, 24.1271 ], [ 92.5536, 24.1629 ], [ 92.5581, 24.1582 ], [ 92.5608, 24.1602 ], [ 92.5655, 24.1512 ], [ 92.5865, 24.1453 ], [ 92.6007, 24.1467 ], [ 92.5985, 24.1556 ], [ 92.6021, 24.1584 ], [ 92.6115, 24.1553 ], [ 92.617, 24.1478 ], [ 92.6293, 24.1505 ], [ 92.6434, 24.1421 ], [ 92.6563, 24.146 ], [ 92.6908, 24.1311 ], [ 92.7068, 24.1282 ], [ 92.7084, 24.1315 ], [ 92.7161, 24.1296 ], [ 92.7247, 24.1344 ], [ 92.7261, 24.1271 ], [ 92.7338, 24.1264 ], [ 92.7357, 24.1292 ], [ 92.7409, 24.1257 ] ] ] } },
{ "type": "Feature", "properties": { "unit_id": "IND.23.6.1_1", "name": "Mamit", "district": "Mamit", "did": "mizoram:Mamit", "state_key": "mizoram" }, "geometry": { "type": "MultiPolygon", "coordinates": [ [ [ [ 92.6263, 23.7627 ], [ 92.6263, 23.7626 ], [ 92.6242, 23.7563 ], [ 92.6102, 23.7478 ], [ 92.6041, 23.7467 ], [ 92.5962, 23.7508 ], [ 92.5914, 23.7636 ], [ 92.5943, 23.7791 ], [ 92.5919, 23.7854 ], [ 92.5878, 23.7859 ], [ 92.5535, 23.7733 ], [ 92.5453, 23.7619 ], [ 92.5408, 23.7612 ], [ 92.5383, 23.7469 ], [ 92.529, 23.7486 ], [ 92.5245, 23.7543 ], [ 92.5198, 23.7742 ], [ 92.5106, 23.7646 ], [ 92.4887, 23.766 ], [ 92.4822, 23.7359 ], [ 92.4575, 23.7398 ], [ 92.4483, 23.734 ], [ 92.4374, 23.7386 ], [ 92.441, 23.7247 ], [ 92.4362, 23.7207 ], [ 92.4388, 23.716 ], [ 92.4344, 23.6972 ], [ 92.4215, 23.6927 ], [ 92.4143, 23.6864 ], [ 92.415, 23.6809 ], [ 92.4107, 23.6765 ], [ 92.3971, 23.672 ], [ 92.3844, 23.6581 ], [ 92.3848, 23.6538 ], [ 92.381, 23.6531 ], [ 92.3847, 23.651 ], [ 92.385, 23.6406 ], [ 92.3808, 23.6335 ], [ 92.3634, 23.6295 ], [ 92.3643, 23.6339 ], [ 92.3586, 23.6363 ], [ 92.3589, 23.632 ], [ 92.3548, 23.6342 ], [ 92.3375, 23.6253 ], [ 92.3263, 23.631 ], [ 92.3297, 23.6236 ], [ 92.3262, 23.6193 ], [ 92.3204, 23.6194 ], [ 92.3233, 23.612 ], [ 92.3176, 23.6107 ], [ 92.323, 23.5895 ], [ 92.3143, 23.5855 ], [ 92.3172, 23.5721 ], [ 92.3086, 23.5661 ], [ 92.3018, 23.5924 ], [ 92.2983, 23.5926 ], [ 92.2965, 23.588 ], [ 92.2936, 23.5952 ], [ 92.289, 23.5981 ], [ 92.2873, 23.596 ], [ 92.2873, 23.6167 ], [ 92.296, 23.6211 ], [ 92.2885, 23.6289 ], [ 92.2805, 23.6305 ], [ 92.2786, 23.6249 ], [ 92.2766, 23.6317 ], [ 92.2818, 23.6386 ], [ 92.273, 23.6417 ], [ 92.2915, 23.6812 ], [ 92.2909, 23.6908 ], [ 92.2894, 23.7018 ], [ 92.2785, 23.7102 ], [ 92.2797, 23.7158 ], [ 92.2655, 23.725 ], [ 92.2656, 23.7625 ], [ 92.2897, 23.762 ], [ 92.2883, 23.7448 ], [ 92.2945, 23.738 ], [ 92.3013, 23.7382 ], [ 92.3008, 23.7347 ], [ 92.3083, 23.734 ], [ 92.3116, 23.7295 ], [ 92.3309, 23.7365 ], [ 92.3403, 23.7332 ], [ 92.3512, 23.7355 ], [ 92.3723, 23.7333 ], [ 92.3817, 23.7372 ], [ 92.384, 23.7453 ], [ 92.3807, 23.7474 ], [ 92.3872, 23.7476 ], [ 92.388, 23.762 ], [ 92.3919, 23.7646 ], [ 92.3896, 23.7669 ], [ 92.3974, 23.7671 ], [ 92.4005, 23.7757 ], [ 92.3966, 23.7793 ], [ 92.3999, 23.7844 ], [ 92.3957, 23.7915 ], [ 92.4003, 23.795 ], [ 92.409, 23.7933 ], [ 92.4112, 23.7966 ], [ 92.406, 23.8058 ], [ 92.4077, 23.8134 ], [ 92.3988, 23.8219 ], [ 92.4111, 23.8288 ], [ 92.4237, 23.8297 ], [ 92.4211, 23.8347 ], [ 92.4252, 23.8485 ], [ 92.4164, 23.8652 ], [ 92.4207, 23.8728 ], [ 92.4157, 23.8731 ], [ 92.4114, 23.8795 ], [ 92.4245, 23.8854 ], [ 92.4291, 23.9011 ], [ 92.4159, 23.9088 ], [ 92.4162, 23.9166 ], [ 92.423, 23.9171 ], [ 92.4225, 23.9236 ], [ 92.412, 23.9311 ], [ 92.4208, 23.9382 ], [ 92.414, 23.9484 ], [ 92.4277, 23.9591 ], [ 92.4275, 23.974 ], [ 92.4327, 23.9761 ], [ 92.4249, 23.9828 ], [ 92.4372, 23.9871 ], [ 92.4483, 23.9979 ], [ 92.4524, 24.0047 ], [ 92.4465, 24.0088 ], [ 92.4453, 24.0157 ], [ 92.4583, 24.0246 ], [ 92.4622, 24.0414 ], [ 92.4703, 24.0437 ], [ 92.4672, 24.0522 ], [ 92.4695, 24.0602 ], [ 92.4644, 24.0631 ], [ 92.4696, 24.0678 ], [ 92.4681, 24.0806 ], [ 92.4792, 24.0995 ], [ 92.4704, 24.1014 ], [ 92.4856, 24.1245 ], [ 92.4891, 24.1336 ], [ 92.485, 24.1358 ], [ 92.495, 24.1424 ], [ 92.4973, 24.1521 ], [ 92.4986, 24.1479 ], [ 92.503, 24.152 ], [ 92.5002, 24.1592 ], [ 92.5062, 24.1641 ], [ 92.5031, 24.1676 ], [ 92.5114, 24.1654 ], [ 92.5069, 24.1699 ], [ 92.5144, 24.1695 ], [ 92.51, 24.1725 ], [ 92.5158, 24.179 ], [ 92.525, 24.1718 ], [ 92.5342, 24.1801 ], [ 92.5311, 24.1851 ], [ 92.5342, 24.1806 ], [ 92.5363, 24.1769 ], [ 92.5364, 24.1754 ], [ 92.5269, 24.1648 ], [ 92.5374, 24.1564 ], [ 92.5452, 24.1412 ], [ 92.536, 24.1271 ], [ 92.5437, 24.1248 ], [ 92.5366, 24.1097 ], [ 92.5401, 24.0994 ], [ 92.5359, 24.0926 ], [ 92.5392, 24.0795 ], [ 92.534, 24.0474 ], [ 92.5382, 24.0357 ], [ 92.5498, 24.0424 ], [ 92.552, 24.0634 ], [ 92.5576, 24.062 ], [ 92.5577, 24.0547 ], [ 92.5636, 24.0544 ], [ 92.5588, 24.0409 ], [ 92.5638, 24.0432 ], [ 92.5661, 24.0411 ], [ 92.5737, 24.0533 ], [ 92.5708, 24.0618 ], [ 92.5754, 24.0667 ], [ 92.5716, 24.0759 ], [ 92.5808, 24.0775 ], [ 92.5862, 24.0757 ], [ 92.5856, 24.0637 ], [ 92.5932, 24.0628 ], [ 92.6011, 24.0523 ], [ 92.6117, 24.0519 ], [ 92.622, 24.032 ], [ 92.625, 24.0431 ], [ 92.6365, 24.0345 ], [ 92.635, 24.0316 ], [ 92.6287, 24.0326 ], [ 92.6186, 24.0124 ], [ 92.6214, 24.0055 ], [ 92.6329, 23.9983 ], [ 92.6295, 23.9936 ], [ 92.6318, 23.9852 ], [ 92.6258, 23.9819 ], [ 92.6204, 23.9623 ], [ 92.6291, 23.9455 ], [ 92.6244, 23.9442 ], [ 92.6213, 23.9373 ], [ 92.6419, 23.9305 ], [ 92.6441, 23.9223 ], [ 92.6533, 23.9223 ], [ 92.6601, 23.9146 ], [ 92.6592, 23.9031 ], [ 92.6423, 23.8982 ], [ 92.6396, 23.8923 ], [ 92.6408, 23.8747 ], [ 92.6479, 23.8569 ], [ 92.6629, 23.8367 ], [ 92.6584, 23.8331 ], [ 92.6473, 23.8324 ], [ 92.6436, 23.8282 ], [ 92.6454, 23.8192 ], [ 92.6543, 23.8201 ], [ 92.6485, 23.8099 ], [ 92.6425, 23.805 ], [ 92.6336, 23.817 ], [ 92.6238, 23.7989 ], [ 92.6258, 23.7949 ], [ 92.6381, 23.7948 ], [ 92.6402, 23.7921 ], [ 92.6372, 23.7722 ], [ 92.6263, 23.7628 ], [ 92.6263, 23.7627 ] ] ] ] } },
{ "type": "Feature", "properties": { "unit_id": "IND.23.6.1_1", "name": "Kawrthah", "district": "Mamit", "did": "mizoram:Mamit", "state_key": "mizoram" }, "geometry": { "type": "Polygon", "coordinates": [ [ [ 92.503, 24.152 ], [ 92.4986, 24.1479 ], [ 92.4973, 24.1521 ], [ 92.495, 24.1424 ], [ 92.4852, 24.1361 ], [ 92.4891, 24.1336 ], [ 92.4856, 24.1245 ], [ 92.4704, 24.1016 ], [ 92.4792, 24.0995 ], [ 92.4681, 24.0806 ], [ 92.4696, 24.0678 ], [ 92.4644, 24.0631 ], [ 92.4695, 24.0602 ], [ 92.4672, 24.0522 ], [ 92.4703, 24.0437 ], [ 92.4622, 24.0414 ], [ 92.4583, 24.0246 ], [ 92.4453, 24.0157 ], [ 92.4465, 24.0088 ], [ 92.4524, 24.0047 ], [ 92.4483, 23.9979 ], [ 92.4368, 23.9868 ], [ 92.425, 23.983 ], [ 92.4327, 23.9767 ], [ 92.4275, 23.974 ], [ 92.4284, 23.9604 ], [ 92.414, 23.9484 ], [ 92.4208, 23.9382 ], [ 92.412, 23.9311 ], [ 92.4221, 23.9242 ], [ 92.4233, 23.9181 ], [ 92.4162, 23.9166 ], [ 92.4153, 23.9102 ], [ 92.4291, 23.9011 ], [ 92.4245, 23.8854 ], [ 92.4114, 23.8795 ], [ 92.4157, 23.8731 ], [ 92.4207, 23.8728 ], [ 92.4164, 23.8652 ], [ 92.4252, 23.8485 ], [ 92.4211, 23.8347 ], [ 92.4235, 23.8286 ], [ 92.4111, 23.8288 ], [ 92.3988, 23.8219 ], [ 92.4077, 23.8134 ], [ 92.406, 23.8058 ], [ 92.4112, 23.7966 ], [ 92.409, 23.7933 ], [ 92.4003, 23.795 ], [ 92.3957, 23.7915 ], [ 92.3999, 23.7844 ], [ 92.3966, 23.7793 ], [ 92.4005, 23.7757 ], [ 92.3974, 23.7671 ], [ 92.3896, 23.7669 ], [ 92.3877, 23.749 ], [ 92.3808, 23.7477 ], [ 92.384, 23.7445 ], [ 92.3802, 23.735 ], [ 92.3403, 23.7332 ], [ 92.3309, 23.7365 ], [ 92.3114, 23.7296 ], [ 92.2883, 23.7448 ], [ 92.2897, 23.762 ], [ 92.2656, 23.7625 ], [ 92.2673, 23.7686 ], [ 92.2571, 23.8125 ], [ 92.2663, 23.8159 ], [ 92.2823, 23.8146 ], [ 92.2687, 23.8422 ], [ 92.2851, 23.8671 ], [ 92.2897, 23.8682 ], [ 92.3077, 23.8569 ], [ 92.315, 23.8605 ], [ 92.3112, 23.8801 ], [ 92.3252, 23.9141 ], [ 92.3193, 23.9157 ], [ 92.3163, 23.9281 ], [ 92.309, 23.9312 ], [ 92.308, 23.9606 ], [ 92.3104, 23.9723 ], [ 92.3201, 23.979 ], [ 92.3222, 23.9939 ], [ 92.3262, 23.9978 ], [ 92.314, 24.0212 ], [ 92.3198, 24.0244 ], [ 92.3148, 24.026 ], [ 92.3169, 24.0301 ], [ 92.3121, 24.0324 ], [ 92.3157, 24.0349 ], [ 92.312, 24.0385 ], [ 92.3164, 24.0456 ], [ 92.3122, 24.0521 ], [ 92.3176, 24.055 ], [ 92.3199, 24.0637 ], [ 92.3166, 24.07 ], [ 92.3213, 24.0727 ], [ 92.3193, 24.0782 ], [ 92.3242, 24.0793 ], [ 92.3277, 24.1015 ], [ 92.3226, 24.1044 ], [ 92.3279, 24.1119 ], [ 92.3243, 24.1151 ], [ 92.3271, 24.117 ], [ 92.3246, 24.1394 ], [ 92.3251, 24.1397 ], [ 92.3262, 24.1397 ], [ 92.3292, 24.139 ], [ 92.3307, 24.1397 ], [ 92.3317, 24.1518 ], [ 92.3286, 24.1663 ], [ 92.3239, 24.1712 ], [ 92.3265, 24.1777 ], [ 92.3321, 24.1796 ], [ 92.3263, 24.1817 ], [ 92.3224, 24.1887 ], [ 92.3264, 24.1914 ], [ 92.3218, 24.1942 ], [ 92.3261, 24.1971 ], [ 92.3191, 24.1979 ], [ 92.3215, 24.2037 ], [ 92.3147, 24.2064 ], [ 92.3163, 24.2118 ], [ 92.3104, 24.2213 ], [ 92.2974, 24.2315 ], [ 92.2896, 24.2524 ], [ 92.4225, 24.2549 ], [ 92.4189, 24.1927 ], [ 92.4357, 24.1793 ], [ 92.4364, 24.153 ], [ 92.4428, 24.1545 ], [ 92.4491, 24.144 ], [ 92.4506, 24.1471 ], [ 92.4567, 24.1444 ], [ 92.465, 24.1361 ], [ 92.4746, 24.1436 ], [ 92.479, 24.1423 ], [ 92.4806, 24.1454 ], [ 92.477, 24.1474 ], [ 92.4837, 24.163 ], [ 92.5014, 24.1605 ], [ 92.503, 24.152 ] ] ] } },
{ "type": "Feature", "properties": { "unit_id": "IND.23.4.2_1", "name": "Lawngtlai", "district": "Lawngtlai", "did": "mizoram:Lawngtlai", "state_key": "mizoram" }, "geometry": { "type": "Polygon", "coordinates": [ [ [ 92.8231, 22.6278 ], [ 92.8283, 22.6238 ], [ 92.8375, 22.6252 ], [ 92.8493, 22.6096 ], [ 92.8625, 22.6041 ], [ 92.8619, 22.599 ], [ 92.875, 22.5951 ], [ 92.8725, 22.5895 ], [ 92.8783, 22.5834 ], [ 92.8947, 22.5849 ], [ 92.9018, 22.5762 ], [ 92.9052, 22.5575 ], [ 92.9113, 22.5473 ], [ 92.9312, 22.5556 ], [ 92.9312, 22.5486 ], [ 92.9389, 22.5361 ], [ 92.9309, 22.4825 ], [ 92.9443, 22.4663 ], [ 92.9347, 22.4587 ], [ 92.9372, 22.441 ], [ 92.9501, 22.4036 ], [ 92.963, 22.3978 ], [ 92.9653, 22.3923 ], [ 92.9536, 22.3722 ], [ 92.9412, 22.3738 ], [ 92.9328, 22.3813 ], [ 92.9318, 22.3854 ], [ 92.938, 22.3915 ], [ 92.9358, 22.3947 ], [ 92.9292, 22.396 ], [ 92.9195, 22.3909 ], [ 92.9047, 22.374 ], [ 92.8765, 22.3554 ], [ 92.8599, 22.3198 ], [ 92.8553, 22.3223 ], [ 92.8491, 22.3193 ], [ 92.8432, 22.3303 ], [ 92.8377, 22.3292 ], [ 92.8253, 22.3339 ], [ 92.8214, 22.3293 ], [ 92.8264, 22.3168 ], [ 92.8224, 22.307 ], [ 92.8369, 22.2911 ], [ 92.8325, 22.2883 ], [ 92.8306, 22.2743 ], [ 92.8351, 22.267 ], [ 92.8296, 22.2559 ], [ 92.8362, 22.2322 ], [ 92.837, 22.1871 ], [ 92.8438, 22.1365 ], [ 92.8401, 22.1205 ], [ 92.8502, 22.0626 ], [ 92.8417, 22.0591 ], [ 92.8367, 22.0717 ], [ 92.8185, 22.0747 ], [ 92.8177, 22.0869 ], [ 92.8099, 22.0959 ], [ 92.8039, 22.098 ], [ 92.7984, 22.0935 ], [ 92.7903, 22.1048 ], [ 92.7737, 22.107 ], [ 92.76, 22.1255 ], [ 92.7536, 22.1242 ], [ 92.7462, 22.1312 ], [ 92.7354, 22.1344 ], [ 92.7268, 22.1491 ], [ 92.7128, 22.1474 ], [ 92.6991, 22.155 ], [ 92.6946, 22.1534 ], [ 92.6961, 22.1377 ], [ 92.692, 22.1391 ], [ 92.6925, 22.0751 ], [ 92.6896, 22.0719 ], [ 92.688, 22.1037 ], [ 92.6818, 22.1035 ], [ 92.685, 22.0461 ], [ 92.68, 22.0452 ], [ 92.6735, 22.0506 ], [ 92.6713, 22.0819 ], [ 92.6631, 22.0881 ], [ 92.6663, 22.1029 ], [ 92.6428, 22.1299 ], [ 92.6457, 22.1325 ], [ 92.6424, 22.144 ], [ 92.6454, 22.1438 ], [ 92.6399, 22.1497 ], [ 92.6417, 22.1633 ], [ 92.6387, 22.1647 ], [ 92.6441, 22.1664 ], [ 92.6413, 22.1702 ], [ 92.645, 22.1713 ], [ 92.6421, 22.1748 ], [ 92.6451, 22.1807 ], [ 92.6388, 22.1849 ], [ 92.645, 22.1915 ], [ 92.6431, 22.2001 ], [ 92.6383, 22.2019 ], [ 92.6414, 22.2075 ], [ 92.6368, 22.212 ], [ 92.6373, 22.2182 ], [ 92.6422, 22.2192 ], [ 92.6372, 22.2254 ], [ 92.6417, 22.2279 ], [ 92.6393, 22.2361 ], [ 92.6422, 22.2432 ], [ 92.6369, 22.255 ], [ 92.6366, 22.2775 ], [ 92.641, 22.2793 ], [ 92.639, 22.2827 ], [ 92.6434, 22.2851 ], [ 92.6439, 22.2927 ], [ 92.6474, 22.2953 ], [ 92.6539, 22.2918 ], [ 92.657, 22.2949 ], [ 92.6515, 22.2958 ], [ 92.6513, 22.3013 ], [ 92.6555, 22.3002 ], [ 92.654, 22.3048 ], [ 92.6494, 22.3103 ], [ 92.6464, 22.3093 ], [ 92.6497, 22.3154 ], [ 92.6446, 22.3156 ], [ 92.6471, 22.319 ], [ 92.6422, 22.3197 ], [ 92.6461, 22.3324 ], [ 92.6338, 22.3457 ], [ 92.6371, 22.3588 ], [ 92.6494, 22.3668 ], [ 92.6429, 22.3679 ], [ 92.6498, 22.3745 ], [ 92.646, 22.3826 ], [ 92.6498, 22.3896 ], [ 92.6373, 22.3921 ], [ 92.6379, 22.4116 ], [ 92.6429, 22.4106 ], [ 92.6536, 22.4221 ], [ 92.6471, 22.4222 ], [ 92.6487, 22.427 ], [ 92.6357, 22.4362 ], [ 92.6437, 22.447 ], [ 92.6423, 22.4497 ], [ 92.6364, 22.4484 ], [ 92.6472, 22.4558 ], [ 92.6343, 22.4686 ], [ 92.6302, 22.4662 ], [ 92.6256, 22.4864 ], [ 92.6369, 22.4951 ], [ 92.625, 22.5038 ], [ 92.6232, 22.5139 ], [ 92.6284, 22.5224 ], [ 92.622, 22.5367 ], [ 92.6249, 22.5403 ], [ 92.622, 22.551 ], [ 92.627, 22.5692 ], [ 92.6343, 22.5714 ], [ 92.6255, 22.5771 ], [ 92.6288, 22.5799 ], [ 92.6269, 22.5979 ], [ 92.6297, 22.601 ], [ 92.6431, 22.5943 ], [ 92.6383, 22.6034 ], [ 92.6302, 22.6087 ], [ 92.6442, 22.608 ], [ 92.6431, 22.6162 ], [ 92.6469, 22.6195 ], [ 92.6548, 22.6216 ], [ 92.6616, 22.6172 ], [ 92.6693, 22.6245 ], [ 92.6962, 22.6222 ], [ 92.6944, 22.6115 ], [ 92.6904, 22.6103 ], [ 92.6933, 22.5914 ], [ 92.7003, 22.5847 ], [ 92.7056, 22.5857 ], [ 92.7063, 22.5824 ], [ 92.7099, 22.5853 ], [ 92.7091, 22.5785 ], [ 92.7197, 22.5641 ], [ 92.7351, 22.5595 ], [ 92.7522, 22.5449 ], [ 92.7547, 22.5345 ], [ 92.751, 22.5279 ], [ 92.7565, 22.4995 ], [ 92.763, 22.4974 ], [ 92.769, 22.5031 ], [ 92.7769, 22.497 ], [ 92.7748, 22.512 ], [ 92.7778, 22.5159 ], [ 92.7735, 22.517 ], [ 92.7725, 22.5277 ], [ 92.7763, 22.5338 ], [ 92.7812, 22.5333 ], [ 92.7765, 22.5366 ], [ 92.7824, 22.5457 ], [ 92.7959, 22.5521 ], [ 92.7947, 22.558 ], [ 92.8033, 22.5702 ], [ 92.8005, 22.5892 ], [ 92.7959, 22.5933 ], [ 92.7965, 22.6062 ], [ 92.8027, 22.6131 ], [ 92.7992, 22.6214 ], [ 92.8057, 22.6291 ], [ 92.811, 22.6307 ], [ 92.8148, 22.6274 ], [ 92.8231, 22.6278 ] ] ] } },
{ "type": "Feature", "properties": { "unit_id": "IND.23.4.1_1", "name": "Chawngte", "district": "Lawngtlai", "did": "mizoram:Lawngtlai", "state_key": "mizoram" }, "geometry": { "type": "MultiPolygon", "coordinates": [ [ [ [ 92.5582, 22.7475 ], [ 92.5669, 22.7317 ], [ 92.5783, 22.7401 ], [ 92.5755, 22.7504 ], [ 92.5783, 22.7554 ], [ 92.5908, 22.7444 ], [ 92.5859, 22.7381 ], [ 92.5904, 22.7313 ], [ 92.5955, 22.7317 ], [ 92.594, 22.7246 ], [ 92.6021, 22.7205 ], [ 92.5937, 22.7099 ], [ 92.5966, 22.6962 ], [ 92.6038, 22.6928 ], [ 92.6089, 22.6812 ], [ 92.6138, 22.679 ], [ 92.6171, 22.6845 ], [ 92.6177, 22.6714 ], [ 92.6264, 22.6711 ], [ 92.6297, 22.6664 ], [ 92.6263, 22.6596 ], [ 92.6384, 22.657 ], [ 92.6445, 22.6479 ], [ 92.6461, 22.6325 ], [ 92.6416, 22.6323 ], [ 92.6404, 22.6242 ], [ 92.6469, 22.6195 ], [ 92.6431, 22.6162 ], [ 92.6451, 22.6092 ], [ 92.6302, 22.6087 ], [ 92.6383, 22.6034 ], [ 92.6431, 22.5943 ], [ 92.6297, 22.601 ], [ 92.6269, 22.5979 ], [ 92.6288, 22.5799 ], [ 92.6255, 22.5771 ], [ 92.6343, 22.5714 ], [ 92.627, 22.5692 ], [ 92.6219, 22.55 ], [ 92.6238, 22.5291 ], [ 92.6284, 22.5224 ], [ 92.6232, 22.5162 ], [ 92.6249, 22.504 ], [ 92.6369, 22.4976 ], [ 92.6311, 22.4887 ], [ 92.6283, 22.4912 ], [ 92.6256, 22.4868 ], [ 92.6301, 22.4663 ], [ 92.6343, 22.4686 ], [ 92.6472, 22.4558 ], [ 92.6364, 22.4484 ], [ 92.6423, 22.4497 ], [ 92.6437, 22.447 ], [ 92.6357, 22.4362 ], [ 92.6487, 22.427 ], [ 92.6471, 22.4222 ], [ 92.6536, 22.4221 ], [ 92.6429, 22.4106 ], [ 92.6379, 22.4116 ], [ 92.6373, 22.3921 ], [ 92.6498, 22.3896 ], [ 92.646, 22.3826 ], [ 92.6498, 22.3745 ], [ 92.6429, 22.3679 ], [ 92.6494, 22.3668 ], [ 92.6371, 22.3588 ], [ 92.6338, 22.3457 ], [ 92.6461, 22.3324 ], [ 92.6422, 22.3197 ], [ 92.6471, 22.319 ], [ 92.6446, 22.3156 ], [ 92.6497, 22.3154 ], [ 92.6464, 22.3093 ], [ 92.6494, 22.3103 ], [ 92.654, 22.3048 ], [ 92.6555, 22.3002 ], [ 92.6513, 22.3013 ], [ 92.6515, 22.2958 ], [ 92.657, 22.2949 ], [ 92.6539, 22.2918 ], [ 92.6474, 22.2953 ], [ 92.6439, 22.2927 ], [ 92.6434, 22.2851 ], [ 92.639, 22.2827 ], [ 92.641, 22.2793 ], [ 92.6366, 22.2775 ], [ 92.6369, 22.255 ], [ 92.6422, 22.2432 ], [ 92.6393, 22.2361 ], [ 92.6417, 22.2279 ], [ 92.6372, 22.2254 ], [ 92.6422, 22.2192 ], [ 92.6373, 22.2182 ], [ 92.6368, 22.212 ], [ 92.6414, 22.2075 ], [ 92.6383, 22.2019 ], [ 92.6431, 22.2001 ], [ 92.645, 22.1915 ], [ 92.6388, 22.1849 ], [ 92.6449, 22.1817 ], [ 92.6421, 22.1747 ], [ 92.6451, 22.1715 ], [ 92.6413, 22.1702 ], [ 92.6442, 22.1665 ], [ 92.6387, 22.1642 ], [ 92.6417, 22.1633 ], [ 92.64, 22.1494 ], [ 92.6454, 22.1438 ], [ 92.6424, 22.144 ], [ 92.6457, 22.1325 ], [ 92.6428, 22.1299 ], [ 92.6663, 22.1029 ], [ 92.6631, 22.0881 ], [ 92.6713, 22.0819 ], [ 92.6735, 22.0506 ], [ 92.68, 22.0452 ], [ 92.685, 22.0461 ], [ 92.6851, 22.0414 ], [ 92.6793, 22.0112 ], [ 92.6698, 22.0097 ], [ 92.6668, 22.0135 ], [ 92.6516, 22.0159 ], [ 92.6349, 21.9832 ], [ 92.6239, 21.9828 ], [ 92.6075, 21.9747 ], [ 92.6032, 21.98 ], [ 92.6111, 21.9843 ], [ 92.6126, 21.9908 ], [ 92.5981, 22.009 ], [ 92.6001, 22.0284 ], [ 92.5936, 22.0315 ], [ 92.5926, 22.0374 ], [ 92.5991, 22.0423 ], [ 92.6027, 22.0611 ], [ 92.5956, 22.0617 ], [ 92.5922, 22.0656 ], [ 92.5906, 22.081 ], [ 92.5849, 22.0825 ], [ 92.5751, 22.1162 ], [ 92.5626, 22.128 ], [ 92.5657, 22.1348 ], [ 92.5774, 22.1364 ], [ 92.5785, 22.1434 ], [ 92.5926, 22.1388 ], [ 92.589, 22.1314 ], [ 92.5945, 22.1251 ], [ 92.6057, 22.1234 ], [ 92.6109, 22.1384 ], [ 92.6092, 22.164 ], [ 92.6071, 22.1725 ], [ 92.5952, 22.1754 ], [ 92.5948, 22.2042 ], [ 92.588, 22.216 ], [ 92.5908, 22.2555 ], [ 92.5851, 22.2586 ], [ 92.5869, 22.2639 ], [ 92.581, 22.2692 ], [ 92.5807, 22.2761 ], [ 92.5863, 22.2765 ], [ 92.5866, 22.2802 ], [ 92.5818, 22.2818 ], [ 92.5833, 22.2989 ], [ 92.5802, 22.3026 ], [ 92.5834, 22.3039 ], [ 92.5803, 22.3038 ], [ 92.5814, 22.3084 ], [ 92.5773, 22.3112 ], [ 92.5812, 22.3218 ], [ 92.5743, 22.3317 ], [ 92.5719, 22.3586 ], [ 92.568, 22.3605 ], [ 92.5674, 22.3707 ], [ 92.5625, 22.3717 ], [ 92.5634, 22.3801 ], [ 92.5593, 22.3819 ], [ 92.5598, 22.3955 ], [ 92.5559, 22.3985 ], [ 92.5598, 22.4018 ], [ 92.5548, 22.4055 ], [ 92.5569, 22.4093 ], [ 92.5521, 22.409 ], [ 92.5546, 22.4169 ], [ 92.5507, 22.4226 ], [ 92.5564, 22.4251 ], [ 92.5512, 22.4274 ], [ 92.5554, 22.4292 ], [ 92.5495, 22.4435 ], [ 92.551, 22.4544 ], [ 92.5463, 22.4625 ], [ 92.5433, 22.4933 ], [ 92.5499, 22.4973 ], [ 92.5426, 22.4988 ], [ 92.5493, 22.5014 ], [ 92.5508, 22.5096 ], [ 92.5466, 22.5099 ], [ 92.5513, 22.5133 ], [ 92.547, 22.5168 ], [ 92.5434, 22.5142 ], [ 92.5457, 22.5178 ], [ 92.5392, 22.5289 ], [ 92.54, 22.5406 ], [ 92.5372, 22.5452 ], [ 92.5316, 22.5451 ], [ 92.5319, 22.5522 ], [ 92.5217, 22.5599 ], [ 92.528, 22.5656 ], [ 92.5273, 22.573 ], [ 92.5326, 22.5715 ], [ 92.5381, 22.5751 ], [ 92.5385, 22.5859 ], [ 92.533, 22.5878 ], [ 92.5394, 22.5891 ], [ 92.535, 22.591 ], [ 92.5378, 22.5941 ], [ 92.5304, 22.6035 ], [ 92.5299, 22.6091 ], [ 92.5337, 22.6075 ], [ 92.5354, 22.6117 ], [ 92.5291, 22.6148 ], [ 92.5274, 22.6208 ], [ 92.5325, 22.6327 ], [ 92.5262, 22.6336 ], [ 92.5249, 22.6401 ], [ 92.5273, 22.6508 ], [ 92.5235, 22.6562 ], [ 92.5287, 22.6595 ], [ 92.5287, 22.6652 ], [ 92.5225, 22.6741 ], [ 92.5139, 22.708 ], [ 92.5167, 22.7222 ], [ 92.5099, 22.7286 ], [ 92.5132, 22.7328 ], [ 92.5091, 22.7317 ], [ 92.5041, 22.7385 ], [ 92.5054, 22.7466 ], [ 92.5152, 22.753 ], [ 92.5201, 22.7616 ], [ 92.5275, 22.7567 ], [ 92.5425, 22.7627 ], [ 92.5443, 22.7557 ], [ 92.5582, 22.7475 ] ] ], [ [ [ 93.0847, 22.8066 ], [ 93.0817, 22.7978 ], [ 93.096, 22.7864 ], [ 93.1023, 22.7674 ], [ 93.1002, 22.7639 ], [ 93.1074, 22.7526 ], [ 93.091, 22.7048 ], [ 93.0988, 22.6937 ], [ 93.0966, 22.6867 ], [ 93.1019, 22.6827 ], [ 93.0948, 22.6805 ], [ 93.0956, 22.6718 ], [ 93.1015, 22.6607 ], [ 93.1096, 22.6555 ], [ 93.1083, 22.6357 ], [ 93.1214, 22.6257 ], [ 93.1264, 22.6256 ], [ 93.1273, 22.6171 ], [ 93.1337, 22.6141 ], [ 93.1402, 22.5889 ], [ 93.138, 22.5828 ], [ 93.1286, 22.5782 ], [ 93.1228, 22.5673 ], [ 93.1149, 22.5629 ], [ 93.1095, 22.5408 ], [ 93.106, 22.5394 ], [ 93.0891, 22.5464 ], [ 93.0805, 22.5538 ], [ 93.0738, 22.5385 ], [ 93.077, 22.5353 ], [ 93.073, 22.5154 ], [ 93.0487, 22.5199 ], [ 93.0209, 22.5161 ], [ 93.0242, 22.5232 ], [ 93.0216, 22.5398 ], [ 93.0276, 22.5547 ], [ 93.0214, 22.5623 ], [ 93.0083, 22.565 ], [ 92.993, 22.5738 ], [ 92.9952, 22.584 ], [ 92.9903, 22.5901 ], [ 92.9958, 22.5983 ], [ 92.9793, 22.6082 ], [ 92.9794, 22.6171 ], [ 92.9887, 22.6342 ], [ 92.9752, 22.6297 ], [ 92.9622, 22.6336 ], [ 92.9549, 22.6266 ], [ 92.9383, 22.6438 ], [ 92.9317, 22.6612 ], [ 92.9333, 22.6735 ], [ 92.9299, 22.6821 ], [ 92.9357, 22.7082 ], [ 92.9125, 22.7267 ], [ 92.9202, 22.7509 ], [ 92.918, 22.7649 ], [ 92.9332, 22.7773 ], [ 92.9302, 22.781 ], [ 92.9231, 22.78 ], [ 92.923, 22.7893 ], [ 92.9277, 22.7924 ], [ 92.943, 22.7913 ], [ 92.9468, 22.7857 ], [ 92.9538, 22.7857 ], [ 92.9785, 22.7549 ], [ 92.9854, 22.7532 ], [ 93.0097, 22.7532 ], [ 93.009, 22.7655 ], [ 93.0301, 22.7756 ], [ 93.0406, 22.77 ], [ 93.039, 22.7637 ], [ 93.0475, 22.758 ], [ 93.0515, 22.7415 ], [ 93.0676, 22.7573 ], [ 93.0653, 22.7698 ], [ 93.0694, 22.781 ], [ 93.0596, 22.7929 ], [ 93.0611, 22.8038 ], [ 93.0683, 22.8029 ], [ 93.0818, 22.8085 ], [ 93.0847, 22.8066 ] ] ] ] } },
{ "type": "Feature", "properties": { "unit_id": "IND.23.6.1_1", "name": "West Phaileng", "district": "Mamit", "did": "mizoram:Mamit", "state_key": "mizoram" }, "geometry": { "type": "Polygon", "coordinates": [ [ [ 92.6346, 23.7581 ], [ 92.6375, 23.7408 ], [ 92.6487, 23.7178 ], [ 92.6621, 23.714 ], [ 92.6666, 23.7078 ], [ 92.6456, 23.6685 ], [ 92.6353, 23.6574 ], [ 92.637, 23.6478 ], [ 92.6505, 23.638 ], [ 92.6513, 23.63 ], [ 92.6726, 23.6236 ], [ 92.6734, 23.6099 ], [ 92.6648, 23.5969 ], [ 92.6531, 23.5951 ], [ 92.6496, 23.5911 ], [ 92.6508, 23.579 ], [ 92.659, 23.5675 ], [ 92.6533, 23.5575 ], [ 92.6439, 23.5549 ], [ 92.6425, 23.546 ], [ 92.6334, 23.5391 ], [ 92.6393, 23.5236 ], [ 92.6538, 23.5202 ], [ 92.6544, 23.5075 ], [ 92.6588, 23.5018 ], [ 92.6527, 23.4875 ], [ 92.6572, 23.4713 ], [ 92.655, 23.4389 ], [ 92.6571, 23.4227 ], [ 92.6676, 23.4032 ], [ 92.6643, 23.3921 ], [ 92.6693, 23.3851 ], [ 92.665, 23.3822 ], [ 92.6435, 23.384 ], [ 92.6345, 23.3932 ], [ 92.6161, 23.3863 ], [ 92.6136, 23.3935 ], [ 92.5999, 23.3979 ], [ 92.5981, 23.403 ], [ 92.5896, 23.4073 ], [ 92.5842, 23.4039 ], [ 92.588, 23.392 ], [ 92.5845, 23.3821 ], [ 92.5752, 23.3784 ], [ 92.5656, 23.3797 ], [ 92.5615, 23.3708 ], [ 92.5542, 23.3707 ], [ 92.5508, 23.3774 ], [ 92.5414, 23.3824 ], [ 92.5094, 23.3797 ], [ 92.4952, 23.3926 ], [ 92.4919, 23.392 ], [ 92.4943, 23.3874 ], [ 92.4899, 23.3818 ], [ 92.4815, 23.3846 ], [ 92.4754, 23.3936 ], [ 92.4636, 23.3915 ], [ 92.4564, 23.3807 ], [ 92.46, 23.3747 ], [ 92.4553, 23.3647 ], [ 92.4652, 23.3588 ], [ 92.4643, 23.3553 ], [ 92.4602, 23.3576 ], [ 92.4599, 23.3494 ], [ 92.4673, 23.3437 ], [ 92.4712, 23.3237 ], [ 92.4689, 23.3195 ], [ 92.4609, 23.3187 ], [ 92.4514, 23.2861 ], [ 92.4332, 23.285 ], [ 92.4376, 23.2766 ], [ 92.4295, 23.2735 ], [ 92.4226, 23.2637 ], [ 92.4158, 23.2628 ], [ 92.4167, 23.2566 ], [ 92.409, 23.2655 ], [ 92.4063, 23.2634 ], [ 92.3939, 23.2669 ], [ 92.3881, 23.2813 ], [ 92.3812, 23.2851 ], [ 92.3857, 23.3062 ], [ 92.3763, 23.313 ], [ 92.3761, 23.3199 ], [ 92.3714, 23.318 ], [ 92.3674, 23.3229 ], [ 92.368, 23.3171 ], [ 92.3644, 23.3229 ], [ 92.3807, 23.3512 ], [ 92.3805, 23.3556 ], [ 92.3764, 23.3567 ], [ 92.3791, 23.3618 ], [ 92.3693, 23.367 ], [ 92.3705, 23.3736 ], [ 92.3639, 23.3662 ], [ 92.3564, 23.3723 ], [ 92.3651, 23.3796 ], [ 92.3527, 23.3809 ], [ 92.3588, 23.3907 ], [ 92.3545, 23.3891 ], [ 92.3529, 23.3994 ], [ 92.3534, 23.4058 ], [ 92.3554, 23.4008 ], [ 92.3581, 23.4048 ], [ 92.3574, 23.4107 ], [ 92.3478, 23.4128 ], [ 92.3465, 23.4332 ], [ 92.3414, 23.4355 ], [ 92.3339, 23.4288 ], [ 92.3271, 23.4485 ], [ 92.3333, 23.4559 ], [ 92.3299, 23.454 ], [ 92.3255, 23.4591 ], [ 92.3307, 23.4594 ], [ 92.3318, 23.4661 ], [ 92.3171, 23.4717 ], [ 92.3262, 23.4788 ], [ 92.3161, 23.4867 ], [ 92.3219, 23.4901 ], [ 92.3174, 23.4943 ], [ 92.3205, 23.4944 ], [ 92.3193, 23.5006 ], [ 92.3228, 23.501 ], [ 92.3189, 23.5033 ], [ 92.3198, 23.5124 ], [ 92.3156, 23.5129 ], [ 92.3177, 23.5172 ], [ 92.3136, 23.5155 ], [ 92.3177, 23.5267 ], [ 92.314, 23.5333 ], [ 92.3063, 23.535 ], [ 92.3092, 23.5523 ], [ 92.3135, 23.555 ], [ 92.3066, 23.5656 ], [ 92.3172, 23.5721 ], [ 92.3147, 23.578 ], [ 92.3177, 23.5815 ], [ 92.3141, 23.5852 ], [ 92.323, 23.5895 ], [ 92.3176, 23.6104 ], [ 92.3233, 23.612 ], [ 92.3203, 23.6191 ], [ 92.3262, 23.6193 ], [ 92.3297, 23.6236 ], [ 92.3263, 23.631 ], [ 92.3375, 23.6253 ], [ 92.3548, 23.6342 ], [ 92.3589, 23.632 ], [ 92.3586, 23.6363 ], [ 92.3643, 23.6339 ], [ 92.3634, 23.6295 ], [ 92.3808, 23.6335 ], [ 92.385, 23.6406 ], [ 92.3847, 23.651 ], [ 92.381, 23.6531 ], [ 92.3848, 23.6538 ], [ 92.3844, 23.6581 ], [ 92.3971, 23.672 ], [ 92.4107, 23.6765 ], [ 92.415, 23.6809 ], [ 92.4143, 23.6864 ], [ 92.4215, 23.6927 ], [ 92.4344, 23.6972 ], [ 92.4388, 23.716 ], [ 92.4362, 23.7207 ], [ 92.441, 23.7247 ], [ 92.4374, 23.7386 ], [ 92.4483, 23.734 ], [ 92.4575, 23.7398 ], [ 92.4827, 23.7361 ], [ 92.4899, 23.767 ], [ 92.5106, 23.7646 ], [ 92.5206, 23.774 ], [ 92.5245, 23.7543 ], [ 92.529, 23.7486 ], [ 92.532, 23.7502 ], [ 92.5378, 23.7467 ], [ 92.5408, 23.7612 ], [ 92.5453, 23.7619 ], [ 92.5535, 23.7733 ], [ 92.5884, 23.7859 ], [ 92.5943, 23.7791 ], [ 92.5914, 23.7636 ], [ 92.5962, 23.7508 ], [ 92.6041, 23.7467 ], [ 92.6102, 23.7478 ], [ 92.6242, 23.7563 ], [ 92.6263, 23.7627 ], [ 92.6263, 23.7628 ], [ 92.6263, 23.7629 ], [ 92.6346, 23.7581 ] ] ] } },
{ "type": "Feature", "properties": { "unit_id": "IND.23.1.1_1", "name": "Aizawl", "district": "Aizwal", "did": "mizoram:Aizwal", "state_key": "mizoram" }, "geometry": { "type": "Polygon", "coordinates": [ [ [ 92.8239, 23.8928 ], [ 92.834, 23.8867 ], [ 92.832, 23.8542 ], [ 92.8239, 23.8429 ], [ 92.81, 23.837 ], [ 92.8103, 23.8202 ], [ 92.8044, 23.8142 ], [ 92.8051, 23.8029 ], [ 92.7998, 23.7996 ], [ 92.8042, 23.7953 ], [ 92.8009, 23.7885 ], [ 92.8096, 23.7912 ], [ 92.8125, 23.7755 ], [ 92.7994, 23.7156 ], [ 92.7911, 23.7036 ], [ 92.791, 23.6816 ], [ 92.7938, 23.6763 ], [ 92.8149, 23.6745 ], [ 92.8151, 23.6685 ], [ 92.8279, 23.6641 ], [ 92.8231, 23.6505 ], [ 92.825, 23.6425 ], [ 92.8324, 23.6429 ], [ 92.8317, 23.6485 ], [ 92.842, 23.6603 ], [ 92.8738, 23.6594 ], [ 92.8793, 23.6533 ], [ 92.8857, 23.655 ], [ 92.8885, 23.6493 ], [ 92.877, 23.6372 ], [ 92.8799, 23.6358 ], [ 92.8786, 23.6271 ], [ 92.8918, 23.6066 ], [ 92.8884, 23.5982 ], [ 92.8987, 23.5897 ], [ 92.9014, 23.5908 ], [ 92.902, 23.5857 ], [ 92.8991, 23.578 ], [ 92.8915, 23.5762 ], [ 92.8805, 23.5643 ], [ 92.8823, 23.5581 ], [ 92.8685, 23.5547 ], [ 92.8592, 23.5617 ], [ 92.8526, 23.5742 ], [ 92.8345, 23.5761 ], [ 92.8223, 23.588 ], [ 92.823, 23.5977 ], [ 92.8183, 23.6048 ], [ 92.8213, 23.6178 ], [ 92.8107, 23.6277 ], [ 92.8158, 23.6364 ], [ 92.813, 23.6403 ], [ 92.8099, 23.6425 ], [ 92.8043, 23.639 ], [ 92.7901, 23.6447 ], [ 92.7856, 23.6001 ], [ 92.7766, 23.5995 ], [ 92.7692, 23.5944 ], [ 92.7742, 23.5825 ], [ 92.772, 23.565 ], [ 92.7773, 23.5564 ], [ 92.7973, 23.5505 ], [ 92.799, 23.5388 ], [ 92.802, 23.5391 ], [ 92.7961, 23.5363 ], [ 92.7984, 23.5337 ], [ 92.7945, 23.5266 ], [ 92.7987, 23.5246 ], [ 92.795, 23.5169 ], [ 92.8008, 23.5055 ], [ 92.7954, 23.4892 ], [ 92.7995, 23.4795 ], [ 92.8354, 23.4676 ], [ 92.8317, 23.46 ], [ 92.8362, 23.4537 ], [ 92.8365, 23.441 ], [ 92.8313, 23.4213 ], [ 92.8269, 23.4193 ], [ 92.8302, 23.4116 ], [ 92.8212, 23.3861 ], [ 92.8309, 23.3842 ], [ 92.8224, 23.3709 ], [ 92.833, 23.3625 ], [ 92.8403, 23.3363 ], [ 92.8385, 23.3333 ], [ 92.8259, 23.3343 ], [ 92.8135, 23.3255 ], [ 92.8098, 23.3281 ], [ 92.7793, 23.327 ], [ 92.7696, 23.3357 ], [ 92.7517, 23.3417 ], [ 92.7405, 23.3391 ], [ 92.7314, 23.3449 ], [ 92.733, 23.3494 ], [ 92.7213, 23.351 ], [ 92.7151, 23.3489 ], [ 92.7192, 23.3465 ], [ 92.7137, 23.322 ], [ 92.7038, 23.3189 ], [ 92.6948, 23.3274 ], [ 92.692, 23.3228 ], [ 92.6831, 23.3227 ], [ 92.681, 23.3263 ], [ 92.6861, 23.3287 ], [ 92.6871, 23.3551 ], [ 92.682, 23.3683 ], [ 92.6712, 23.3678 ], [ 92.6757, 23.3717 ], [ 92.6761, 23.3794 ], [ 92.6643, 23.3921 ], [ 92.6676, 23.4032 ], [ 92.6567, 23.4247 ], [ 92.6572, 23.4713 ], [ 92.6527, 23.4875 ], [ 92.6588, 23.5018 ], [ 92.6544, 23.5075 ], [ 92.6538, 23.5202 ], [ 92.6393, 23.5236 ], [ 92.6334, 23.538 ], [ 92.6425, 23.546 ], [ 92.6442, 23.5552 ], [ 92.6523, 23.5567 ], [ 92.6566, 23.5619 ], [ 92.6591, 23.5713 ], [ 92.6512, 23.578 ], [ 92.6493, 23.5904 ], [ 92.6696, 23.6022 ], [ 92.6744, 23.6202 ], [ 92.6698, 23.6254 ], [ 92.6513, 23.63 ], [ 92.6505, 23.638 ], [ 92.637, 23.6478 ], [ 92.6354, 23.6554 ], [ 92.6666, 23.7078 ], [ 92.6621, 23.714 ], [ 92.6487, 23.7178 ], [ 92.6375, 23.7408 ], [ 92.6346, 23.7581 ], [ 92.6258, 23.7636 ], [ 92.6369, 23.7716 ], [ 92.6404, 23.7864 ], [ 92.6387, 23.7947 ], [ 92.6234, 23.7972 ], [ 92.6325, 23.8163 ], [ 92.6385, 23.814 ], [ 92.6432, 23.8052 ], [ 92.6544, 23.8193 ], [ 92.6454, 23.8192 ], [ 92.6441, 23.8291 ], [ 92.6629, 23.8367 ], [ 92.6479, 23.8569 ], [ 92.6408, 23.8747 ], [ 92.6397, 23.8933 ], [ 92.6423, 23.8982 ], [ 92.6519, 23.8996 ], [ 92.65, 23.8918 ], [ 92.6618, 23.8814 ], [ 92.6625, 23.8679 ], [ 92.6703, 23.8654 ], [ 92.6799, 23.8672 ], [ 92.6956, 23.8558 ], [ 92.7087, 23.8618 ], [ 92.7262, 23.8511 ], [ 92.7435, 23.8501 ], [ 92.7493, 23.8459 ], [ 92.7768, 23.8522 ], [ 92.7974, 23.8482 ], [ 92.8057, 23.8851 ], [ 92.8066, 23.8869 ], [ 92.8106, 23.887 ], [ 92.8121, 23.8938 ], [ 92.8239, 23.8928 ] ] ] } },
{ "type": "Feature", "properties": { "unit_id": "IND.23.8.1_1", "name": "Thenzawl", "district": "Serchhip", "did": "mizoram:Serchhip", "state_key": "mizoram" }, "geometry": { "type": "Polygon", "coordinates": [ [ [ 92.8087, 23.3208 ], [ 92.8111, 23.3163 ], [ 92.8035, 23.3118 ], [ 92.8086, 23.2972 ], [ 92.8145, 23.2889 ], [ 92.8233, 23.2871 ], [ 92.8212, 23.2828 ], [ 92.8293, 23.2792 ], [ 92.8287, 23.275 ], [ 92.845, 23.267 ], [ 92.8554, 23.25 ], [ 92.8433, 23.2487 ], [ 92.8406, 23.2402 ], [ 92.8333, 23.2459 ], [ 92.8179, 23.2414 ], [ 92.8166, 23.2282 ], [ 92.8123, 23.2262 ], [ 92.7873, 23.2326 ], [ 92.7798, 23.2274 ], [ 92.7692, 23.2343 ], [ 92.7545, 23.227 ], [ 92.7532, 23.2327 ], [ 92.7409, 23.2331 ], [ 92.7311, 23.2397 ], [ 92.7218, 23.2401 ], [ 92.72, 23.1942 ], [ 92.713, 23.1904 ], [ 92.7, 23.196 ], [ 92.7022, 23.2054 ], [ 92.6919, 23.2186 ], [ 92.6866, 23.2461 ], [ 92.6905, 23.2548 ], [ 92.6834, 23.29 ], [ 92.687, 23.299 ], [ 92.6841, 23.3037 ], [ 92.6884, 23.3074 ], [ 92.6842, 23.3119 ], [ 92.6831, 23.3227 ], [ 92.6923, 23.3229 ], [ 92.6944, 23.3274 ], [ 92.7006, 23.3196 ], [ 92.7134, 23.3217 ], [ 92.7192, 23.3465 ], [ 92.7151, 23.3489 ], [ 92.7214, 23.351 ], [ 92.733, 23.3494 ], [ 92.7314, 23.3449 ], [ 92.7405, 23.3391 ], [ 92.7517, 23.3417 ], [ 92.7696, 23.3357 ], [ 92.7784, 23.3272 ], [ 92.8098, 23.3281 ], [ 92.8135, 23.3255 ], [ 92.8087, 23.3208 ] ] ] } },
{ "type": "Feature", "properties": { "unit_id": "IND.23.5.2_1", "name": "Tlabung", "district": "Lunglei", "did": "mizoram:Lunglei", "state_key": "mizoram" }, "geometry": { "type": "Polygon", "coordinates": [ [ [ 92.6136, 23.3935 ], [ 92.6161, 23.3863 ], [ 92.6345, 23.3932 ], [ 92.6435, 23.384 ], [ 92.6719, 23.3842 ], [ 92.6761, 23.3794 ], [ 92.6757, 23.3717 ], [ 92.6712, 23.3678 ], [ 92.682, 23.3683 ], [ 92.6871, 23.3548 ], [ 92.6861, 23.3287 ], [ 92.6809, 23.3275 ], [ 92.6884, 23.3074 ], [ 92.6841, 23.3037 ], [ 92.687, 23.299 ], [ 92.6834, 23.29 ], [ 92.6905, 23.2548 ], [ 92.6866, 23.2461 ], [ 92.6919, 23.2186 ], [ 92.7024, 23.2049 ], [ 92.6961, 23.1869 ], [ 92.6958, 23.1683 ], [ 92.7018, 23.1606 ], [ 92.7067, 23.1243 ], [ 92.724, 23.0898 ], [ 92.7219, 23.0771 ], [ 92.7283, 23.0662 ], [ 92.7246, 23.0631 ], [ 92.7284, 23.0573 ], [ 92.7239, 23.0569 ], [ 92.7228, 23.0528 ], [ 92.7284, 23.0455 ], [ 92.7285, 23.0356 ], [ 92.7238, 23.0343 ], [ 92.7244, 23.0307 ], [ 92.7167, 23.0236 ], [ 92.7161, 23.0114 ], [ 92.7228, 22.995 ], [ 92.7192, 22.9459 ], [ 92.7254, 22.9391 ], [ 92.728, 22.9011 ], [ 92.7366, 22.873 ], [ 92.7361, 22.8663 ], [ 92.7303, 22.8636 ], [ 92.7464, 22.8267 ], [ 92.7478, 22.7946 ], [ 92.7586, 22.781 ], [ 92.7581, 22.7718 ], [ 92.7516, 22.7669 ], [ 92.7544, 22.7578 ], [ 92.7644, 22.7496 ], [ 92.765, 22.7277 ], [ 92.7769, 22.7232 ], [ 92.7795, 22.7135 ], [ 92.7733, 22.7062 ], [ 92.7736, 22.696 ], [ 92.7639, 22.6927 ], [ 92.7696, 22.6912 ], [ 92.7729, 22.6713 ], [ 92.7695, 22.66 ], [ 92.7736, 22.6583 ], [ 92.7753, 22.6447 ], [ 92.7727, 22.6088 ], [ 92.7797, 22.6013 ], [ 92.7785, 22.6066 ], [ 92.7899, 22.6084 ], [ 92.7965, 22.606 ], [ 92.7959, 22.5933 ], [ 92.8005, 22.5892 ], [ 92.8033, 22.5716 ], [ 92.8004, 22.562 ], [ 92.7947, 22.558 ], [ 92.7959, 22.5521 ], [ 92.7824, 22.5457 ], [ 92.7765, 22.5366 ], [ 92.7812, 22.5333 ], [ 92.7763, 22.5338 ], [ 92.7725, 22.5277 ], [ 92.7735, 22.517 ], [ 92.7778, 22.5159 ], [ 92.7748, 22.512 ], [ 92.7769, 22.497 ], [ 92.769, 22.5031 ], [ 92.763, 22.4974 ], [ 92.7565, 22.4995 ], [ 92.751, 22.5279 ], [ 92.7547, 22.5345 ], [ 92.7522, 22.5449 ], [ 92.7351, 22.5595 ], [ 92.7197, 22.5641 ], [ 92.7091, 22.5785 ], [ 92.7099, 22.5853 ], [ 92.7063, 22.5824 ], [ 92.7056, 22.5857 ], [ 92.7003, 22.5847 ], [ 92.6933, 22.5914 ], [ 92.6904, 22.6103 ], [ 92.6944, 22.6115 ], [ 92.6962, 22.6222 ], [ 92.6693, 22.6245 ], [ 92.6616, 22.6172 ], [ 92.655, 22.6216 ], [ 92.6468, 22.6194 ], [ 92.6407, 22.6218 ], [ 92.6415, 22.6321 ], [ 92.6461, 22.6325 ], [ 92.6445, 22.6479 ], [ 92.6384, 22.657 ], [ 92.6263, 22.6596 ], [ 92.6297, 22.6664 ], [ 92.6264, 22.6711 ], [ 92.6177, 22.6714 ], [ 92.6171, 22.6845 ], [ 92.6138, 22.679 ], [ 92.6089, 22.6812 ], [ 92.6038, 22.6928 ], [ 92.5968, 22.6958 ], [ 92.5936, 22.7096 ], [ 92.602, 22.721 ], [ 92.5936, 22.7252 ], [ 92.5955, 22.7317 ], [ 92.5904, 22.7313 ], [ 92.5856, 22.7392 ], [ 92.591, 22.7441 ], [ 92.5857, 22.746 ], [ 92.5798, 22.7553 ], [ 92.578, 22.7552 ], [ 92.5755, 22.7504 ], [ 92.5783, 22.7401 ], [ 92.5669, 22.7317 ], [ 92.5582, 22.7475 ], [ 92.5443, 22.7557 ], [ 92.5425, 22.7627 ], [ 92.5275, 22.7567 ], [ 92.5233, 22.7617 ], [ 92.5167, 22.76 ], [ 92.5152, 22.753 ], [ 92.5054, 22.7466 ], [ 92.5025, 22.7374 ], [ 92.494, 22.7426 ], [ 92.491, 22.7411 ], [ 92.4887, 22.7463 ], [ 92.4738, 22.7462 ], [ 92.4794, 22.7528 ], [ 92.4737, 22.7597 ], [ 92.4764, 22.7642 ], [ 92.4729, 22.7649 ], [ 92.4758, 22.7712 ], [ 92.473, 22.7828 ], [ 92.4691, 22.7825 ], [ 92.4723, 22.7959 ], [ 92.4655, 22.8022 ], [ 92.4668, 22.808 ], [ 92.4633, 22.8113 ], [ 92.4612, 22.8074 ], [ 92.4591, 22.8185 ], [ 92.4542, 22.8189 ], [ 92.4581, 22.823 ], [ 92.4553, 22.8259 ], [ 92.4619, 22.8308 ], [ 92.4529, 22.843 ], [ 92.4632, 22.8417 ], [ 92.4585, 22.8447 ], [ 92.4601, 22.8503 ], [ 92.4565, 22.851 ], [ 92.4645, 22.8547 ], [ 92.4598, 22.858 ], [ 92.4616, 22.8615 ], [ 92.4527, 22.8622 ], [ 92.4547, 22.8695 ], [ 92.4605, 22.8709 ], [ 92.4485, 22.8764 ], [ 92.4502, 22.8932 ], [ 92.446, 22.8971 ], [ 92.4337, 22.8858 ], [ 92.4202, 22.9096 ], [ 92.4203, 22.9183 ], [ 92.413, 22.9134 ], [ 92.4041, 22.9178 ], [ 92.4011, 22.912 ], [ 92.3973, 22.917 ], [ 92.4013, 22.924 ], [ 92.3976, 22.9297 ], [ 92.3764, 22.9286 ], [ 92.3761, 22.935 ], [ 92.3718, 22.9362 ], [ 92.3759, 22.9368 ], [ 92.3727, 22.9399 ], [ 92.3782, 22.9521 ], [ 92.3728, 22.9582 ], [ 92.3773, 22.9597 ], [ 92.3741, 22.9613 ], [ 92.3743, 22.9706 ], [ 92.385, 22.9861 ], [ 92.382, 22.9881 ], [ 92.3853, 22.9922 ], [ 92.3821, 23.0009 ], [ 92.3847, 23.0096 ], [ 92.3798, 23.0121 ], [ 92.385, 23.0273 ], [ 92.3825, 23.0333 ], [ 92.3882, 23.0397 ], [ 92.3924, 23.0565 ], [ 92.3831, 23.0719 ], [ 92.3855, 23.077 ], [ 92.3801, 23.0863 ], [ 92.3751, 23.0844 ], [ 92.3702, 23.0965 ], [ 92.3615, 23.0982 ], [ 92.358, 23.1033 ], [ 92.3682, 23.1273 ], [ 92.357, 23.1342 ], [ 92.361, 23.1453 ], [ 92.3583, 23.1464 ], [ 92.3644, 23.1566 ], [ 92.3545, 23.1785 ], [ 92.3613, 23.1826 ], [ 92.3533, 23.1857 ], [ 92.3539, 23.2198 ], [ 92.351, 23.2338 ], [ 92.3468, 23.2357 ], [ 92.4014, 23.2366 ], [ 92.404, 23.2411 ], [ 92.3995, 23.2419 ], [ 92.3955, 23.2487 ], [ 92.3985, 23.2558 ], [ 92.3896, 23.2594 ], [ 92.3887, 23.2661 ], [ 92.3934, 23.2638 ], [ 92.394, 23.2669 ], [ 92.3989, 23.2671 ], [ 92.4063, 23.2634 ], [ 92.4087, 23.2657 ], [ 92.417, 23.2566 ], [ 92.4158, 23.2628 ], [ 92.4226, 23.2637 ], [ 92.4295, 23.2735 ], [ 92.4376, 23.2766 ], [ 92.4332, 23.285 ], [ 92.4514, 23.2861 ], [ 92.4609, 23.3187 ], [ 92.4689, 23.3195 ], [ 92.4713, 23.3244 ], [ 92.4673, 23.3437 ], [ 92.4599, 23.3494 ], [ 92.4602, 23.3576 ], [ 92.4643, 23.3553 ], [ 92.4652, 23.3588 ], [ 92.4553, 23.3647 ], [ 92.46, 23.3747 ], [ 92.4564, 23.3807 ], [ 92.4634, 23.3913 ], [ 92.4754, 23.3936 ], [ 92.4815, 23.3846 ], [ 92.4899, 23.3818 ], [ 92.4943, 23.3874 ], [ 92.4919, 23.392 ], [ 92.4952, 23.3926 ], [ 92.5094, 23.3797 ], [ 92.5414, 23.3824 ], [ 92.5508, 23.3774 ], [ 92.5542, 23.3707 ], [ 92.5615, 23.3708 ], [ 92.5656, 23.3797 ], [ 92.5752, 23.3784 ], [ 92.5845, 23.3821 ], [ 92.588, 23.392 ], [ 92.5842, 23.4039 ], [ 92.5896, 23.4073 ], [ 92.5999, 23.3979 ], [ 92.6136, 23.3935 ] ] ] } },
{ "type": "Feature", "properties": { "unit_id": "IND.23.5.1_1", "name": "Lunglei", "district": "Lunglei", "did": "mizoram:Lunglei", "state_key": "mizoram" }, "geometry": { "type": "Polygon", "coordinates": [ [ [ 92.8453, 23.2276 ], [ 92.8586, 23.2141 ], [ 92.8542, 23.1945 ], [ 92.8624, 23.1762 ], [ 92.8602, 23.1674 ], [ 92.8646, 23.1638 ], [ 92.8583, 23.1442 ], [ 92.8615, 23.1366 ], [ 92.855, 23.1304 ], [ 92.8549, 23.1218 ], [ 92.8658, 23.1177 ], [ 92.8669, 23.1077 ], [ 92.859, 23.0913 ], [ 92.8664, 23.0875 ], [ 92.8681, 23.0824 ], [ 92.8712, 23.0834 ], [ 92.87, 23.0792 ], [ 92.8745, 23.0752 ], [ 92.871, 23.0572 ], [ 92.8801, 23.0418 ], [ 92.8783, 23.0039 ], [ 92.89, 22.9877 ], [ 92.8836, 22.9656 ], [ 92.8893, 22.9557 ], [ 92.8875, 22.9452 ], [ 92.9021, 22.9316 ], [ 92.9012, 22.9219 ], [ 92.9104, 22.9143 ], [ 92.9093, 22.9046 ], [ 92.9301, 22.8983 ], [ 92.928, 22.8895 ], [ 92.9359, 22.8785 ], [ 92.9227, 22.8585 ], [ 92.9207, 22.8443 ], [ 92.9079, 22.8346 ], [ 92.9171, 22.7861 ], [ 92.9204, 22.7806 ], [ 92.9285, 22.7813 ], [ 92.9332, 22.7783 ], [ 92.918, 22.7649 ], [ 92.9202, 22.7509 ], [ 92.9125, 22.7267 ], [ 92.9357, 22.7082 ], [ 92.9299, 22.6821 ], [ 92.9333, 22.6735 ], [ 92.931, 22.6635 ], [ 92.9383, 22.6438 ], [ 92.9517, 22.6317 ], [ 92.9509, 22.6023 ], [ 92.9404, 22.5656 ], [ 92.9312, 22.5556 ], [ 92.9139, 22.5473 ], [ 92.9052, 22.5575 ], [ 92.8995, 22.5808 ], [ 92.8947, 22.5849 ], [ 92.8771, 22.5841 ], [ 92.8724, 22.5897 ], [ 92.875, 22.5951 ], [ 92.8619, 22.599 ], [ 92.8625, 22.6041 ], [ 92.8493, 22.6096 ], [ 92.8372, 22.6254 ], [ 92.8283, 22.6238 ], [ 92.8274, 22.6267 ], [ 92.8187, 22.6262 ], [ 92.811, 22.6307 ], [ 92.8006, 22.6243 ], [ 92.8023, 22.6105 ], [ 92.7965, 22.606 ], [ 92.7899, 22.6084 ], [ 92.7785, 22.6066 ], [ 92.7797, 22.6013 ], [ 92.7729, 22.6082 ], [ 92.7753, 22.6447 ], [ 92.7736, 22.6583 ], [ 92.7695, 22.66 ], [ 92.7729, 22.6713 ], [ 92.7696, 22.6912 ], [ 92.7639, 22.6927 ], [ 92.7736, 22.696 ], [ 92.7733, 22.7062 ], [ 92.7795, 22.7135 ], [ 92.7769, 22.7232 ], [ 92.765, 22.7277 ], [ 92.7644, 22.7496 ], [ 92.7544, 22.7578 ], [ 92.7516, 22.7665 ], [ 92.7581, 22.7718 ], [ 92.7586, 22.781 ], [ 92.7478, 22.7946 ], [ 92.7464, 22.8267 ], [ 92.7394, 22.8368 ], [ 92.737, 22.852 ], [ 92.7316, 22.8558 ], [ 92.7303, 22.8638 ], [ 92.7361, 22.8663 ], [ 92.7366, 22.873 ], [ 92.728, 22.9011 ], [ 92.7254, 22.9391 ], [ 92.7192, 22.9459 ], [ 92.7228, 22.995 ], [ 92.7162, 23.011 ], [ 92.7167, 23.0233 ], [ 92.7238, 23.0343 ], [ 92.7285, 23.0356 ], [ 92.7284, 23.0455 ], [ 92.7228, 23.0528 ], [ 92.7239, 23.0569 ], [ 92.7284, 23.0573 ], [ 92.7246, 23.0631 ], [ 92.7283, 23.0662 ], [ 92.7219, 23.0771 ], [ 92.724, 23.0898 ], [ 92.7067, 23.1243 ], [ 92.7018, 23.1606 ], [ 92.6958, 23.1683 ], [ 92.6986, 23.1951 ], [ 92.7134, 23.1904 ], [ 92.72, 23.1942 ], [ 92.7218, 23.2401 ], [ 92.7311, 23.2397 ], [ 92.7409, 23.2331 ], [ 92.7532, 23.2327 ], [ 92.7545, 23.227 ], [ 92.7692, 23.2343 ], [ 92.7798, 23.2274 ], [ 92.7873, 23.2326 ], [ 92.8115, 23.2262 ], [ 92.8166, 23.2282 ], [ 92.8179, 23.2414 ], [ 92.8333, 23.2459 ], [ 92.846, 23.2365 ], [ 92.8453, 23.2276 ] ] ] } },
{ "type": "Feature", "properties": { "unit_id": "IND.23.5.1_1", "name": "Hnahthial", "district": "Lunglei", "did": "mizoram:Lunglei", "state_key": "mizoram" }, "geometry": { "type": "Polygon", "coordinates": [ [ [ 92.9329, 23.1731 ], [ 92.9361, 23.1695 ], [ 92.9501, 23.1679 ], [ 92.9559, 23.159 ], [ 92.9576, 23.116 ], [ 93.0164, 23.0811 ], [ 93.0372, 23.0815 ], [ 93.043, 23.074 ], [ 93.0378, 23.0661 ], [ 93.0385, 23.0498 ], [ 93.0683, 23.0427 ], [ 93.0813, 23.035 ], [ 93.0797, 23.0299 ], [ 93.1171, 23.0124 ], [ 93.1223, 23.0064 ], [ 93.1202, 23.0024 ], [ 93.126, 23.0026 ], [ 93.1319, 22.9912 ], [ 93.1402, 22.9908 ], [ 93.1392, 22.9816 ], [ 93.1438, 22.9749 ], [ 93.1358, 22.9704 ], [ 93.1413, 22.9576 ], [ 93.138, 22.9506 ], [ 93.1461, 22.9437 ], [ 93.1481, 22.9251 ], [ 93.1544, 22.9173 ], [ 93.1617, 22.9166 ], [ 93.1645, 22.911 ], [ 93.1503, 22.9079 ], [ 93.1398, 22.9135 ], [ 93.1299, 22.9039 ], [ 93.1343, 22.8913 ], [ 93.126, 22.8764 ], [ 93.1267, 22.8706 ], [ 93.1173, 22.8631 ], [ 93.1181, 22.8425 ], [ 93.1101, 22.833 ], [ 93.1131, 22.829 ], [ 93.1036, 22.8243 ], [ 93.1105, 22.8181 ], [ 93.0949, 22.8067 ], [ 93.0965, 22.7867 ], [ 93.0817, 22.7978 ], [ 93.0835, 22.8083 ], [ 93.0749, 22.8077 ], [ 93.0683, 22.8029 ], [ 93.0611, 22.8038 ], [ 93.0596, 22.7929 ], [ 93.0694, 22.781 ], [ 93.0653, 22.7698 ], [ 93.0676, 22.7573 ], [ 93.0515, 22.7415 ], [ 93.0475, 22.758 ], [ 93.039, 22.7637 ], [ 93.0406, 22.77 ], [ 93.0301, 22.7756 ], [ 93.009, 22.7655 ], [ 93.0097, 22.7532 ], [ 92.9854, 22.7532 ], [ 92.9785, 22.7549 ], [ 92.9538, 22.7857 ], [ 92.9468, 22.7857 ], [ 92.943, 22.7913 ], [ 92.9277, 22.7924 ], [ 92.9235, 22.7905 ], [ 92.9221, 22.7799 ], [ 92.9154, 22.7907 ], [ 92.9079, 22.8346 ], [ 92.9207, 22.8443 ], [ 92.9227, 22.8585 ], [ 92.9359, 22.8785 ], [ 92.928, 22.8895 ], [ 92.9301, 22.8983 ], [ 92.9093, 22.9046 ], [ 92.9104, 22.9143 ], [ 92.9012, 22.9219 ], [ 92.9021, 22.9316 ], [ 92.8875, 22.945 ], [ 92.8893, 22.9557 ], [ 92.8836, 22.9656 ], [ 92.8899, 22.9886 ], [ 92.8783, 23.0039 ], [ 92.8801, 23.0418 ], [ 92.871, 23.0572 ], [ 92.8745, 23.0752 ], [ 92.87, 23.0792 ], [ 92.8712, 23.0834 ], [ 92.8681, 23.0824 ], [ 92.8664, 23.0875 ], [ 92.859, 23.0913 ], [ 92.8669, 23.1077 ], [ 92.8658, 23.1177 ], [ 92.8551, 23.1211 ], [ 92.8548, 23.1296 ], [ 92.8615, 23.1366 ], [ 92.8583, 23.1442 ], [ 92.8645, 23.1628 ], [ 92.8601, 23.168 ], [ 92.8626, 23.1741 ], [ 92.8696, 23.1758 ], [ 92.8746, 23.1702 ], [ 92.8804, 23.1697 ], [ 92.8912, 23.177 ], [ 92.9053, 23.1775 ], [ 92.9146, 23.1834 ], [ 92.9169, 23.1891 ], [ 92.9341, 23.1861 ], [ 92.9329, 23.1731 ] ] ] } },
{ "type": "Feature", "properties": { "unit_id": "IND.23.8.1_1", "name": "North Vanlaiphai", "district": "Serchhip", "did": "mizoram:Serchhip", "state_key": "mizoram" }, "geometry": { "type": "Polygon", "coordinates": [ [ [ 93.0051, 23.2905 ], [ 93.0107, 23.2744 ], [ 93.0195, 23.268 ], [ 93.0306, 23.266 ], [ 93.0277, 23.262 ], [ 93.0323, 23.2544 ], [ 93.0432, 23.2493 ], [ 93.0342, 23.2449 ], [ 93.038, 23.243 ], [ 93.0384, 23.2369 ], [ 93.041, 23.2397 ], [ 93.0482, 23.2376 ], [ 93.0543, 23.2435 ], [ 93.0691, 23.2298 ], [ 93.0827, 23.2261 ], [ 93.092, 23.231 ], [ 93.0994, 23.2405 ], [ 93.1054, 23.2404 ], [ 93.1133, 23.2314 ], [ 93.1365, 23.2168 ], [ 93.1461, 23.2022 ], [ 93.1543, 23.1992 ], [ 93.1593, 23.2011 ], [ 93.1627, 23.1979 ], [ 93.1612, 23.1931 ], [ 93.158, 23.1957 ], [ 93.1455, 23.1903 ], [ 93.1453, 23.1847 ], [ 93.1611, 23.1757 ], [ 93.1619, 23.1622 ], [ 93.1728, 23.1408 ], [ 93.1655, 23.1282 ], [ 93.1628, 23.1015 ], [ 93.1752, 23.0812 ], [ 93.1704, 23.0772 ], [ 93.1767, 23.0711 ], [ 93.1747, 23.0635 ], [ 93.1798, 23.057 ], [ 93.169, 23.0467 ], [ 93.1604, 23.0479 ], [ 93.1561, 23.0432 ], [ 93.1528, 23.0442 ], [ 93.1514, 23.0537 ], [ 93.1402, 23.0533 ], [ 93.1403, 23.059 ], [ 93.1351, 23.06 ], [ 93.1354, 23.0484 ], [ 93.1258, 23.0407 ], [ 93.1283, 23.0308 ], [ 93.1223, 23.0064 ], [ 93.1158, 23.0133 ], [ 93.0797, 23.0299 ], [ 93.0813, 23.035 ], [ 93.068, 23.0429 ], [ 93.0385, 23.0498 ], [ 93.0378, 23.0661 ], [ 93.043, 23.074 ], [ 93.0372, 23.0815 ], [ 93.0164, 23.0811 ], [ 92.9576, 23.116 ], [ 92.9595, 23.1337 ], [ 92.9556, 23.1361 ], [ 92.9541, 23.1644 ], [ 92.9473, 23.1691 ], [ 92.9361, 23.1695 ], [ 92.9324, 23.1746 ], [ 92.9325, 23.1875 ], [ 92.923, 23.1861 ], [ 92.9169, 23.1891 ], [ 92.9146, 23.1834 ], [ 92.9053, 23.1775 ], [ 92.8933, 23.1776 ], [ 92.8791, 23.1697 ], [ 92.8696, 23.1758 ], [ 92.8626, 23.1741 ], [ 92.8588, 23.1894 ], [ 92.8547, 23.1907 ], [ 92.8586, 23.2141 ], [ 92.8453, 23.2276 ], [ 92.8467, 23.2345 ], [ 92.8409, 23.2392 ], [ 92.8408, 23.2443 ], [ 92.845, 23.2497 ], [ 92.8557, 23.2504 ], [ 92.8514, 23.2589 ], [ 92.857, 23.2622 ], [ 92.8587, 23.2744 ], [ 92.8784, 23.2857 ], [ 92.8894, 23.298 ], [ 92.9189, 23.2889 ], [ 92.9312, 23.2982 ], [ 92.9491, 23.2879 ], [ 92.9648, 23.2957 ], [ 92.9717, 23.2919 ], [ 92.9748, 23.2976 ], [ 92.9868, 23.2993 ], [ 92.9893, 23.304 ], [ 93.0058, 23.3038 ], [ 93.0051, 23.2905 ] ] ] } },
{ "type": "Feature", "properties": { "unit_id": "IND.23.8.1_1", "name": "Serchhip", "district": "Serchhip", "did": "mizoram:Serchhip", "state_key": "mizoram" }, "geometry": { "type": "Polygon", "coordinates": [ [ [ 92.8099, 23.6425 ], [ 92.8158, 23.6365 ], [ 92.8107, 23.6278 ], [ 92.8213, 23.6178 ], [ 92.8183, 23.6048 ], [ 92.823, 23.5977 ], [ 92.8219, 23.589 ], [ 92.8343, 23.5762 ], [ 92.8526, 23.5742 ], [ 92.8592, 23.5617 ], [ 92.8686, 23.5547 ], [ 92.8823, 23.5581 ], [ 92.8805, 23.5643 ], [ 92.8967, 23.578 ], [ 92.8969, 23.5717 ], [ 92.9117, 23.5602 ], [ 92.9443, 23.5588 ], [ 92.962, 23.5317 ], [ 92.9717, 23.5264 ], [ 92.9846, 23.5115 ], [ 92.9791, 23.4924 ], [ 92.9862, 23.4859 ], [ 92.9962, 23.479 ], [ 93.0024, 23.4842 ], [ 93.023, 23.4707 ], [ 93.034, 23.4737 ], [ 93.0446, 23.4854 ], [ 93.0605, 23.4773 ], [ 93.0775, 23.4781 ], [ 93.0817, 23.4693 ], [ 93.0706, 23.4689 ], [ 93.07, 23.465 ], [ 93.0786, 23.4557 ], [ 93.0978, 23.451 ], [ 93.0988, 23.4479 ], [ 93.0977, 23.4428 ], [ 93.0857, 23.4333 ], [ 93.0766, 23.4029 ], [ 93.0672, 23.3971 ], [ 93.0539, 23.4029 ], [ 93.0325, 23.3977 ], [ 93.0486, 23.3697 ], [ 93.0358, 23.347 ], [ 93.0319, 23.3268 ], [ 93.0057, 23.3045 ], [ 92.9893, 23.304 ], [ 92.9868, 23.2993 ], [ 92.9748, 23.2976 ], [ 92.9717, 23.2919 ], [ 92.9648, 23.2957 ], [ 92.9491, 23.2879 ], [ 92.9312, 23.2982 ], [ 92.9189, 23.2889 ], [ 92.8894, 23.298 ], [ 92.8784, 23.2857 ], [ 92.8587, 23.2744 ], [ 92.857, 23.2622 ], [ 92.8513, 23.2581 ], [ 92.845, 23.267 ], [ 92.8288, 23.2749 ], [ 92.8292, 23.2793 ], [ 92.824, 23.2798 ], [ 92.8231, 23.2872 ], [ 92.8144, 23.289 ], [ 92.8035, 23.3111 ], [ 92.8111, 23.3163 ], [ 92.8086, 23.3204 ], [ 92.8129, 23.3252 ], [ 92.8259, 23.3343 ], [ 92.8385, 23.3333 ], [ 92.841, 23.34 ], [ 92.833, 23.3625 ], [ 92.8224, 23.3709 ], [ 92.8309, 23.3842 ], [ 92.8212, 23.3861 ], [ 92.8302, 23.4116 ], [ 92.8269, 23.4193 ], [ 92.8313, 23.4213 ], [ 92.8365, 23.441 ], [ 92.8362, 23.4537 ], [ 92.8317, 23.46 ], [ 92.8354, 23.4676 ], [ 92.7995, 23.4795 ], [ 92.7954, 23.4892 ], [ 92.8008, 23.5055 ], [ 92.795, 23.5169 ], [ 92.7987, 23.5246 ], [ 92.7945, 23.5266 ], [ 92.7984, 23.5337 ], [ 92.7961, 23.5363 ], [ 92.802, 23.5391 ], [ 92.799, 23.5388 ], [ 92.7973, 23.5505 ], [ 92.7773, 23.5564 ], [ 92.772, 23.5653 ], [ 92.7742, 23.5825 ], [ 92.7693, 23.5946 ], [ 92.7766, 23.5995 ], [ 92.7856, 23.6001 ], [ 92.7901, 23.6447 ], [ 92.8045, 23.639 ], [ 92.8099, 23.6425 ] ] ] } },
{ "type": "Feature", "properties": { "unit_id": "IND.23.1.1_1", "name": "Saitual", "district": "Aizwal", "did": "mizoram:Aizwal", "state_key": "mizoram" }, "geometry": { "type": "Polygon", "coordinates": [ [ [ 92.8987, 23.5897 ], [ 92.8884, 23.5982 ], [ 92.8918, 23.6066 ], [ 92.8786, 23.6271 ], [ 92.8799, 23.6358 ], [ 92.877, 23.6372 ], [ 92.8885, 23.6493 ], [ 92.8857, 23.655 ], [ 92.8793, 23.6533 ], [ 92.8738, 23.6594 ], [ 92.842, 23.6603 ], [ 92.8317, 23.6485 ], [ 92.8324, 23.6429 ], [ 92.825, 23.6425 ], [ 92.8231, 23.6505 ], [ 92.8279, 23.6641 ], [ 92.8151, 23.6685 ], [ 92.8149, 23.6745 ], [ 92.7938, 23.6763 ], [ 92.791, 23.6816 ], [ 92.7911, 23.7036 ], [ 92.7994, 23.7156 ], [ 92.8125, 23.7755 ], [ 92.8096, 23.7912 ], [ 92.8009, 23.7885 ], [ 92.8042, 23.7953 ], [ 92.7998, 23.7996 ], [ 92.8051, 23.8029 ], [ 92.8044, 23.8142 ], [ 92.8103, 23.8202 ], [ 92.81, 23.837 ], [ 92.8239, 23.8429 ], [ 92.832, 23.8542 ], [ 92.834, 23.8867 ], [ 92.8239, 23.8928 ], [ 92.8122, 23.8945 ], [ 92.8174, 23.8962 ], [ 92.8196, 23.9063 ], [ 92.8301, 23.9123 ], [ 92.8325, 23.928 ], [ 92.8385, 23.9274 ], [ 92.844, 23.9215 ], [ 92.8479, 23.9266 ], [ 92.8555, 23.9232 ], [ 92.8569, 23.9143 ], [ 92.8615, 23.9113 ], [ 92.8691, 23.9127 ], [ 92.8684, 23.9153 ], [ 92.8737, 23.913 ], [ 92.8731, 23.9159 ], [ 92.8852, 23.9161 ], [ 92.897, 23.8767 ], [ 92.9316, 23.8826 ], [ 92.9593, 23.8782 ], [ 92.9655, 23.8849 ], [ 92.9805, 23.886 ], [ 92.9857, 23.8896 ], [ 92.979, 23.9176 ], [ 92.9903, 23.9236 ], [ 92.9968, 23.9323 ], [ 92.9833, 23.9574 ], [ 92.9924, 23.9616 ], [ 92.9906, 23.9721 ], [ 92.9978, 23.9854 ], [ 92.9976, 23.9998 ], [ 92.9921, 24.0104 ], [ 92.9945, 24.07 ], [ 92.992, 24.0891 ], [ 92.9665, 24.0942 ], [ 92.9703, 24.0965 ], [ 92.9674, 24.1074 ], [ 92.9727, 24.1123 ], [ 92.9922, 24.1142 ], [ 93.0099, 24.102 ], [ 93.0172, 24.0989 ], [ 93.023, 24.101 ], [ 93.0334, 24.0926 ], [ 93.0494, 24.088 ], [ 93.0752, 24.1003 ], [ 93.0852, 24.0813 ], [ 93.0979, 24.0713 ], [ 93.0965, 24.0423 ], [ 93.1249, 24.0613 ], [ 93.1307, 24.0764 ], [ 93.1435, 24.0852 ], [ 93.1654, 24.0722 ], [ 93.1625, 24.0583 ], [ 93.1672, 24.0517 ], [ 93.1583, 24.005 ], [ 93.1628, 23.9928 ], [ 93.1744, 23.9804 ], [ 93.1741, 23.9748 ], [ 93.1819, 23.9718 ], [ 93.1786, 23.9662 ], [ 93.182, 23.9524 ], [ 93.1902, 23.9413 ], [ 93.1876, 23.93 ], [ 93.17, 23.9345 ], [ 93.1658, 23.9318 ], [ 93.1563, 23.9089 ], [ 93.1668, 23.8938 ], [ 93.1697, 23.8778 ], [ 93.1639, 23.8755 ], [ 93.1626, 23.857 ], [ 93.1378, 23.8423 ], [ 93.1329, 23.8264 ], [ 93.1097, 23.8306 ], [ 93.0909, 23.8296 ], [ 93.0732, 23.8112 ], [ 93.0589, 23.8043 ], [ 93.0629, 23.7941 ], [ 93.0587, 23.7951 ], [ 93.0555, 23.7896 ], [ 93.0533, 23.7926 ], [ 93.0402, 23.7902 ], [ 93.0283, 23.7949 ], [ 93.0307, 23.799 ], [ 93.0097, 23.8011 ], [ 93.0162, 23.7926 ], [ 93.0218, 23.7932 ], [ 93.0243, 23.7626 ], [ 93.0289, 23.7558 ], [ 93.0258, 23.7522 ], [ 93.0305, 23.7508 ], [ 93.0289, 23.7463 ], [ 93.0332, 23.7392 ], [ 93.024, 23.7326 ], [ 93.0312, 23.6938 ], [ 93.0283, 23.6863 ], [ 93.024, 23.6851 ], [ 93.0245, 23.6773 ], [ 93.028, 23.6798 ], [ 93.0276, 23.6599 ], [ 93.0326, 23.6472 ], [ 93.0313, 23.6328 ], [ 93.0276, 23.6308 ], [ 93.0279, 23.5971 ], [ 93.0313, 23.5783 ], [ 93.0351, 23.5752 ], [ 93.0314, 23.5654 ], [ 93.0328, 23.5617 ], [ 93.0368, 23.562 ], [ 93.0333, 23.5531 ], [ 93.037, 23.5517 ], [ 93.039, 23.5422 ], [ 93.0394, 23.519 ], [ 93.033, 23.5138 ], [ 93.025, 23.5143 ], [ 93.0238, 23.511 ], [ 93.0177, 23.51 ], [ 93.0098, 23.4916 ], [ 92.9962, 23.479 ], [ 92.9792, 23.4921 ], [ 92.9841, 23.5122 ], [ 92.9613, 23.5326 ], [ 92.9484, 23.5547 ], [ 92.9365, 23.5602 ], [ 92.9241, 23.5578 ], [ 92.9099, 23.561 ], [ 92.8969, 23.5717 ], [ 92.9014, 23.5908 ], [ 92.8987, 23.5897 ] ] ] } },
{ "type": "Feature", "properties": { "unit_id": "IND.23.2.1_1", "name": "Ngopa", "district": "Champhai", "did": "mizoram:Champhai", "state_key": "mizoram" }, "geometry": { "type": "Polygon", "coordinates": [ [ [ 93.2591, 24.0697 ], [ 93.262, 24.0572 ], [ 93.2577, 24.0546 ], [ 93.2478, 24.0308 ], [ 93.2521, 24.0257 ], [ 93.2506, 24.0207 ], [ 93.2693, 24.0308 ], [ 93.2835, 24.0484 ], [ 93.3258, 24.0504 ], [ 93.3276, 24.0424 ], [ 93.3379, 24.0406 ], [ 93.3259, 24.0299 ], [ 93.3318, 24.03 ], [ 93.3307, 24.0271 ], [ 93.3378, 24.0256 ], [ 93.339, 24.0215 ], [ 93.3296, 24.0204 ], [ 93.3335, 24.0144 ], [ 93.3322, 23.9994 ], [ 93.3375, 23.9897 ], [ 93.3286, 23.9854 ], [ 93.3342, 23.9851 ], [ 93.3333, 23.9791 ], [ 93.3395, 23.9806 ], [ 93.3367, 23.9759 ], [ 93.3433, 23.9751 ], [ 93.341, 23.9698 ], [ 93.3475, 23.9613 ], [ 93.3511, 23.9617 ], [ 93.3536, 23.9511 ], [ 93.3486, 23.9481 ], [ 93.3545, 23.9433 ], [ 93.3508, 23.9416 ], [ 93.3556, 23.942 ], [ 93.3575, 23.9455 ], [ 93.3612, 23.9448 ], [ 93.3593, 23.9409 ], [ 93.365, 23.9359 ], [ 93.3643, 23.9317 ], [ 93.3599, 23.9321 ], [ 93.3646, 23.9272 ], [ 93.3637, 23.9196 ], [ 93.3602, 23.9186 ], [ 93.362, 23.8955 ], [ 93.3544, 23.8858 ], [ 93.3601, 23.8846 ], [ 93.3574, 23.8795 ], [ 93.3655, 23.8734 ], [ 93.3635, 23.8672 ], [ 93.3673, 23.8642 ], [ 93.3562, 23.8571 ], [ 93.3583, 23.8531 ], [ 93.3526, 23.853 ], [ 93.3612, 23.8505 ], [ 93.3526, 23.8468 ], [ 93.3583, 23.8429 ], [ 93.353, 23.8385 ], [ 93.3304, 23.8369 ], [ 93.3235, 23.8323 ], [ 93.309, 23.8435 ], [ 93.2947, 23.8415 ], [ 93.2911, 23.8362 ], [ 93.2923, 23.8227 ], [ 93.2847, 23.8148 ], [ 93.2744, 23.8172 ], [ 93.2654, 23.8283 ], [ 93.2401, 23.8345 ], [ 93.2356, 23.821 ], [ 93.2268, 23.8102 ], [ 93.2107, 23.8045 ], [ 93.2098, 23.7944 ], [ 93.2038, 23.7891 ], [ 93.1882, 23.7924 ], [ 93.1796, 23.7888 ], [ 93.1812, 23.7927 ], [ 93.1756, 23.7995 ], [ 93.1677, 23.7983 ], [ 93.1627, 23.7933 ], [ 93.1582, 23.7872 ], [ 93.1613, 23.7709 ], [ 93.1514, 23.7616 ], [ 93.1617, 23.7542 ], [ 93.1658, 23.742 ], [ 93.1613, 23.7353 ], [ 93.158, 23.7121 ], [ 93.1484, 23.6992 ], [ 93.1388, 23.6963 ], [ 93.1257, 23.6993 ], [ 93.1271, 23.6869 ], [ 93.1175, 23.6825 ], [ 93.1194, 23.6702 ], [ 93.1153, 23.6613 ], [ 93.1209, 23.6405 ], [ 93.1373, 23.6484 ], [ 93.1505, 23.6396 ], [ 93.154, 23.6321 ], [ 93.151, 23.6035 ], [ 93.1258, 23.5995 ], [ 93.1064, 23.5835 ], [ 93.1061, 23.574 ], [ 93.1012, 23.569 ], [ 93.1044, 23.5658 ], [ 93.0972, 23.5433 ], [ 93.0999, 23.5246 ], [ 93.0961, 23.5184 ], [ 93.0994, 23.5026 ], [ 93.1043, 23.5001 ], [ 93.0955, 23.4944 ], [ 93.0939, 23.4878 ], [ 93.0775, 23.4781 ], [ 93.0642, 23.4768 ], [ 93.0445, 23.4853 ], [ 93.034, 23.4737 ], [ 93.0228, 23.4707 ], [ 93.0024, 23.4842 ], [ 93.0098, 23.4916 ], [ 93.0177, 23.51 ], [ 93.0238, 23.511 ], [ 93.025, 23.5143 ], [ 93.033, 23.5138 ], [ 93.0409, 23.5239 ], [ 93.037, 23.5517 ], [ 93.0333, 23.5531 ], [ 93.0368, 23.562 ], [ 93.0328, 23.5617 ], [ 93.0314, 23.5654 ], [ 93.0351, 23.5752 ], [ 93.0285, 23.5903 ], [ 93.0276, 23.6308 ], [ 93.0313, 23.6328 ], [ 93.0326, 23.6472 ], [ 93.0276, 23.6599 ], [ 93.028, 23.6798 ], [ 93.0245, 23.6773 ], [ 93.024, 23.6847 ], [ 93.0312, 23.6938 ], [ 93.024, 23.7326 ], [ 93.0332, 23.7392 ], [ 93.0289, 23.7463 ], [ 93.0305, 23.7508 ], [ 93.0258, 23.7522 ], [ 93.0289, 23.7558 ], [ 93.0243, 23.7626 ], [ 93.0218, 23.7932 ], [ 93.0162, 23.7926 ], [ 93.0101, 23.8029 ], [ 93.0307, 23.799 ], [ 93.0283, 23.7949 ], [ 93.0402, 23.7902 ], [ 93.0533, 23.7926 ], [ 93.0555, 23.7896 ], [ 93.0587, 23.7951 ], [ 93.0629, 23.7941 ], [ 93.0589, 23.8043 ], [ 93.0732, 23.8112 ], [ 93.0909, 23.8296 ], [ 93.1097, 23.8306 ], [ 93.1329, 23.8264 ], [ 93.1378, 23.8423 ], [ 93.1626, 23.857 ], [ 93.1639, 23.8755 ], [ 93.1697, 23.8778 ], [ 93.1668, 23.8938 ], [ 93.1563, 23.9089 ], [ 93.1658, 23.9318 ], [ 93.17, 23.9345 ], [ 93.1876, 23.93 ], [ 93.1902, 23.9413 ], [ 93.182, 23.9524 ], [ 93.1786, 23.9662 ], [ 93.1819, 23.9718 ], [ 93.1741, 23.9748 ], [ 93.1744, 23.9804 ], [ 93.1628, 23.9928 ], [ 93.1583, 24.005 ], [ 93.1646, 24.0501 ], [ 93.1895, 24.0533 ], [ 93.1937, 24.0496 ], [ 93.2122, 24.0471 ], [ 93.2207, 24.0709 ], [ 93.2193, 24.081 ], [ 93.2221, 24.0835 ], [ 93.2434, 24.0823 ], [ 93.2591, 24.0697 ] ] ] } },
{ "type": "Feature", "properties": { "unit_id": "IND.23.2.1_1", "name": "Champhai", "district": "Champhai", "did": "mizoram:Champhai", "state_key": "mizoram" }, "geometry": { "type": "Polygon", "coordinates": [ [ [ 93.3929, 23.9291 ], [ 93.3907, 23.9238 ], [ 93.3938, 23.9256 ], [ 93.3916, 23.9185 ], [ 93.3953, 23.9154 ], [ 93.3914, 23.9142 ], [ 93.3846, 23.8768 ], [ 93.3888, 23.8651 ], [ 93.385, 23.8481 ], [ 93.3902, 23.8338 ], [ 93.3885, 23.8256 ], [ 93.3924, 23.8234 ], [ 93.3903, 23.8174 ], [ 93.3985, 23.8153 ], [ 93.4033, 23.807 ], [ 93.3916, 23.7567 ], [ 93.395, 23.7494 ], [ 93.4038, 23.7453 ], [ 93.404, 23.7377 ], [ 93.411, 23.7294 ], [ 93.4123, 23.7174 ], [ 93.4061, 23.7153 ], [ 93.4073, 23.7072 ], [ 93.4194, 23.7015 ], [ 93.4273, 23.6881 ], [ 93.4369, 23.687 ], [ 93.4361, 23.678 ], [ 93.4224, 23.66 ], [ 93.4202, 23.6488 ], [ 93.4165, 23.6476 ], [ 93.4171, 23.6377 ], [ 93.4246, 23.6295 ], [ 93.4199, 23.6235 ], [ 93.4205, 23.6116 ], [ 93.4286, 23.5883 ], [ 93.4232, 23.5844 ], [ 93.4221, 23.5714 ], [ 93.4181, 23.5687 ], [ 93.4147, 23.5712 ], [ 93.4098, 23.5636 ], [ 93.4138, 23.5603 ], [ 93.4091, 23.5574 ], [ 93.4124, 23.5564 ], [ 93.4185, 23.54 ], [ 93.4088, 23.5173 ], [ 93.4038, 23.5167 ], [ 93.4043, 23.5126 ], [ 93.398, 23.5106 ], [ 93.3947, 23.5038 ], [ 93.396, 23.4839 ], [ 93.3925, 23.4788 ], [ 93.3993, 23.4719 ], [ 93.3922, 23.4574 ], [ 93.396, 23.4537 ], [ 93.3948, 23.4481 ], [ 93.3905, 23.4507 ], [ 93.388, 23.4464 ], [ 93.3911, 23.442 ], [ 93.3883, 23.4208 ], [ 93.3944, 23.3972 ], [ 93.4024, 23.3893 ], [ 93.4016, 23.3837 ], [ 93.397, 23.3835 ], [ 93.393, 23.375 ], [ 93.3865, 23.3741 ], [ 93.3912, 23.37 ], [ 93.3876, 23.3594 ], [ 93.384, 23.3619 ], [ 93.3814, 23.3582 ], [ 93.3793, 23.3608 ], [ 93.3712, 23.3591 ], [ 93.3558, 23.3519 ], [ 93.3581, 23.3423 ], [ 93.3729, 23.3294 ], [ 93.3669, 23.3222 ], [ 93.3716, 23.3135 ], [ 93.3638, 23.3132 ], [ 93.3716, 23.3096 ], [ 93.3651, 23.3063 ], [ 93.3699, 23.2872 ], [ 93.3626, 23.2791 ], [ 93.3692, 23.2761 ], [ 93.3657, 23.2692 ], [ 93.3736, 23.2613 ], [ 93.3695, 23.2504 ], [ 93.3766, 23.2479 ], [ 93.3813, 23.2243 ], [ 93.3886, 23.2169 ], [ 93.3806, 23.2153 ], [ 93.3755, 23.2042 ], [ 93.3803, 23.1999 ], [ 93.377, 23.1903 ], [ 93.3806, 23.1866 ], [ 93.3743, 23.1772 ], [ 93.3686, 23.1753 ], [ 93.3726, 23.1712 ], [ 93.3682, 23.1441 ], [ 93.3783, 23.1407 ], [ 93.3871, 23.1434 ], [ 93.3845, 23.1326 ], [ 93.3775, 23.1326 ], [ 93.3776, 23.1268 ], [ 93.3662, 23.1214 ], [ 93.3632, 23.1149 ], [ 93.3557, 23.1161 ], [ 93.3585, 23.1096 ], [ 93.3543, 23.0968 ], [ 93.3506, 23.0913 ], [ 93.3446, 23.0918 ], [ 93.3464, 23.0879 ], [ 93.3393, 23.0738 ], [ 93.3452, 23.0751 ], [ 93.3521, 23.0704 ], [ 93.3408, 23.0677 ], [ 93.3424, 23.0575 ], [ 93.3346, 23.0595 ], [ 93.3336, 23.0486 ], [ 93.3274, 23.0475 ], [ 93.328, 23.0396 ], [ 93.3204, 23.0367 ], [ 93.3203, 23.0289 ], [ 93.3134, 23.0262 ], [ 93.3139, 23.0194 ], [ 93.3045, 23.0202 ], [ 93.2935, 23.0064 ], [ 93.2832, 23.0084 ], [ 93.275, 23.0039 ], [ 93.2712, 23.0107 ], [ 93.2469, 23.0066 ], [ 93.2295, 23.0116 ], [ 93.2298, 23.0199 ], [ 93.215, 23.0273 ], [ 93.2174, 23.0339 ], [ 93.2113, 23.0392 ], [ 93.2099, 23.0485 ], [ 93.202, 23.0508 ], [ 93.2015, 23.0549 ], [ 93.1882, 23.0522 ], [ 93.1855, 23.0592 ], [ 93.1798, 23.057 ], [ 93.1767, 23.0603 ], [ 93.177, 23.0705 ], [ 93.1704, 23.0772 ], [ 93.1752, 23.0812 ], [ 93.1628, 23.1015 ], [ 93.1655, 23.1282 ], [ 93.1728, 23.1408 ], [ 93.1619, 23.1622 ], [ 93.1611, 23.1757 ], [ 93.147, 23.1813 ], [ 93.1449, 23.1889 ], [ 93.158, 23.1957 ], [ 93.1618, 23.1938 ], [ 93.1598, 23.2041 ], [ 93.1627, 23.2096 ], [ 93.1671, 23.2099 ], [ 93.1592, 23.2181 ], [ 93.1835, 23.2573 ], [ 93.1778, 23.2698 ], [ 93.1974, 23.2796 ], [ 93.1932, 23.2815 ], [ 93.1927, 23.2874 ], [ 93.2049, 23.3036 ], [ 93.2008, 23.3215 ], [ 93.2106, 23.3302 ], [ 93.2101, 23.3503 ], [ 93.2143, 23.3488 ], [ 93.2214, 23.3574 ], [ 93.2146, 23.3647 ], [ 93.2182, 23.3697 ], [ 93.2163, 23.3734 ], [ 93.2195, 23.3776 ], [ 93.2266, 23.3777 ], [ 93.2262, 23.3853 ], [ 93.23, 23.3838 ], [ 93.2338, 23.3888 ], [ 93.2461, 23.3852 ], [ 93.2478, 23.3898 ], [ 93.2639, 23.3889 ], [ 93.2717, 23.3982 ], [ 93.2669, 23.4061 ], [ 93.2711, 23.4066 ], [ 93.2749, 23.4205 ], [ 93.2607, 23.4422 ], [ 93.2626, 23.4589 ], [ 93.2582, 23.4678 ], [ 93.2411, 23.4792 ], [ 93.2221, 23.4858 ], [ 93.1998, 23.5104 ], [ 93.2045, 23.5512 ], [ 93.2118, 23.5595 ], [ 93.2217, 23.558 ], [ 93.2253, 23.5611 ], [ 93.2289, 23.5858 ], [ 93.2138, 23.5923 ], [ 93.2092, 23.6048 ], [ 93.1949, 23.6155 ], [ 93.2025, 23.6275 ], [ 93.2063, 23.6435 ], [ 93.1924, 23.683 ], [ 93.1718, 23.664 ], [ 93.1639, 23.6644 ], [ 93.1578, 23.6582 ], [ 93.1476, 23.6584 ], [ 93.1323, 23.6444 ], [ 93.1209, 23.6405 ], [ 93.1155, 23.6575 ], [ 93.1194, 23.6702 ], [ 93.1172, 23.6815 ], [ 93.1271, 23.6869 ], [ 93.1261, 23.6997 ], [ 93.1381, 23.6963 ], [ 93.1484, 23.6992 ], [ 93.158, 23.7121 ], [ 93.1613, 23.7353 ], [ 93.1658, 23.742 ], [ 93.1617, 23.7542 ], [ 93.1514, 23.7616 ], [ 93.1612, 23.7708 ], [ 93.1583, 23.7878 ], [ 93.1673, 23.798 ], [ 93.1756, 23.7995 ], [ 93.1812, 23.7927 ], [ 93.1798, 23.7888 ], [ 93.1882, 23.7924 ], [ 93.2038, 23.7891 ], [ 93.2098, 23.7944 ], [ 93.2107, 23.8045 ], [ 93.2268, 23.8102 ], [ 93.2356, 23.821 ], [ 93.2401, 23.8345 ], [ 93.2667, 23.8277 ], [ 93.2744, 23.8172 ], [ 93.2817, 23.8143 ], [ 93.2922, 23.8226 ], [ 93.2911, 23.8362 ], [ 93.2948, 23.8416 ], [ 93.309, 23.8435 ], [ 93.3235, 23.8323 ], [ 93.3304, 23.8369 ], [ 93.3559, 23.8396 ], [ 93.3583, 23.8433 ], [ 93.3525, 23.8467 ], [ 93.3612, 23.8508 ], [ 93.3526, 23.853 ], [ 93.3583, 23.8531 ], [ 93.3562, 23.8571 ], [ 93.3673, 23.8643 ], [ 93.3635, 23.8672 ], [ 93.3655, 23.8734 ], [ 93.3574, 23.8795 ], [ 93.3601, 23.8846 ], [ 93.3544, 23.8858 ], [ 93.3622, 23.8961 ], [ 93.3602, 23.9186 ], [ 93.3637, 23.9196 ], [ 93.3646, 23.9272 ], [ 93.3599, 23.9321 ], [ 93.3817, 23.9326 ], [ 93.3929, 23.9291 ] ] ] } },
{ "type": "Feature", "properties": { "unit_id": "IND.23.2.1_1", "name": "Khawzawl", "district": "Champhai", "did": "mizoram:Champhai", "state_key": "mizoram" }, "geometry": { "type": "Polygon", "coordinates": [ [ [ 93.1543, 23.1992 ], [ 93.1461, 23.2022 ], [ 93.1365, 23.2168 ], [ 93.1133, 23.2314 ], [ 93.1054, 23.2404 ], [ 93.0994, 23.2405 ], [ 93.092, 23.231 ], [ 93.0827, 23.2261 ], [ 93.0691, 23.2298 ], [ 93.0543, 23.2435 ], [ 93.0482, 23.2376 ], [ 93.041, 23.2397 ], [ 93.0384, 23.2369 ], [ 93.038, 23.243 ], [ 93.0342, 23.2449 ], [ 93.0432, 23.2493 ], [ 93.0323, 23.2544 ], [ 93.0277, 23.262 ], [ 93.0306, 23.266 ], [ 93.0195, 23.268 ], [ 93.0107, 23.2744 ], [ 93.0051, 23.2905 ], [ 93.0057, 23.3045 ], [ 93.0319, 23.3268 ], [ 93.0358, 23.347 ], [ 93.0486, 23.3697 ], [ 93.0325, 23.3977 ], [ 93.0533, 23.4029 ], [ 93.0665, 23.3971 ], [ 93.0741, 23.4011 ], [ 93.0823, 23.4138 ], [ 93.0857, 23.4333 ], [ 93.0983, 23.4438 ], [ 93.0978, 23.451 ], [ 93.0779, 23.4561 ], [ 93.0701, 23.4682 ], [ 93.0809, 23.4683 ], [ 93.0783, 23.48 ], [ 93.0936, 23.4875 ], [ 93.0955, 23.4944 ], [ 93.1042, 23.4999 ], [ 93.0994, 23.5026 ], [ 93.0961, 23.5184 ], [ 93.0999, 23.5246 ], [ 93.0972, 23.5433 ], [ 93.1044, 23.5658 ], [ 93.1012, 23.569 ], [ 93.1061, 23.574 ], [ 93.1064, 23.5835 ], [ 93.1258, 23.5995 ], [ 93.1509, 23.6033 ], [ 93.1535, 23.6099 ], [ 93.1539, 23.6324 ], [ 93.1493, 23.6409 ], [ 93.1373, 23.6484 ], [ 93.1387, 23.6514 ], [ 93.1476, 23.6584 ], [ 93.1578, 23.6582 ], [ 93.1639, 23.6644 ], [ 93.172, 23.6641 ], [ 93.1907, 23.6835 ], [ 93.2063, 23.6435 ], [ 93.2025, 23.6275 ], [ 93.1949, 23.6155 ], [ 93.2092, 23.6048 ], [ 93.2138, 23.5923 ], [ 93.2289, 23.5858 ], [ 93.2253, 23.5611 ], [ 93.2217, 23.558 ], [ 93.2118, 23.5595 ], [ 93.2045, 23.5512 ], [ 93.1998, 23.5104 ], [ 93.2221, 23.4858 ], [ 93.2411, 23.4792 ], [ 93.2582, 23.4678 ], [ 93.2626, 23.4589 ], [ 93.2607, 23.4422 ], [ 93.2751, 23.4187 ], [ 93.2695, 23.4098 ], [ 93.2711, 23.4066 ], [ 93.2669, 23.4061 ], [ 93.2717, 23.3982 ], [ 93.2639, 23.3889 ], [ 93.2478, 23.3898 ], [ 93.2461, 23.3852 ], [ 93.2338, 23.3888 ], [ 93.23, 23.3838 ], [ 93.2262, 23.3853 ], [ 93.2266, 23.3777 ], [ 93.2195, 23.3776 ], [ 93.2163, 23.3734 ], [ 93.2182, 23.3697 ], [ 93.2146, 23.3647 ], [ 93.2214, 23.3574 ], [ 93.2143, 23.3488 ], [ 93.2101, 23.3503 ], [ 93.2106, 23.3302 ], [ 93.2008, 23.3215 ], [ 93.2049, 23.3036 ], [ 93.1927, 23.2874 ], [ 93.1932, 23.2815 ], [ 93.1976, 23.28 ], [ 93.1778, 23.2698 ], [ 93.1835, 23.2573 ], [ 93.1593, 23.2185 ], [ 93.1671, 23.2099 ], [ 93.1627, 23.2096 ], [ 93.1593, 23.2011 ], [ 93.1543, 23.1992 ] ] ] } },
{ "type": "Feature", "properties": { "unit_id": "IND.23.7.1_1", "name": "Saiha", "district": "Saiha", "did": "mizoram:Saiha", "state_key": "mizoram" }, "geometry": { "type": "Polygon", "coordinates": [ [ [ 92.9794, 22.6171 ], [ 92.9793, 22.6082 ], [ 92.9958, 22.5983 ], [ 92.9903, 22.5901 ], [ 92.9952, 22.584 ], [ 92.993, 22.5738 ], [ 93.0083, 22.565 ], [ 93.0214, 22.5623 ], [ 93.0276, 22.5547 ], [ 93.0216, 22.5398 ], [ 93.0242, 22.5232 ], [ 93.0209, 22.5161 ], [ 93.0487, 22.5199 ], [ 93.073, 22.5154 ], [ 93.077, 22.5353 ], [ 93.0738, 22.5385 ], [ 93.0811, 22.5543 ], [ 93.0891, 22.5464 ], [ 93.106, 22.5394 ], [ 93.1095, 22.5408 ], [ 93.1125, 22.5328 ], [ 93.1067, 22.5278 ], [ 93.108, 22.5251 ], [ 93.1282, 22.5237 ], [ 93.1238, 22.5084 ], [ 93.1346, 22.4918 ], [ 93.1309, 22.4682 ], [ 93.1386, 22.4547 ], [ 93.1296, 22.4127 ], [ 93.1045, 22.4157 ], [ 93.0934, 22.4279 ], [ 93.0887, 22.4215 ], [ 93.0797, 22.4203 ], [ 93.0759, 22.4305 ], [ 93.06, 22.4282 ], [ 93.0547, 22.4323 ], [ 93.0404, 22.433 ], [ 93.0268, 22.4393 ], [ 93.013, 22.4362 ], [ 93.0043, 22.445 ], [ 92.974, 22.4526 ], [ 92.9685, 22.4678 ], [ 92.9591, 22.4731 ], [ 92.9608, 22.4763 ], [ 92.9567, 22.4746 ], [ 92.9487, 22.4785 ], [ 92.9462, 22.4844 ], [ 92.9313, 22.4806 ], [ 92.9389, 22.5361 ], [ 92.9312, 22.5486 ], [ 92.9315, 22.5579 ], [ 92.945, 22.5749 ], [ 92.946, 22.5921 ], [ 92.9509, 22.6023 ], [ 92.9503, 22.6271 ], [ 92.9586, 22.6269 ], [ 92.9622, 22.6336 ], [ 92.9758, 22.6297 ], [ 92.9875, 22.6344 ], [ 92.9885, 22.6304 ], [ 92.9794, 22.6171 ] ] ] } },
{ "type": "Feature", "properties": { "unit_id": "IND.23.7.1_1", "name": "Tupang", "district": "Saiha", "did": "mizoram:Saiha", "state_key": "mizoram" }, "geometry": { "type": "Polygon", "coordinates": [ [ [ 92.9493, 22.4781 ], [ 92.9567, 22.4746 ], [ 92.9609, 22.4762 ], [ 92.9588, 22.4734 ], [ 92.9685, 22.4678 ], [ 92.9765, 22.451 ], [ 93.0043, 22.445 ], [ 93.0135, 22.436 ], [ 93.0268, 22.4393 ], [ 93.0404, 22.433 ], [ 93.0547, 22.4323 ], [ 93.06, 22.4282 ], [ 93.0759, 22.4305 ], [ 93.0797, 22.4203 ], [ 93.0887, 22.4215 ], [ 93.0891, 22.426 ], [ 93.0955, 22.4275 ], [ 93.1045, 22.4157 ], [ 93.1182, 22.4122 ], [ 93.1311, 22.4149 ], [ 93.1386, 22.4547 ], [ 93.1587, 22.4534 ], [ 93.1683, 22.4433 ], [ 93.1769, 22.4403 ], [ 93.1781, 22.4328 ], [ 93.1853, 22.4282 ], [ 93.1815, 22.4189 ], [ 93.1875, 22.4034 ], [ 93.1816, 22.3953 ], [ 93.1898, 22.3827 ], [ 93.1835, 22.3744 ], [ 93.188, 22.3655 ], [ 93.1858, 22.3399 ], [ 93.1967, 22.3288 ], [ 93.189, 22.3227 ], [ 93.1957, 22.3143 ], [ 93.1905, 22.3095 ], [ 93.1954, 22.3017 ], [ 93.1896, 22.3008 ], [ 93.1992, 22.2942 ], [ 93.1936, 22.2881 ], [ 93.202, 22.264 ], [ 93.199, 22.2557 ], [ 93.1776, 22.2457 ], [ 93.1676, 22.2461 ], [ 93.1639, 22.25 ], [ 93.1545, 22.2472 ], [ 93.1483, 22.2495 ], [ 93.1421, 22.2455 ], [ 93.1436, 22.2379 ], [ 93.1399, 22.2347 ], [ 93.1474, 22.2293 ], [ 93.1523, 22.2166 ], [ 93.1486, 22.2117 ], [ 93.1615, 22.1971 ], [ 93.1508, 22.1763 ], [ 93.1236, 22.1735 ], [ 93.111, 22.204 ], [ 93.0887, 22.1965 ], [ 93.0633, 22.2073 ], [ 93.0568, 22.2008 ], [ 93.0464, 22.2024 ], [ 93.043, 22.1956 ], [ 93.0382, 22.195 ], [ 93.0491, 22.1689 ], [ 93.0372, 22.1444 ], [ 93.0441, 22.1432 ], [ 93.0395, 22.1385 ], [ 93.045, 22.1373 ], [ 93.0571, 22.1214 ], [ 93.0596, 22.1013 ], [ 93.0474, 22.0981 ], [ 93.0045, 22.1036 ], [ 93.0116, 22.0884 ], [ 93.0052, 22.08 ], [ 93.0066, 22.071 ], [ 93.0014, 22.0668 ], [ 93.0019, 22.0579 ], [ 92.9975, 22.0543 ], [ 92.9948, 22.0322 ], [ 93.0043, 22.017 ], [ 93.0018, 22.0068 ], [ 93.0074, 21.9823 ], [ 92.9938, 21.9778 ], [ 92.9806, 21.9801 ], [ 92.9779, 21.9975 ], [ 92.965, 22.0108 ], [ 92.961, 22.0257 ], [ 92.9522, 22.0297 ], [ 92.94, 22.0136 ], [ 92.9308, 22.0176 ], [ 92.9272, 22.0156 ], [ 92.929, 22.0085 ], [ 92.9346, 22.0107 ], [ 92.9358, 22.0057 ], [ 92.93, 21.9959 ], [ 92.9207, 21.9918 ], [ 92.9116, 21.966 ], [ 92.9115, 21.9508 ], [ 92.9039, 21.94 ], [ 92.8913, 22.0113 ], [ 92.8786, 22.0151 ], [ 92.8797, 22.0222 ], [ 92.8651, 22.0237 ], [ 92.8635, 22.0624 ], [ 92.8588, 22.067 ], [ 92.8524, 22.0663 ], [ 92.8502, 22.0626 ], [ 92.8475, 22.0689 ], [ 92.8401, 22.1205 ], [ 92.8438, 22.1365 ], [ 92.837, 22.1871 ], [ 92.8368, 22.2258 ], [ 92.8296, 22.2559 ], [ 92.8351, 22.267 ], [ 92.8306, 22.2743 ], [ 92.8325, 22.2883 ], [ 92.8369, 22.2911 ], [ 92.8226, 22.3065 ], [ 92.8264, 22.3168 ], [ 92.8206, 22.3258 ], [ 92.8268, 22.3338 ], [ 92.8377, 22.3292 ], [ 92.844, 22.33 ], [ 92.8495, 22.3191 ], [ 92.8548, 22.3222 ], [ 92.8604, 22.3201 ], [ 92.8765, 22.3554 ], [ 92.9047, 22.374 ], [ 92.9123, 22.3844 ], [ 92.928, 22.3957 ], [ 92.9377, 22.3925 ], [ 92.9316, 22.3836 ], [ 92.9399, 22.3746 ], [ 92.9573, 22.374 ], [ 92.9653, 22.3936 ], [ 92.963, 22.3978 ], [ 92.9511, 22.4021 ], [ 92.9435, 22.4198 ], [ 92.9346, 22.4579 ], [ 92.9433, 22.4626 ], [ 92.9442, 22.4668 ], [ 92.9313, 22.4806 ], [ 92.9453, 22.4841 ], [ 92.9493, 22.4781 ] ] ] } }
]
}
