{
"type": "FeatureCollection",
"crs": { "type": "name", "properties": { "name": "urn:ogc:def:crs:OGC:1.3:CRS84" } },
"xy_coordinate_resolution": 0.0001,
"features": [
{ "type": "Feature", "properties": { "unit_id": "IND.18.1.5_1", "name": "Lakshadweep", "district": "Lakshadweep", "did": "lakshadweep:Lakshadweep", "state_key": "lakshadweep" }, "geometry": { "type": "MultiPolygon", "coordinates": [ [ [ [ 73.0129, 8.3036 ], [ 73.0133, 8.3035 ], [ 73.0129, 8.3033 ], [ 73.0129, 8.3036 ] ] ], [ [ [ 73.0352, 8.2656 ], [ 73.0201, 8.27 ], [ 73.017, 8.2769 ], [ 73.0209, 8.2726 ], [ 73.0275, 8.272 ], [ 73.047, 8.2767 ], [ 73.0629, 8.2951 ], [ 73.0679, 8.3103 ], [ 73.0776, 8.3255 ], [ 73.0661, 8.304 ], [ 73.0652, 8.2862 ], [ 73.0456, 8.2659 ], [ 73.0352, 8.2656 ] ] ], [ [ [ 73.6307, 10.07 ], [ 73.6308, 10.0696 ], [ 73.6296, 10.0697 ], [ 73.6307, 10.07 ] ] ], [ [ [ 73.6317, 10.0699 ], [ 73.6322, 10.0711 ], [ 73.6321, 10.0699 ], [ 73.6317, 10.0699 ] ] ], [ [ [ 73.6331, 10.0735 ], [ 73.6339, 10.0733 ], [ 73.6331, 10.0725 ], [ 73.6331, 10.0735 ] ] ], [ [ [ 73.6304, 10.075 ], [ 73.6304, 10.0746 ], [ 73.6297, 10.0745 ], [ 73.6304, 10.075 ] ] ], [ [ [ 73.6258, 10.0732 ], [ 73.6253, 10.0739 ], [ 73.6271, 10.0736 ], [ 73.6258, 10.0732 ] ] ], [ [ [ 73.6413, 10.0581 ], [ 73.6342, 10.0724 ], [ 73.6397, 10.0722 ], [ 73.6433, 10.0774 ], [ 73.6504, 10.1031 ], [ 73.6507, 10.0994 ], [ 73.647, 10.0824 ], [ 73.6467, 10.0604 ], [ 73.6413, 10.0581 ] ] ], [ [ [ 73.6513, 10.1106 ], [ 73.6518, 10.1103 ], [ 73.6513, 10.1098 ], [ 73.6513, 10.1106 ] ] ], [ [ [ 72.2848, 10.0474 ], [ 72.2898, 10.0543 ], [ 72.288, 10.0467 ], [ 72.2832, 10.0422 ], [ 72.2848, 10.0474 ] ] ], [ [ [ 73.6634, 10.1423 ], [ 73.6592, 10.1303 ], [ 73.6616, 10.1418 ], [ 73.6569, 10.155 ], [ 73.6595, 10.1553 ], [ 73.6634, 10.1423 ] ] ], [ [ [ 72.3342, 10.1009 ], [ 72.3359, 10.1075 ], [ 72.3356, 10.1022 ], [ 72.3342, 10.1009 ] ] ], [ [ [ 72.3266, 10.131 ], [ 72.3275, 10.1399 ], [ 72.331, 10.1341 ], [ 72.3323, 10.1291 ], [ 72.3266, 10.131 ] ] ], [ [ [ 72.6489, 10.5646 ], [ 72.6355, 10.5585 ], [ 72.6167, 10.5432 ], [ 72.6399, 10.5804 ], [ 72.6501, 10.5732 ], [ 72.6489, 10.5646 ] ] ], [ [ [ 73.6709, 10.8051 ], [ 73.6629, 10.8068 ], [ 73.659, 10.8121 ], [ 73.6599, 10.8175 ], [ 73.7009, 10.8154 ], [ 73.6709, 10.8051 ] ] ], [ [ [ 72.1642, 10.8139 ], [ 72.1659, 10.8158 ], [ 72.1681, 10.8139 ], [ 72.1642, 10.8139 ] ] ], [ [ [ 72.2021, 10.8705 ], [ 72.1694, 10.8193 ], [ 72.1874, 10.8504 ], [ 72.1939, 10.8724 ], [ 72.2035, 10.8796 ], [ 72.2021, 10.8705 ] ] ], [ [ [ 72.2927, 10.9472 ], [ 72.2888, 10.9453 ], [ 72.292, 10.9381 ], [ 72.2882, 10.9368 ], [ 72.284, 10.9386 ], [ 72.2881, 10.9476 ], [ 72.2927, 10.9472 ] ] ], [ [ [ 72.3198, 10.9471 ], [ 72.3147, 10.9447 ], [ 72.3163, 10.9507 ], [ 72.3248, 10.9514 ], [ 72.3198, 10.9471 ] ] ], [ [ [ 72.3296, 10.9526 ], [ 72.3324, 10.9539 ], [ 72.3307, 10.9517 ], [ 72.3296, 10.9526 ] ] ], [ [ [ 72.3331, 10.9541 ], [ 72.3322, 10.956 ], [ 72.3337, 10.9545 ], [ 72.3331, 10.9541 ] ] ], [ [ [ 72.3334, 10.9603 ], [ 72.3347, 10.9589 ], [ 72.3336, 10.9575 ], [ 72.3334, 10.9603 ] ] ], [ [ [ 72.7158, 11.1206 ], [ 72.7178, 11.1284 ], [ 72.7285, 11.1374 ], [ 72.7329, 11.1375 ], [ 72.7305, 11.1268 ], [ 72.7195, 11.115 ], [ 72.7158, 11.1206 ] ] ], [ [ [ 72.7787, 11.2437 ], [ 72.7895, 11.2615 ], [ 72.7763, 11.2185 ], [ 72.7613, 11.1839 ], [ 72.7787, 11.2437 ] ] ], [ [ [ 72.9991, 11.4996 ], [ 73.0092, 11.4887 ], [ 73.0111, 11.4743 ], [ 73.0076, 11.4708 ], [ 72.9991, 11.4996 ] ] ], [ [ [ 72.186, 11.5998 ], [ 72.1846, 11.6028 ], [ 72.1876, 11.6023 ], [ 72.1896, 11.6001 ], [ 72.186, 11.5998 ] ] ], [ [ [ 72.7157, 11.705 ], [ 72.7166, 11.6958 ], [ 72.705, 11.6835 ], [ 72.7157, 11.705 ] ] ] ] } }
]
}
