{
"type": "FeatureCollection",
"crs": { "type": "name", "properties": { "name": "urn:ogc:def:crs:OGC:1.3:CRS84" } },
"xy_coordinate_resolution": 0.0001,
"features": [
{ "type": "Feature", "properties": { "unit_id": "IND.21.7.4_1", "name": "Tousem", "district": "Tamenglong", "did": "manipur:Tamenglong", "state_key": "manipur" }, "geometry": { "type": "MultiPolygon", "coordinates": [ [ [ [ 93.257, 24.9961 ], [ 93.2528, 24.9989 ], [ 93.2599, 25.0011 ], [ 93.2574, 25.0047 ], [ 93.2526, 25.0009 ], [ 93.2505, 25.0043 ], [ 93.2489, 24.9989 ], [ 93.2444, 24.9981 ], [ 93.2418, 25.0039 ], [ 93.2477, 25.0149 ], [ 93.2439, 25.0183 ], [ 93.2539, 25.0206 ], [ 93.2514, 25.0271 ], [ 93.2599, 25.035 ], [ 93.2596, 25.0412 ], [ 93.2661, 25.0438 ], [ 93.2623, 25.0459 ], [ 93.2642, 25.0494 ], [ 93.2801, 25.051 ], [ 93.2835, 25.045 ], [ 93.2914, 25.0486 ], [ 93.2937, 25.0463 ], [ 93.2988, 25.0519 ], [ 93.3, 25.046 ], [ 93.3008, 25.0559 ], [ 93.3056, 25.0574 ], [ 93.3028, 25.0644 ], [ 93.3149, 25.0846 ], [ 93.3219, 25.0908 ], [ 93.3324, 25.0935 ], [ 93.3367, 25.1116 ], [ 93.3414, 25.1138 ], [ 93.3412, 25.1231 ], [ 93.3453, 25.1235 ], [ 93.3417, 25.1267 ], [ 93.3453, 25.1303 ], [ 93.3424, 25.1375 ], [ 93.3475, 25.1388 ], [ 93.3459, 25.1698 ], [ 93.3567, 25.1919 ], [ 93.3656, 25.1981 ], [ 93.3689, 25.211 ], [ 93.3738, 25.2118 ], [ 93.3756, 25.2201 ], [ 93.3818, 25.2229 ], [ 93.3846, 25.2314 ], [ 93.3811, 25.2396 ], [ 93.4012, 25.2606 ], [ 93.4159, 25.2643 ], [ 93.4205, 25.2775 ], [ 93.4275, 25.2832 ], [ 93.4554, 25.2935 ], [ 93.4706, 25.3051 ], [ 93.469, 25.282 ], [ 93.4731, 25.2756 ], [ 93.5071, 25.2721 ], [ 93.5005, 25.2499 ], [ 93.5015, 25.2407 ], [ 93.5127, 25.2413 ], [ 93.5169, 25.2453 ], [ 93.5375, 25.2418 ], [ 93.551, 25.247 ], [ 93.5594, 25.243 ], [ 93.5711, 25.2239 ], [ 93.5865, 25.2163 ], [ 93.591, 25.2075 ], [ 93.5892, 25.2002 ], [ 93.6042, 25.1984 ], [ 93.5681, 25.1658 ], [ 93.5428, 25.1592 ], [ 93.524, 25.1592 ], [ 93.5097, 25.1515 ], [ 93.5045, 25.1434 ], [ 93.4932, 25.1393 ], [ 93.4732, 25.1141 ], [ 93.472, 25.0877 ], [ 93.4781, 25.0881 ], [ 93.4785, 25.0844 ], [ 93.4744, 25.0646 ], [ 93.4665, 25.058 ], [ 93.462, 25.0401 ], [ 93.4579, 25.039 ], [ 93.4589, 25.0429 ], [ 93.4535, 25.0448 ], [ 93.444, 25.0227 ], [ 93.4485, 25.0144 ], [ 93.4385, 25.0091 ], [ 93.4385, 24.9908 ], [ 93.4298, 24.9871 ], [ 93.4293, 24.9709 ], [ 93.4221, 24.9734 ], [ 93.4174, 24.9547 ], [ 93.4103, 24.9572 ], [ 93.4059, 24.9397 ], [ 93.3972, 24.9372 ], [ 93.3944, 24.9309 ], [ 93.3958, 24.9208 ], [ 93.3915, 24.9108 ], [ 93.4015, 24.8982 ], [ 93.3986, 24.8881 ], [ 93.3914, 24.8844 ], [ 93.39, 24.8793 ], [ 93.3971, 24.868 ], [ 93.4029, 24.8655 ], [ 93.3971, 24.8429 ], [ 93.404, 24.8251 ], [ 93.3969, 24.8213 ], [ 93.3954, 24.8087 ], [ 93.3897, 24.815 ], [ 93.3782, 24.8188 ], [ 93.3696, 24.8201 ], [ 93.3596, 24.8163 ], [ 93.3553, 24.7974 ], [ 93.3596, 24.7924 ], [ 93.351, 24.7761 ], [ 93.3553, 24.7635 ], [ 93.3395, 24.7585 ], [ 93.3324, 24.766 ], [ 93.3252, 24.7635 ], [ 93.3338, 24.7497 ], [ 93.318, 24.7333 ], [ 93.3194, 24.7296 ], [ 93.3366, 24.7245 ], [ 93.3338, 24.7195 ], [ 93.3108, 24.6994 ], [ 93.2951, 24.7057 ], [ 93.2937, 24.6793 ], [ 93.2822, 24.6692 ], [ 93.2736, 24.6667 ], [ 93.2564, 24.6692 ], [ 93.2293, 24.6805 ], [ 93.2249, 24.7019 ], [ 93.2164, 24.7069 ], [ 93.2035, 24.7031 ], [ 93.1419, 24.7118 ], [ 93.1547, 24.7433 ], [ 93.1691, 24.7621 ], [ 93.1762, 24.7835 ], [ 93.1862, 24.7848 ], [ 93.1891, 24.7785 ], [ 93.1963, 24.7772 ], [ 93.2206, 24.7949 ], [ 93.222, 24.8062 ], [ 93.2421, 24.8514 ], [ 93.2116, 24.8589 ], [ 93.2217, 24.8698 ], [ 93.2204, 24.8735 ], [ 93.2264, 24.8728 ], [ 93.2218, 24.8818 ], [ 93.2249, 24.8802 ], [ 93.2277, 24.885 ], [ 93.2327, 24.8844 ], [ 93.226, 24.8917 ], [ 93.2324, 24.8921 ], [ 93.2302, 24.8985 ], [ 93.2392, 24.8996 ], [ 93.2407, 24.9047 ], [ 93.2352, 24.9114 ], [ 93.2441, 24.9106 ], [ 93.2488, 24.9148 ], [ 93.246, 24.9252 ], [ 93.2385, 24.9257 ], [ 93.2451, 24.9354 ], [ 93.2371, 24.9325 ], [ 93.2368, 24.9372 ], [ 93.2513, 24.9406 ], [ 93.2454, 24.9508 ], [ 93.263, 24.9613 ], [ 93.2609, 24.9715 ], [ 93.2572, 24.9736 ], [ 93.2496, 24.9731 ], [ 93.257, 24.9961 ] ] ] ] } },
{ "type": "Feature", "properties": { "unit_id": "IND.21.7.2_1", "name": "Tamei", "district": "Tamenglong", "did": "manipur:Tamenglong", "state_key": "manipur" }, "geometry": { "type": "Polygon", "coordinates": [ [ [ 93.9056, 25.3772 ], [ 93.8992, 25.3575 ], [ 93.8889, 25.3496 ], [ 93.8864, 25.3345 ], [ 93.9177, 25.3288 ], [ 93.9278, 25.3143 ], [ 93.9335, 25.3123 ], [ 93.9441, 25.2926 ], [ 93.9553, 25.2901 ], [ 93.9277, 25.273 ], [ 93.9022, 25.2717 ], [ 93.8655, 25.244 ], [ 93.8522, 25.2288 ], [ 93.8272, 25.2214 ], [ 93.8156, 25.207 ], [ 93.8151, 25.1998 ], [ 93.8025, 25.1851 ], [ 93.7985, 25.1853 ], [ 93.795, 25.17 ], [ 93.7757, 25.1535 ], [ 93.7807, 25.1259 ], [ 93.795, 25.1065 ], [ 93.8009, 25.061 ], [ 93.817, 25.0287 ], [ 93.8165, 25.0173 ], [ 93.8013, 25.0185 ], [ 93.7924, 25.0127 ], [ 93.7919, 24.9986 ], [ 93.7974, 24.9922 ], [ 93.7929, 24.9884 ], [ 93.7981, 24.9846 ], [ 93.7987, 24.9782 ], [ 93.7977, 24.9705 ], [ 93.7911, 24.9629 ], [ 93.7702, 24.9578 ], [ 93.7447, 24.9414 ], [ 93.7228, 24.9339 ], [ 93.7082, 24.9189 ], [ 93.6983, 24.9277 ], [ 93.6818, 24.9643 ], [ 93.7252, 25.0012 ], [ 93.7318, 25.0133 ], [ 93.7307, 25.0252 ], [ 93.7206, 25.0365 ], [ 93.6698, 25.0642 ], [ 93.6589, 25.0747 ], [ 93.6485, 25.0732 ], [ 93.6485, 25.0652 ], [ 93.6396, 25.051 ], [ 93.5588, 25.0993 ], [ 93.55, 25.0975 ], [ 93.5196, 25.1104 ], [ 93.4935, 25.1027 ], [ 93.472, 25.1112 ], [ 93.4732, 25.1141 ], [ 93.4932, 25.1393 ], [ 93.5045, 25.1434 ], [ 93.5097, 25.1515 ], [ 93.524, 25.1592 ], [ 93.5428, 25.1592 ], [ 93.5681, 25.1658 ], [ 93.6087, 25.2025 ], [ 93.6397, 25.2621 ], [ 93.6461, 25.2654 ], [ 93.6478, 25.2753 ], [ 93.6618, 25.2946 ], [ 93.6623, 25.3045 ], [ 93.6691, 25.3077 ], [ 93.6683, 25.3249 ], [ 93.6833, 25.3274 ], [ 93.689, 25.3578 ], [ 93.7078, 25.3542 ], [ 93.7142, 25.3577 ], [ 93.7193, 25.3717 ], [ 93.736, 25.3805 ], [ 93.7363, 25.3913 ], [ 93.7429, 25.4018 ], [ 93.7606, 25.4142 ], [ 93.7773, 25.4208 ], [ 93.7767, 25.4255 ], [ 93.8014, 25.4594 ], [ 93.8191, 25.461 ], [ 93.8301, 25.4274 ], [ 93.8894, 25.4221 ], [ 93.9135, 25.4046 ], [ 93.9206, 25.3903 ], [ 93.9056, 25.3772 ] ] ] } },
{ "type": "Feature", "properties": { "unit_id": "IND.21.7.3_1", "name": "Tamenglong", "district": "Tamenglong", "did": "manipur:Tamenglong", "state_key": "manipur" }, "geometry": { "type": "Polygon", "coordinates": [ [ [ 93.4935, 25.1027 ], [ 93.5196, 25.1104 ], [ 93.55, 25.0975 ], [ 93.5588, 25.0993 ], [ 93.6396, 25.051 ], [ 93.6485, 25.0652 ], [ 93.6485, 25.0732 ], [ 93.6589, 25.0747 ], [ 93.6698, 25.0642 ], [ 93.7206, 25.0365 ], [ 93.7307, 25.0252 ], [ 93.7318, 25.0133 ], [ 93.7252, 25.0012 ], [ 93.6818, 24.9643 ], [ 93.6983, 24.9277 ], [ 93.7082, 24.9189 ], [ 93.7025, 24.9114 ], [ 93.7071, 24.8925 ], [ 93.7275, 24.8723 ], [ 93.7275, 24.8635 ], [ 93.7333, 24.8547 ], [ 93.7248, 24.8485 ], [ 93.7176, 24.8347 ], [ 93.7205, 24.8259 ], [ 93.7134, 24.8209 ], [ 93.7019, 24.8209 ], [ 93.699, 24.8147 ], [ 93.6919, 24.8147 ], [ 93.6762, 24.7996 ], [ 93.6619, 24.7933 ], [ 93.6289, 24.7934 ], [ 93.619, 24.8035 ], [ 93.6075, 24.8274 ], [ 93.5732, 24.8324 ], [ 93.5674, 24.8224 ], [ 93.5717, 24.8211 ], [ 93.5674, 24.8186 ], [ 93.5703, 24.8149 ], [ 93.5631, 24.8161 ], [ 93.5516, 24.8073 ], [ 93.5359, 24.8111 ], [ 93.5029, 24.8237 ], [ 93.4986, 24.8376 ], [ 93.503, 24.8426 ], [ 93.4987, 24.8451 ], [ 93.4772, 24.8401 ], [ 93.4542, 24.8464 ], [ 93.4442, 24.8452 ], [ 93.4356, 24.8376 ], [ 93.404, 24.8251 ], [ 93.3971, 24.8429 ], [ 93.4029, 24.8655 ], [ 93.3971, 24.868 ], [ 93.39, 24.8793 ], [ 93.3914, 24.8844 ], [ 93.3986, 24.8881 ], [ 93.4015, 24.8982 ], [ 93.3915, 24.9108 ], [ 93.3958, 24.9208 ], [ 93.3944, 24.9309 ], [ 93.3972, 24.9372 ], [ 93.4059, 24.9397 ], [ 93.4103, 24.9572 ], [ 93.4174, 24.9547 ], [ 93.4221, 24.9734 ], [ 93.4293, 24.9709 ], [ 93.4298, 24.9871 ], [ 93.4385, 24.9908 ], [ 93.4385, 25.0091 ], [ 93.4485, 25.0144 ], [ 93.444, 25.0227 ], [ 93.4535, 25.0448 ], [ 93.4589, 25.0429 ], [ 93.4579, 25.039 ], [ 93.462, 25.0401 ], [ 93.4665, 25.058 ], [ 93.4744, 25.0646 ], [ 93.4785, 25.0844 ], [ 93.4781, 25.0881 ], [ 93.472, 25.0877 ], [ 93.472, 25.1112 ], [ 93.4935, 25.1027 ] ] ] } },
{ "type": "Feature", "properties": { "unit_id": "IND.21.7.1_1", "name": "Nungba", "district": "Nonei", "did": "manipur:Nonei", "state_key": "manipur" }, "geometry": { "type": "Polygon", "coordinates": [ [ [ 93.4442, 24.8452 ], [ 93.4542, 24.8464 ], [ 93.4772, 24.8401 ], [ 93.4987, 24.8451 ], [ 93.503, 24.8426 ], [ 93.4986, 24.8376 ], [ 93.5029, 24.8237 ], [ 93.5359, 24.8111 ], [ 93.5516, 24.8073 ], [ 93.5631, 24.8161 ], [ 93.5703, 24.8149 ], [ 93.5674, 24.8186 ], [ 93.5717, 24.8211 ], [ 93.5674, 24.8224 ], [ 93.5732, 24.8324 ], [ 93.6075, 24.8274 ], [ 93.619, 24.8035 ], [ 93.6289, 24.7934 ], [ 93.6619, 24.7933 ], [ 93.6839, 24.7076 ], [ 93.6971, 24.6122 ], [ 93.677, 24.6047 ], [ 93.6584, 24.6073 ], [ 93.6513, 24.6023 ], [ 93.647, 24.591 ], [ 93.6313, 24.6048 ], [ 93.6227, 24.6036 ], [ 93.6083, 24.576 ], [ 93.5925, 24.566 ], [ 93.5683, 24.5911 ], [ 93.5554, 24.5811 ], [ 93.5396, 24.5786 ], [ 93.5339, 24.5686 ], [ 93.5339, 24.5573 ], [ 93.5296, 24.556 ], [ 93.5096, 24.5648 ], [ 93.4895, 24.551 ], [ 93.481, 24.5661 ], [ 93.4681, 24.5699 ], [ 93.4624, 24.5674 ], [ 93.4452, 24.5385 ], [ 93.4266, 24.5548 ], [ 93.4095, 24.5599 ], [ 93.3923, 24.575 ], [ 93.3866, 24.5649 ], [ 93.3451, 24.575 ], [ 93.338, 24.5725 ], [ 93.3337, 24.5662 ], [ 93.3051, 24.5624 ], [ 93.2851, 24.5662 ], [ 93.2779, 24.5636 ], [ 93.2822, 24.5599 ], [ 93.2736, 24.5473 ], [ 93.2679, 24.5448 ], [ 93.2708, 24.541 ], [ 93.2579, 24.5234 ], [ 93.2665, 24.5209 ], [ 93.2636, 24.5096 ], [ 93.2508, 24.5083 ], [ 93.2436, 24.5133 ], [ 93.2322, 24.5108 ], [ 93.2193, 24.4945 ], [ 93.2107, 24.4982 ], [ 93.2036, 24.5133 ], [ 93.195, 24.5146 ], [ 93.1907, 24.5208 ], [ 93.1821, 24.5221 ], [ 93.1807, 24.5133 ], [ 93.1707, 24.5158 ], [ 93.1693, 24.5284 ], [ 93.195, 24.5598 ], [ 93.1907, 24.5673 ], [ 93.1935, 24.5711 ], [ 93.2021, 24.5661 ], [ 93.2079, 24.5674 ], [ 93.2021, 24.5724 ], [ 93.205, 24.5749 ], [ 93.2007, 24.5774 ], [ 93.1992, 24.5887 ], [ 93.2121, 24.585 ], [ 93.2164, 24.6 ], [ 93.215, 24.6164 ], [ 93.2078, 24.6227 ], [ 93.2092, 24.6264 ], [ 93.2178, 24.6264 ], [ 93.2207, 24.6378 ], [ 93.2121, 24.6453 ], [ 93.2078, 24.6629 ], [ 93.2178, 24.6641 ], [ 93.2178, 24.6717 ], [ 93.2035, 24.6679 ], [ 93.2063, 24.6855 ], [ 93.2149, 24.6981 ], [ 93.2049, 24.6993 ], [ 93.2035, 24.7031 ], [ 93.2106, 24.7069 ], [ 93.2221, 24.7044 ], [ 93.2264, 24.6855 ], [ 93.2335, 24.678 ], [ 93.2564, 24.6692 ], [ 93.2736, 24.6667 ], [ 93.2822, 24.6692 ], [ 93.2965, 24.6856 ], [ 93.2951, 24.7057 ], [ 93.3108, 24.6994 ], [ 93.3366, 24.7245 ], [ 93.3194, 24.7296 ], [ 93.318, 24.7333 ], [ 93.3338, 24.7497 ], [ 93.3252, 24.7635 ], [ 93.3324, 24.766 ], [ 93.3395, 24.7585 ], [ 93.3553, 24.7635 ], [ 93.351, 24.7761 ], [ 93.3596, 24.7924 ], [ 93.3553, 24.7974 ], [ 93.3596, 24.8163 ], [ 93.3696, 24.8201 ], [ 93.3782, 24.8188 ], [ 93.3897, 24.815 ], [ 93.3954, 24.8087 ], [ 93.3969, 24.8213 ], [ 93.4356, 24.8376 ], [ 93.4442, 24.8452 ] ] ] } },
{ "type": "Feature", "properties": { "unit_id": "IND.21.3.4_1", "name": "Thanlon", "district": "Pherzawl", "did": "manipur:Pherzawl", "state_key": "manipur" }, "geometry": { "type": "Polygon", "coordinates": [ [ [ 93.3895, 24.5586 ], [ 93.3808, 24.5285 ], [ 93.3923, 24.5197 ], [ 93.4023, 24.5209 ], [ 93.4066, 24.5171 ], [ 93.3994, 24.5058 ], [ 93.3851, 24.497 ], [ 93.3822, 24.4895 ], [ 93.3851, 24.4857 ], [ 93.3808, 24.4832 ], [ 93.3837, 24.4794 ], [ 93.3794, 24.4769 ], [ 93.3822, 24.4694 ], [ 93.3679, 24.4518 ], [ 93.3679, 24.4455 ], [ 93.3765, 24.4443 ], [ 93.375, 24.4154 ], [ 93.365, 24.4066 ], [ 93.3707, 24.4015 ], [ 93.3707, 24.3953 ], [ 93.3765, 24.3965 ], [ 93.3793, 24.3915 ], [ 93.3922, 24.4003 ], [ 93.3993, 24.3952 ], [ 93.4093, 24.3952 ], [ 93.4136, 24.3902 ], [ 93.4378, 24.3839 ], [ 93.4735, 24.3826 ], [ 93.4864, 24.3663 ], [ 93.4964, 24.3625 ], [ 93.4963, 24.3524 ], [ 93.4892, 24.3449 ], [ 93.4906, 24.3349 ], [ 93.4863, 24.3311 ], [ 93.4877, 24.3248 ], [ 93.482, 24.311 ], [ 93.4777, 24.3097 ], [ 93.4791, 24.3009 ], [ 93.472, 24.2921 ], [ 93.4748, 24.2896 ], [ 93.4705, 24.2771 ], [ 93.4648, 24.2683 ], [ 93.4591, 24.2683 ], [ 93.4619, 24.262 ], [ 93.4434, 24.2457 ], [ 93.4362, 24.2231 ], [ 93.419, 24.1979 ], [ 93.4162, 24.2055 ], [ 93.4047, 24.1992 ], [ 93.3918, 24.1665 ], [ 93.3916, 24.1326 ], [ 93.3718, 24.1125 ], [ 93.3648, 24.092 ], [ 93.3581, 24.091 ], [ 93.3545, 24.0989 ], [ 93.3486, 24.0986 ], [ 93.3488, 24.1047 ], [ 93.3423, 24.1023 ], [ 93.3429, 24.0972 ], [ 93.3541, 24.0911 ], [ 93.3472, 24.0876 ], [ 93.3445, 24.0917 ], [ 93.3373, 24.0908 ], [ 93.3309, 24.0854 ], [ 93.3283, 24.0774 ], [ 93.3309, 24.073 ], [ 93.3344, 24.0743 ], [ 93.3385, 24.0616 ], [ 93.3321, 24.0531 ], [ 93.3258, 24.0504 ], [ 93.2835, 24.0484 ], [ 93.2693, 24.0308 ], [ 93.2506, 24.0207 ], [ 93.2521, 24.0257 ], [ 93.2478, 24.0308 ], [ 93.2577, 24.0546 ], [ 93.262, 24.0572 ], [ 93.2591, 24.0697 ], [ 93.2434, 24.0823 ], [ 93.2221, 24.0835 ], [ 93.2193, 24.081 ], [ 93.2207, 24.0709 ], [ 93.2122, 24.0471 ], [ 93.1937, 24.0496 ], [ 93.1895, 24.0533 ], [ 93.1653, 24.0521 ], [ 93.1625, 24.0583 ], [ 93.1654, 24.0722 ], [ 93.1569, 24.0747 ], [ 93.154, 24.081 ], [ 93.1838, 24.1363 ], [ 93.1867, 24.1602 ], [ 93.2009, 24.1828 ], [ 93.208, 24.2029 ], [ 93.2081, 24.213 ], [ 93.2024, 24.2243 ], [ 93.2095, 24.2293 ], [ 93.2109, 24.2406 ], [ 93.2238, 24.2683 ], [ 93.238, 24.2746 ], [ 93.2352, 24.2959 ], [ 93.238, 24.301 ], [ 93.248, 24.3035 ], [ 93.2395, 24.311 ], [ 93.2352, 24.3286 ], [ 93.2309, 24.3286 ], [ 93.2309, 24.3336 ], [ 93.2266, 24.3349 ], [ 93.2209, 24.3663 ], [ 93.2252, 24.3889 ], [ 93.191, 24.414 ], [ 93.1895, 24.4241 ], [ 93.2138, 24.4694 ], [ 93.2193, 24.4945 ], [ 93.2322, 24.5108 ], [ 93.2436, 24.5133 ], [ 93.2508, 24.5083 ], [ 93.2636, 24.5096 ], [ 93.2665, 24.5209 ], [ 93.2579, 24.5234 ], [ 93.2708, 24.541 ], [ 93.2679, 24.5448 ], [ 93.2736, 24.5473 ], [ 93.2822, 24.5599 ], [ 93.2779, 24.5636 ], [ 93.2851, 24.5662 ], [ 93.3051, 24.5624 ], [ 93.3337, 24.5662 ], [ 93.338, 24.5725 ], [ 93.3451, 24.575 ], [ 93.3866, 24.5649 ], [ 93.3895, 24.5586 ] ] ] } },
{ "type": "Feature", "properties": { "unit_id": "IND.21.3.2_1", "name": "Henglep", "district": "Churachandpur", "did": "manipur:Churachandpur", "state_key": "manipur" }, "geometry": { "type": "Polygon", "coordinates": [ [ [ 93.7085, 24.5934 ], [ 93.7055, 24.5745 ], [ 93.6955, 24.5632 ], [ 93.694, 24.5544 ], [ 93.6826, 24.5494 ], [ 93.6825, 24.5268 ], [ 93.6709, 24.4816 ], [ 93.6609, 24.4665 ], [ 93.6565, 24.4439 ], [ 93.6392, 24.4037 ], [ 93.6306, 24.3887 ], [ 93.6192, 24.3837 ], [ 93.6063, 24.3711 ], [ 93.5891, 24.346 ], [ 93.5805, 24.3134 ], [ 93.5833, 24.3033 ], [ 93.5732, 24.2757 ], [ 93.5689, 24.2744 ], [ 93.566, 24.2468 ], [ 93.4933, 24.2519 ], [ 93.4776, 24.2582 ], [ 93.4733, 24.2557 ], [ 93.4619, 24.262 ], [ 93.4591, 24.2683 ], [ 93.4648, 24.2683 ], [ 93.4705, 24.2771 ], [ 93.4748, 24.2896 ], [ 93.472, 24.2921 ], [ 93.4777, 24.2959 ], [ 93.4777, 24.3097 ], [ 93.482, 24.311 ], [ 93.4877, 24.3248 ], [ 93.4863, 24.3311 ], [ 93.4906, 24.3349 ], [ 93.4877, 24.3386 ], [ 93.4963, 24.3524 ], [ 93.4964, 24.3625 ], [ 93.4864, 24.3663 ], [ 93.4735, 24.3826 ], [ 93.4378, 24.3839 ], [ 93.4136, 24.3902 ], [ 93.4093, 24.3952 ], [ 93.3993, 24.3952 ], [ 93.3922, 24.4003 ], [ 93.3793, 24.3915 ], [ 93.3765, 24.3965 ], [ 93.3707, 24.3953 ], [ 93.3707, 24.4015 ], [ 93.365, 24.4066 ], [ 93.375, 24.4154 ], [ 93.3765, 24.4355 ], [ 93.3765, 24.4443 ], [ 93.3679, 24.4455 ], [ 93.3679, 24.4518 ], [ 93.3822, 24.4694 ], [ 93.3794, 24.4769 ], [ 93.3837, 24.4794 ], [ 93.3808, 24.4832 ], [ 93.3851, 24.4857 ], [ 93.3822, 24.4895 ], [ 93.3851, 24.497 ], [ 93.3994, 24.5058 ], [ 93.4066, 24.5171 ], [ 93.4023, 24.5209 ], [ 93.3923, 24.5197 ], [ 93.3808, 24.5285 ], [ 93.3895, 24.5586 ], [ 93.3866, 24.5649 ], [ 93.3923, 24.575 ], [ 93.4095, 24.5599 ], [ 93.4266, 24.5548 ], [ 93.4452, 24.5385 ], [ 93.4624, 24.5674 ], [ 93.4681, 24.5699 ], [ 93.481, 24.5661 ], [ 93.4895, 24.551 ], [ 93.5096, 24.5648 ], [ 93.5296, 24.556 ], [ 93.5339, 24.5573 ], [ 93.5339, 24.5686 ], [ 93.5396, 24.5786 ], [ 93.5554, 24.5811 ], [ 93.5683, 24.5911 ], [ 93.5925, 24.566 ], [ 93.6083, 24.576 ], [ 93.6227, 24.6036 ], [ 93.6313, 24.6048 ], [ 93.647, 24.591 ], [ 93.6513, 24.6023 ], [ 93.6584, 24.6073 ], [ 93.677, 24.6047 ], [ 93.6971, 24.6122 ], [ 93.7085, 24.5934 ] ] ] } },
{ "type": "Feature", "properties": { "unit_id": "IND.21.3.1_1", "name": "Churachandpur", "district": "Churachandpur", "did": "manipur:Churachandpur", "state_key": "manipur" }, "geometry": { "type": "Polygon", "coordinates": [ [ [ 93.7199, 24.5833 ], [ 93.7297, 24.5481 ], [ 93.7293, 24.4995 ], [ 93.7164, 24.4844 ], [ 93.7163, 24.4719 ], [ 93.7048, 24.4443 ], [ 93.7104, 24.4229 ], [ 93.7204, 24.414 ], [ 93.7318, 24.4215 ], [ 93.7289, 24.3977 ], [ 93.7317, 24.3926 ], [ 93.7374, 24.3926 ], [ 93.7446, 24.4051 ], [ 93.7489, 24.4051 ], [ 93.7546, 24.3988 ], [ 93.7717, 24.3987 ], [ 93.8059, 24.3898 ], [ 93.7986, 24.3622 ], [ 93.8072, 24.3558 ], [ 93.8314, 24.3607 ], [ 93.8357, 24.3582 ], [ 93.84, 24.3532 ], [ 93.8484, 24.3095 ], [ 93.8643, 24.2923 ], [ 93.8642, 24.2873 ], [ 93.8771, 24.2862 ], [ 93.8611, 24.2631 ], [ 93.8609, 24.2441 ], [ 93.8651, 24.2428 ], [ 93.8579, 24.2327 ], [ 93.8764, 24.2251 ], [ 93.8764, 24.2201 ], [ 93.8649, 24.2163 ], [ 93.862, 24.205 ], [ 93.8492, 24.2126 ], [ 93.8334, 24.1838 ], [ 93.8091, 24.1675 ], [ 93.7976, 24.145 ], [ 93.7777, 24.1388 ], [ 93.7724, 24.1295 ], [ 93.7582, 24.1446 ], [ 93.7554, 24.1546 ], [ 93.7454, 24.1622 ], [ 93.7255, 24.1673 ], [ 93.7241, 24.1723 ], [ 93.717, 24.1761 ], [ 93.7041, 24.1761 ], [ 93.7013, 24.19 ], [ 93.6757, 24.1963 ], [ 93.6657, 24.2026 ], [ 93.6316, 24.2442 ], [ 93.566, 24.2468 ], [ 93.5689, 24.2744 ], [ 93.5732, 24.2757 ], [ 93.5833, 24.3033 ], [ 93.5805, 24.3134 ], [ 93.5891, 24.346 ], [ 93.6063, 24.3711 ], [ 93.6192, 24.3837 ], [ 93.6306, 24.3887 ], [ 93.6392, 24.4037 ], [ 93.6565, 24.4439 ], [ 93.6609, 24.4665 ], [ 93.6709, 24.4816 ], [ 93.6825, 24.5268 ], [ 93.6826, 24.5494 ], [ 93.694, 24.5544 ], [ 93.6955, 24.5632 ], [ 93.7055, 24.5745 ], [ 93.7085, 24.5934 ], [ 93.6971, 24.6122 ], [ 93.7142, 24.6047 ], [ 93.7213, 24.5921 ], [ 93.7199, 24.5833 ] ] ] } },
{ "type": "Feature", "properties": { "unit_id": "IND.21.3.5_1", "name": "Thinghat", "district": "Churachandpur", "did": "manipur:Churachandpur", "state_key": "manipur" }, "geometry": { "type": "Polygon", "coordinates": [ [ [ 93.4733, 24.2557 ], [ 93.4862, 24.2569 ], [ 93.4933, 24.2519 ], [ 93.5147, 24.2494 ], [ 93.6316, 24.2442 ], [ 93.6657, 24.2026 ], [ 93.6757, 24.1963 ], [ 93.7013, 24.19 ], [ 93.7041, 24.1761 ], [ 93.717, 24.1761 ], [ 93.7241, 24.1723 ], [ 93.7255, 24.1673 ], [ 93.7454, 24.1622 ], [ 93.7554, 24.1546 ], [ 93.7582, 24.1446 ], [ 93.7681, 24.137 ], [ 93.7744, 24.1258 ], [ 93.7687, 24.1208 ], [ 93.7744, 24.0981 ], [ 93.7729, 24.0918 ], [ 93.7672, 24.0881 ], [ 93.7685, 24.0805 ], [ 93.7628, 24.0768 ], [ 93.7655, 24.0705 ], [ 93.7596, 24.0642 ], [ 93.7575, 24.0503 ], [ 93.74, 24.0225 ], [ 93.735, 24.0035 ], [ 93.7413, 24.0043 ], [ 93.7385, 24.0004 ], [ 93.724, 23.9972 ], [ 93.6903, 24.0086 ], [ 93.6716, 24.0024 ], [ 93.6572, 24.0018 ], [ 93.653, 24.009 ], [ 93.6234, 24.0109 ], [ 93.6119, 23.9973 ], [ 93.6138, 23.9923 ], [ 93.6078, 23.9806 ], [ 93.6082, 23.9716 ], [ 93.599, 23.9724 ], [ 93.5917, 23.9606 ], [ 93.5852, 23.96 ], [ 93.5735, 23.9667 ], [ 93.5709, 23.9775 ], [ 93.5598, 23.9821 ], [ 93.5504, 23.9594 ], [ 93.5392, 23.9608 ], [ 93.53, 23.9545 ], [ 93.5249, 23.9564 ], [ 93.5148, 23.9425 ], [ 93.5001, 23.9444 ], [ 93.4949, 23.9535 ], [ 93.4897, 23.9511 ], [ 93.487, 23.9568 ], [ 93.4715, 23.9647 ], [ 93.4611, 23.9774 ], [ 93.4636, 23.9941 ], [ 93.4611, 23.9986 ], [ 93.4531, 23.9995 ], [ 93.4531, 24.0136 ], [ 93.4408, 24.0147 ], [ 93.4327, 24.0246 ], [ 93.4169, 24.0714 ], [ 93.4103, 24.0731 ], [ 93.399, 24.0852 ], [ 93.3901, 24.0827 ], [ 93.3648, 24.092 ], [ 93.3718, 24.1125 ], [ 93.3916, 24.1326 ], [ 93.3918, 24.1665 ], [ 93.4047, 24.1992 ], [ 93.4162, 24.2055 ], [ 93.419, 24.1979 ], [ 93.4362, 24.2231 ], [ 93.4434, 24.2457 ], [ 93.4619, 24.262 ], [ 93.4733, 24.2557 ] ] ] } },
{ "type": "Feature", "properties": { "unit_id": "IND.21.3.3_1", "name": "Parbung", "district": "Pherzawl", "did": "manipur:Pherzawl", "state_key": "manipur" }, "geometry": { "type": "Polygon", "coordinates": [ [ [ 93.126, 24.5622 ], [ 93.1529, 24.5597 ], [ 93.1878, 24.551 ], [ 93.1693, 24.5284 ], [ 93.1707, 24.5158 ], [ 93.1807, 24.5133 ], [ 93.1821, 24.5221 ], [ 93.1907, 24.5208 ], [ 93.195, 24.5146 ], [ 93.2036, 24.5133 ], [ 93.2107, 24.4982 ], [ 93.2193, 24.4945 ], [ 93.2138, 24.4694 ], [ 93.1895, 24.4241 ], [ 93.1895, 24.4178 ], [ 93.2252, 24.3889 ], [ 93.2209, 24.3663 ], [ 93.2266, 24.3349 ], [ 93.2309, 24.3336 ], [ 93.2309, 24.3286 ], [ 93.2352, 24.3286 ], [ 93.2395, 24.311 ], [ 93.248, 24.3035 ], [ 93.238, 24.301 ], [ 93.2352, 24.2959 ], [ 93.238, 24.2746 ], [ 93.2238, 24.2683 ], [ 93.2109, 24.2406 ], [ 93.2095, 24.2293 ], [ 93.2024, 24.2243 ], [ 93.2081, 24.213 ], [ 93.208, 24.2029 ], [ 93.2009, 24.1828 ], [ 93.1867, 24.1602 ], [ 93.1838, 24.1363 ], [ 93.1639, 24.096 ], [ 93.1568, 24.0898 ], [ 93.154, 24.081 ], [ 93.1435, 24.0852 ], [ 93.1378, 24.084 ], [ 93.1249, 24.0613 ], [ 93.0965, 24.0423 ], [ 93.0979, 24.0713 ], [ 93.0852, 24.0813 ], [ 93.0752, 24.1003 ], [ 93.0494, 24.088 ], [ 93.0334, 24.0926 ], [ 93.023, 24.101 ], [ 93.0172, 24.0989 ], [ 93.0099, 24.102 ], [ 92.9922, 24.1142 ], [ 92.9722, 24.1123 ], [ 92.9694, 24.1214 ], [ 92.9852, 24.1293 ], [ 92.9887, 24.1379 ], [ 92.987, 24.1478 ], [ 93.0013, 24.1581 ], [ 92.9991, 24.1715 ], [ 93.0067, 24.1796 ], [ 92.9989, 24.195 ], [ 93.0125, 24.1974 ], [ 93.0138, 24.205 ], [ 93.0181, 24.2075 ], [ 93.0153, 24.2263 ], [ 93.0225, 24.23 ], [ 93.0139, 24.2338 ], [ 93.0026, 24.2514 ], [ 93.0027, 24.2602 ], [ 93.0098, 24.2691 ], [ 93.0041, 24.2779 ], [ 93.0312, 24.3158 ], [ 93.0393, 24.3407 ], [ 93.0175, 24.3442 ], [ 93.0181, 24.3716 ], [ 93.0131, 24.3774 ], [ 93.0204, 24.3879 ], [ 92.9983, 24.3998 ], [ 93.012, 24.4167 ], [ 93.0162, 24.4087 ], [ 93.0234, 24.4067 ], [ 93.0426, 24.4149 ], [ 93.0427, 24.4205 ], [ 93.0329, 24.4288 ], [ 93.0357, 24.4598 ], [ 93.0456, 24.4633 ], [ 93.0464, 24.4736 ], [ 93.0326, 24.4953 ], [ 93.0428, 24.5048 ], [ 93.0372, 24.5094 ], [ 93.0387, 24.5129 ], [ 93.0501, 24.5194 ], [ 93.0472, 24.5286 ], [ 93.05, 24.5442 ], [ 93.057, 24.5544 ], [ 93.0646, 24.5468 ], [ 93.0708, 24.558 ], [ 93.0583, 24.5741 ], [ 93.0757, 24.575 ], [ 93.0844, 24.5711 ], [ 93.0929, 24.5813 ], [ 93.0997, 24.581 ], [ 93.126, 24.5622 ] ] ] } },
{ "type": "Feature", "properties": { "unit_id": "IND.21.4.2_1", "name": "Jiribam", "district": "Jiribam", "did": "manipur:Jiribam", "state_key": "manipur" }, "geometry": { "type": "Polygon", "coordinates": [ [ [ 93.222, 24.8062 ], [ 93.2206, 24.7949 ], [ 93.1963, 24.7772 ], [ 93.1891, 24.7785 ], [ 93.1862, 24.7848 ], [ 93.1762, 24.7835 ], [ 93.1691, 24.7621 ], [ 93.1547, 24.7433 ], [ 93.1419, 24.7118 ], [ 93.2035, 24.7031 ], [ 93.2049, 24.6993 ], [ 93.2149, 24.6981 ], [ 93.2063, 24.6855 ], [ 93.2035, 24.6679 ], [ 93.2178, 24.6717 ], [ 93.2178, 24.6641 ], [ 93.2078, 24.6629 ], [ 93.2121, 24.6453 ], [ 93.2207, 24.6378 ], [ 93.2178, 24.6264 ], [ 93.2092, 24.6264 ], [ 93.2078, 24.6227 ], [ 93.215, 24.6164 ], [ 93.2164, 24.6 ], [ 93.2121, 24.585 ], [ 93.1992, 24.5887 ], [ 93.2007, 24.5774 ], [ 93.205, 24.5749 ], [ 93.2021, 24.5724 ], [ 93.2079, 24.5674 ], [ 93.2021, 24.5661 ], [ 93.1935, 24.5711 ], [ 93.1907, 24.5673 ], [ 93.195, 24.5598 ], [ 93.1878, 24.551 ], [ 93.1529, 24.5597 ], [ 93.126, 24.5622 ], [ 93.1134, 24.5697 ], [ 93.1006, 24.5883 ], [ 93.0904, 24.5924 ], [ 93.0803, 24.5901 ], [ 93.0714, 24.5994 ], [ 93.0842, 24.6136 ], [ 93.0757, 24.6245 ], [ 93.0787, 24.6288 ], [ 93.0873, 24.6297 ], [ 93.0832, 24.6498 ], [ 93.0954, 24.6528 ], [ 93.0965, 24.6643 ], [ 93.1043, 24.6754 ], [ 93.1019, 24.6807 ], [ 93.0901, 24.6772 ], [ 93.0913, 24.688 ], [ 93.0818, 24.7022 ], [ 93.0735, 24.7078 ], [ 93.0774, 24.713 ], [ 93.0866, 24.7095 ], [ 93.0932, 24.7189 ], [ 93.0907, 24.7251 ], [ 93.0959, 24.7242 ], [ 93.0971, 24.732 ], [ 93.1078, 24.7414 ], [ 93.1027, 24.7468 ], [ 93.0999, 24.7432 ], [ 93.0983, 24.7544 ], [ 93.1036, 24.7672 ], [ 93.1005, 24.7794 ], [ 93.1052, 24.7811 ], [ 93.1048, 24.7913 ], [ 93.1084, 24.7918 ], [ 93.1114, 24.8006 ], [ 93.1103, 24.8126 ], [ 93.1214, 24.8192 ], [ 93.1189, 24.8077 ], [ 93.127, 24.8088 ], [ 93.1318, 24.8052 ], [ 93.1348, 24.8106 ], [ 93.1386, 24.81 ], [ 93.1347, 24.8081 ], [ 93.1418, 24.7973 ], [ 93.1512, 24.7947 ], [ 93.149, 24.7875 ], [ 93.1707, 24.8018 ], [ 93.1762, 24.7938 ], [ 93.1799, 24.8031 ], [ 93.1911, 24.804 ], [ 93.197, 24.8114 ], [ 93.1901, 24.8186 ], [ 93.1959, 24.8309 ], [ 93.1916, 24.8344 ], [ 93.1978, 24.8342 ], [ 93.2006, 24.838 ], [ 93.1961, 24.8367 ], [ 93.1923, 24.8428 ], [ 93.2015, 24.8421 ], [ 93.2013, 24.8485 ], [ 93.1948, 24.8538 ], [ 93.1996, 24.8551 ], [ 93.2036, 24.8509 ], [ 93.2116, 24.8589 ], [ 93.2421, 24.8514 ], [ 93.222, 24.8062 ] ] ] } },
{ "type": "Feature", "properties": { "unit_id": "IND.21.2.1_1", "name": "Chakpikarong", "district": "Chandel", "did": "manipur:Chandel", "state_key": "manipur" }, "geometry": { "type": "Polygon", "coordinates": [ [ [ 93.8894, 24.239 ], [ 93.8952, 24.2467 ], [ 93.9082, 24.2494 ], [ 93.9084, 24.2621 ], [ 93.9141, 24.2596 ], [ 93.9184, 24.2622 ], [ 93.928, 24.239 ], [ 93.925, 24.2288 ], [ 93.9278, 24.2174 ], [ 93.9335, 24.2148 ], [ 93.9363, 24.206 ], [ 93.9435, 24.2047 ], [ 93.9506, 24.1896 ], [ 93.9639, 24.1884 ], [ 93.9819, 24.2009 ], [ 93.9967, 24.194 ], [ 94.0424, 24.1998 ], [ 94.0584, 24.1955 ], [ 94.0767, 24.1829 ], [ 94.1334, 24.1669 ], [ 94.156, 24.1465 ], [ 94.1707, 24.1478 ], [ 94.1915, 24.1329 ], [ 94.2107, 24.1248 ], [ 94.2541, 24.1141 ], [ 94.2515, 24.0819 ], [ 94.2389, 24.0578 ], [ 94.2307, 24.0574 ], [ 94.234, 24.0393 ], [ 94.1985, 23.9879 ], [ 94.1873, 23.9646 ], [ 94.1869, 23.9413 ], [ 94.1654, 23.9296 ], [ 94.155, 23.8552 ], [ 94.1515, 23.8525 ], [ 94.1376, 23.8524 ], [ 94.1256, 23.8333 ], [ 94.1207, 23.8328 ], [ 94.1023, 23.8561 ], [ 94.0953, 23.8715 ], [ 94.0843, 23.8814 ], [ 94.0622, 23.8806 ], [ 94.0331, 23.8972 ], [ 94.0193, 23.912 ], [ 93.9985, 23.92 ], [ 93.9912, 23.9276 ], [ 93.9807, 23.9287 ], [ 93.9757, 23.9247 ], [ 93.9583, 23.9295 ], [ 93.9442, 23.9463 ], [ 93.8937, 23.9531 ], [ 93.8829, 23.9418 ], [ 93.872, 23.9413 ], [ 93.8594, 23.932 ], [ 93.84, 23.932 ], [ 93.8197, 23.9237 ], [ 93.8074, 23.9271 ], [ 93.7998, 23.9326 ], [ 93.7976, 23.9477 ], [ 93.7852, 23.9617 ], [ 93.7717, 23.9689 ], [ 93.7594, 24.0037 ], [ 93.7442, 24.0028 ], [ 93.7418, 23.9968 ], [ 93.7413, 24.0043 ], [ 93.735, 24.0035 ], [ 93.7433, 24.0301 ], [ 93.7527, 24.0415 ], [ 93.7596, 24.0642 ], [ 93.7655, 24.0705 ], [ 93.7628, 24.0768 ], [ 93.7685, 24.0805 ], [ 93.7672, 24.0881 ], [ 93.7729, 24.0918 ], [ 93.7744, 24.1057 ], [ 93.7687, 24.1208 ], [ 93.7744, 24.1258 ], [ 93.7724, 24.1295 ], [ 93.7777, 24.1388 ], [ 93.7976, 24.145 ], [ 93.8091, 24.1675 ], [ 93.8334, 24.1838 ], [ 93.8492, 24.2126 ], [ 93.862, 24.205 ], [ 93.8649, 24.2163 ], [ 93.8764, 24.2201 ], [ 93.8764, 24.2251 ], [ 93.8579, 24.2327 ], [ 93.8651, 24.2428 ], [ 93.8609, 24.2441 ], [ 93.8611, 24.2631 ], [ 93.8771, 24.2862 ], [ 93.8828, 24.2836 ], [ 93.8842, 24.2785 ], [ 93.8797, 24.2657 ], [ 93.8822, 24.2365 ], [ 93.8894, 24.239 ] ] ] } },
{ "type": "Feature", "properties": { "unit_id": "IND.21.9.3_1", "name": "Kasom Khullen", "district": "Kamjong", "did": "manipur:Kamjong", "state_key": "manipur" }, "geometry": { "type": "Polygon", "coordinates": [ [ [ 94.2207, 24.8146 ], [ 94.2329, 24.8087 ], [ 94.2458, 24.7918 ], [ 94.2684, 24.7828 ], [ 94.2764, 24.7886 ], [ 94.2803, 24.7874 ], [ 94.2825, 24.7797 ], [ 94.2859, 24.7795 ], [ 94.2847, 24.7653 ], [ 94.2955, 24.7599 ], [ 94.2974, 24.7525 ], [ 94.3099, 24.7448 ], [ 94.3266, 24.7218 ], [ 94.3363, 24.723 ], [ 94.3307, 24.7094 ], [ 94.3375, 24.6893 ], [ 94.3482, 24.6872 ], [ 94.3592, 24.6913 ], [ 94.3677, 24.6874 ], [ 94.3656, 24.6811 ], [ 94.3757, 24.6685 ], [ 94.3721, 24.6649 ], [ 94.3752, 24.6587 ], [ 94.3665, 24.6523 ], [ 94.3744, 24.6392 ], [ 94.3902, 24.6414 ], [ 94.4089, 24.66 ], [ 94.4182, 24.66 ], [ 94.4198, 24.6642 ], [ 94.4278, 24.6675 ], [ 94.443, 24.6599 ], [ 94.4379, 24.6523 ], [ 94.4407, 24.6472 ], [ 94.4454, 24.6485 ], [ 94.4447, 24.6453 ], [ 94.4357, 24.6321 ], [ 94.4431, 24.6336 ], [ 94.4516, 24.6253 ], [ 94.4433, 24.6111 ], [ 94.4437, 24.6033 ], [ 94.4383, 24.6001 ], [ 94.4479, 24.5953 ], [ 94.4477, 24.59 ], [ 94.438, 24.5899 ], [ 94.4668, 24.5616 ], [ 94.4572, 24.5524 ], [ 94.4387, 24.5101 ], [ 94.4207, 24.4803 ], [ 94.4061, 24.4783 ], [ 94.4009, 24.4863 ], [ 94.393, 24.4847 ], [ 94.3811, 24.4975 ], [ 94.3752, 24.4984 ], [ 94.3794, 24.5044 ], [ 94.3726, 24.5091 ], [ 94.3768, 24.5096 ], [ 94.3768, 24.5148 ], [ 94.3681, 24.5134 ], [ 94.3697, 24.5184 ], [ 94.3609, 24.5212 ], [ 94.3695, 24.5363 ], [ 94.3707, 24.5503 ], [ 94.3535, 24.549 ], [ 94.3477, 24.5533 ], [ 94.3332, 24.5492 ], [ 94.3301, 24.5524 ], [ 94.334, 24.5638 ], [ 94.3279, 24.5657 ], [ 94.3261, 24.5701 ], [ 94.3106, 24.5741 ], [ 94.2823, 24.6016 ], [ 94.2681, 24.5964 ], [ 94.2514, 24.6161 ], [ 94.2167, 24.6194 ], [ 94.2002, 24.6267 ], [ 94.1972, 24.6549 ], [ 94.1824, 24.6714 ], [ 94.1877, 24.6846 ], [ 94.1878, 24.7135 ], [ 94.1734, 24.7352 ], [ 94.179, 24.7449 ], [ 94.1773, 24.7564 ], [ 94.1808, 24.7662 ], [ 94.1658, 24.7839 ], [ 94.1596, 24.7977 ], [ 94.1393, 24.8004 ], [ 94.1343, 24.8047 ], [ 94.1758, 24.8108 ], [ 94.1889, 24.8184 ], [ 94.2207, 24.8146 ] ] ] } },
{ "type": "Feature", "properties": { "unit_id": "IND.21.4.1_1", "name": "Imphal East I", "district": "Imphal East", "did": "manipur:Imphal East", "state_key": "manipur" }, "geometry": { "type": "Polygon", "coordinates": [ [ [ 93.9558, 24.8239 ], [ 93.9585, 24.8151 ], [ 93.9736, 24.8179 ], [ 93.9816, 24.8157 ], [ 93.9844, 24.8245 ], [ 93.9968, 24.8171 ], [ 94.0404, 24.8041 ], [ 94.0829, 24.7969 ], [ 94.0749, 24.7527 ], [ 94.0668, 24.739 ], [ 94.0626, 24.741 ], [ 94.0612, 24.7315 ], [ 94.065, 24.7294 ], [ 94.0598, 24.7281 ], [ 94.0566, 24.7188 ], [ 94.066, 24.7212 ], [ 94.0582, 24.7031 ], [ 94.0595, 24.6924 ], [ 94.0641, 24.6951 ], [ 94.0667, 24.7057 ], [ 94.0749, 24.7075 ], [ 94.0839, 24.6932 ], [ 94.0825, 24.6876 ], [ 94.0584, 24.686 ], [ 94.0554, 24.68 ], [ 94.0434, 24.681 ], [ 94.0439, 24.6746 ], [ 94.0382, 24.6725 ], [ 94.0387, 24.6768 ], [ 94.0322, 24.673 ], [ 94.0294, 24.6778 ], [ 94.0302, 24.6729 ], [ 94.022, 24.6729 ], [ 94.0201, 24.6672 ], [ 94.0166, 24.6673 ], [ 94.0124, 24.6826 ], [ 94.0069, 24.6866 ], [ 94.0145, 24.7009 ], [ 94.0008, 24.7145 ], [ 94.0011, 24.7247 ], [ 93.9968, 24.728 ], [ 93.9704, 24.7237 ], [ 93.9705, 24.7125 ], [ 93.9664, 24.7114 ], [ 93.965, 24.7052 ], [ 93.9437, 24.7094 ], [ 93.9311, 24.7495 ], [ 93.94, 24.8226 ], [ 93.9558, 24.8239 ] ] ] } },
{ "type": "Feature", "properties": { "unit_id": "IND.21.8.2_1", "name": "Thoubal", "district": "Thoubal", "did": "manipur:Thoubal", "state_key": "manipur" }, "geometry": { "type": "Polygon", "coordinates": [ [ [ 93.9437, 24.7094 ], [ 93.965, 24.7052 ], [ 93.9664, 24.7114 ], [ 93.9705, 24.7125 ], [ 93.9704, 24.7237 ], [ 93.9968, 24.728 ], [ 94.0011, 24.7247 ], [ 94.0008, 24.7145 ], [ 94.0145, 24.7009 ], [ 94.0069, 24.6866 ], [ 94.0124, 24.6826 ], [ 94.0166, 24.6673 ], [ 94.0201, 24.6672 ], [ 94.022, 24.6729 ], [ 94.0302, 24.6729 ], [ 94.0294, 24.6778 ], [ 94.0322, 24.673 ], [ 94.0387, 24.6768 ], [ 94.0382, 24.6725 ], [ 94.0439, 24.6746 ], [ 94.0434, 24.681 ], [ 94.0554, 24.68 ], [ 94.0584, 24.686 ], [ 94.0825, 24.6876 ], [ 94.0839, 24.6932 ], [ 94.0912, 24.6925 ], [ 94.1086, 24.7005 ], [ 94.118, 24.7085 ], [ 94.1262, 24.7236 ], [ 94.1321, 24.7072 ], [ 94.1257, 24.7023 ], [ 94.1278, 24.6988 ], [ 94.1162, 24.7002 ], [ 94.1144, 24.6967 ], [ 94.1278, 24.6928 ], [ 94.1285, 24.6893 ], [ 94.1183, 24.6817 ], [ 94.1197, 24.6792 ], [ 94.1065, 24.6773 ], [ 94.0982, 24.6694 ], [ 94.1118, 24.6501 ], [ 94.1085, 24.6495 ], [ 94.1158, 24.632 ], [ 94.1297, 24.6215 ], [ 94.147, 24.6187 ], [ 94.1482, 24.6037 ], [ 94.1385, 24.6015 ], [ 94.1203, 24.6057 ], [ 94.117, 24.6028 ], [ 94.1161, 24.5914 ], [ 94.0943, 24.554 ], [ 94.0889, 24.5524 ], [ 94.0781, 24.5625 ], [ 94.0709, 24.5636 ], [ 94.0724, 24.5413 ], [ 94.0861, 24.5181 ], [ 94.0641, 24.5164 ], [ 94.0621, 24.5219 ], [ 94.0547, 24.5129 ], [ 94.0507, 24.5227 ], [ 94.0556, 24.5307 ], [ 94.0509, 24.5288 ], [ 94.0376, 24.5384 ], [ 94.0335, 24.5017 ], [ 93.9883, 24.5132 ], [ 93.9769, 24.518 ], [ 93.9626, 24.5351 ], [ 93.8985, 24.5576 ], [ 93.9086, 24.5699 ], [ 93.91, 24.5797 ], [ 93.9043, 24.5908 ], [ 93.9086, 24.5908 ], [ 93.9101, 24.6069 ], [ 93.9044, 24.612 ], [ 93.8972, 24.607 ], [ 93.8887, 24.6146 ], [ 93.8973, 24.6183 ], [ 93.8974, 24.6283 ], [ 93.9017, 24.6321 ], [ 93.9175, 24.637 ], [ 93.9247, 24.6522 ], [ 93.9319, 24.6458 ], [ 93.932, 24.6623 ], [ 93.9134, 24.6636 ], [ 93.9149, 24.6725 ], [ 93.902, 24.675 ], [ 93.9063, 24.6801 ], [ 93.9036, 24.7004 ], [ 93.9093, 24.6992 ], [ 93.9151, 24.7043 ], [ 93.9236, 24.7031 ], [ 93.9265, 24.7132 ], [ 93.9409, 24.7183 ], [ 93.9437, 24.7094 ] ] ] } },
{ "type": "Feature", "properties": { "unit_id": "IND.21.2.3_1", "name": "Tengnoupal", "district": "Tengnoupal", "did": "manipur:Tengnoupal", "state_key": "manipur" }, "geometry": { "type": "Polygon", "coordinates": [ [ [ 94.2514, 24.6161 ], [ 94.2681, 24.5964 ], [ 94.2823, 24.6016 ], [ 94.3106, 24.5741 ], [ 94.3261, 24.5701 ], [ 94.3279, 24.5657 ], [ 94.334, 24.5638 ], [ 94.3301, 24.5524 ], [ 94.3332, 24.5492 ], [ 94.3477, 24.5533 ], [ 94.3535, 24.549 ], [ 94.3707, 24.5503 ], [ 94.3695, 24.5363 ], [ 94.3609, 24.5212 ], [ 94.3697, 24.5184 ], [ 94.3681, 24.5134 ], [ 94.3768, 24.5148 ], [ 94.3768, 24.5096 ], [ 94.3726, 24.5091 ], [ 94.3794, 24.5044 ], [ 94.3752, 24.4984 ], [ 94.3811, 24.4975 ], [ 94.393, 24.4847 ], [ 94.4009, 24.4863 ], [ 94.4069, 24.4807 ], [ 94.4031, 24.4753 ], [ 94.4013, 24.4495 ], [ 94.4087, 24.4371 ], [ 94.3976, 24.4073 ], [ 94.3671, 24.3946 ], [ 94.3801, 24.3746 ], [ 94.3565, 24.3452 ], [ 94.354, 24.3345 ], [ 94.3352, 24.3324 ], [ 94.3272, 24.3277 ], [ 94.3239, 24.278 ], [ 94.3195, 24.2638 ], [ 94.3108, 24.2459 ], [ 94.2927, 24.236 ], [ 94.2842, 24.2124 ], [ 94.2832, 24.1793 ], [ 94.2617, 24.1671 ], [ 94.2552, 24.1406 ], [ 94.2541, 24.1141 ], [ 94.2107, 24.1248 ], [ 94.1915, 24.1329 ], [ 94.1909, 24.1383 ], [ 94.1694, 24.1574 ], [ 94.171, 24.1769 ], [ 94.1638, 24.1936 ], [ 94.1713, 24.2172 ], [ 94.177, 24.2704 ], [ 94.153, 24.294 ], [ 94.1438, 24.2976 ], [ 94.1321, 24.3129 ], [ 94.1173, 24.346 ], [ 94.1215, 24.3611 ], [ 94.1192, 24.378 ], [ 94.1107, 24.3872 ], [ 94.0923, 24.3835 ], [ 94.0822, 24.386 ], [ 94.0591, 24.4082 ], [ 94.0426, 24.4158 ], [ 94.019, 24.4444 ], [ 94.0352, 24.4554 ], [ 94.0477, 24.4703 ], [ 94.0331, 24.5025 ], [ 94.0376, 24.5384 ], [ 94.0509, 24.5288 ], [ 94.0556, 24.5307 ], [ 94.0507, 24.5227 ], [ 94.0547, 24.5129 ], [ 94.0621, 24.5219 ], [ 94.0641, 24.5164 ], [ 94.0861, 24.5181 ], [ 94.0724, 24.5413 ], [ 94.0709, 24.5636 ], [ 94.0781, 24.5625 ], [ 94.0889, 24.5524 ], [ 94.0943, 24.554 ], [ 94.1161, 24.5914 ], [ 94.1203, 24.6057 ], [ 94.1385, 24.6015 ], [ 94.1482, 24.6037 ], [ 94.147, 24.6187 ], [ 94.1607, 24.6236 ], [ 94.1739, 24.6357 ], [ 94.2125, 24.6223 ], [ 94.2514, 24.6161 ] ] ] } },
{ "type": "Feature", "properties": { "unit_id": "IND.21.2.2_1", "name": "Chandel", "district": "Chandel", "did": "manipur:Chandel", "state_key": "manipur" }, "geometry": { "type": "Polygon", "coordinates": [ [ [ 94.0426, 24.4158 ], [ 94.0591, 24.4082 ], [ 94.0822, 24.386 ], [ 94.0923, 24.3835 ], [ 94.1107, 24.3872 ], [ 94.1192, 24.378 ], [ 94.1215, 24.3611 ], [ 94.1173, 24.346 ], [ 94.1321, 24.3129 ], [ 94.1438, 24.2976 ], [ 94.153, 24.294 ], [ 94.177, 24.2704 ], [ 94.1713, 24.2172 ], [ 94.1638, 24.1936 ], [ 94.171, 24.1769 ], [ 94.1694, 24.1574 ], [ 94.1909, 24.1383 ], [ 94.1915, 24.1329 ], [ 94.1707, 24.1478 ], [ 94.156, 24.1465 ], [ 94.1334, 24.1669 ], [ 94.0767, 24.1829 ], [ 94.0584, 24.1955 ], [ 94.0424, 24.1998 ], [ 93.9967, 24.194 ], [ 93.9819, 24.2009 ], [ 93.9639, 24.1884 ], [ 93.9506, 24.1896 ], [ 93.9435, 24.2047 ], [ 93.9363, 24.206 ], [ 93.9335, 24.2148 ], [ 93.9278, 24.2174 ], [ 93.925, 24.2288 ], [ 93.928, 24.239 ], [ 93.9184, 24.2622 ], [ 93.9169, 24.2782 ], [ 93.9311, 24.2842 ], [ 93.9368, 24.2952 ], [ 93.9212, 24.3215 ], [ 93.9127, 24.3291 ], [ 93.9084, 24.3378 ], [ 93.9099, 24.3503 ], [ 93.9258, 24.3866 ], [ 93.9344, 24.3941 ], [ 93.9444, 24.3929 ], [ 93.943, 24.4005 ], [ 93.9488, 24.4081 ], [ 93.9602, 24.4057 ], [ 93.9646, 24.4096 ], [ 93.9632, 24.4188 ], [ 93.975, 24.4474 ], [ 93.968, 24.4714 ], [ 93.9695, 24.4863 ], [ 93.9766, 24.4878 ], [ 93.9809, 24.4826 ], [ 93.9824, 24.4682 ], [ 94.0001, 24.4605 ], [ 94.002, 24.4415 ], [ 94.019, 24.4444 ], [ 94.0426, 24.4158 ] ] ] } },
{ "type": "Feature", "properties": { "unit_id": "IND.21.8.1_1", "name": "Kakching", "district": "Kakching", "did": "manipur:Kakching", "state_key": "manipur" }, "geometry": { "type": "Polygon", "coordinates": [ [ [ 93.9626, 24.5351 ], [ 93.9769, 24.518 ], [ 93.9883, 24.5132 ], [ 94.0335, 24.5017 ], [ 94.0477, 24.4703 ], [ 94.0352, 24.4554 ], [ 94.019, 24.4444 ], [ 94.002, 24.4415 ], [ 94.0001, 24.4605 ], [ 93.9824, 24.4682 ], [ 93.9809, 24.4826 ], [ 93.9766, 24.4878 ], [ 93.968, 24.4851 ], [ 93.9694, 24.4634 ], [ 93.975, 24.4474 ], [ 93.9632, 24.4188 ], [ 93.9646, 24.4096 ], [ 93.9602, 24.4057 ], [ 93.9488, 24.4081 ], [ 93.943, 24.4005 ], [ 93.9444, 24.3929 ], [ 93.9344, 24.3941 ], [ 93.9258, 24.3866 ], [ 93.9099, 24.3503 ], [ 93.9084, 24.3378 ], [ 93.9297, 24.309 ], [ 93.9368, 24.2903 ], [ 93.9241, 24.2794 ], [ 93.9184, 24.2807 ], [ 93.9184, 24.2622 ], [ 93.9141, 24.2596 ], [ 93.9084, 24.2621 ], [ 93.9082, 24.2494 ], [ 93.8952, 24.2467 ], [ 93.8894, 24.239 ], [ 93.8822, 24.2365 ], [ 93.8797, 24.2657 ], [ 93.8828, 24.2836 ], [ 93.8771, 24.2862 ], [ 93.867, 24.3083 ], [ 93.8513, 24.3119 ], [ 93.8527, 24.3269 ], [ 93.8584, 24.3244 ], [ 93.8613, 24.3343 ], [ 93.8513, 24.3419 ], [ 93.86, 24.3518 ], [ 93.8571, 24.3556 ], [ 93.8485, 24.3506 ], [ 93.8514, 24.3581 ], [ 93.8514, 24.3619 ], [ 93.8472, 24.3632 ], [ 93.8487, 24.3795 ], [ 93.8459, 24.3958 ], [ 93.8388, 24.4084 ], [ 93.846, 24.4121 ], [ 93.8375, 24.4285 ], [ 93.8475, 24.4335 ], [ 93.8562, 24.4523 ], [ 93.8534, 24.4573 ], [ 93.8706, 24.4698 ], [ 93.8807, 24.4887 ], [ 93.8722, 24.4988 ], [ 93.878, 24.5065 ], [ 93.8738, 24.5077 ], [ 93.8739, 24.518 ], [ 93.8667, 24.5206 ], [ 93.8669, 24.5386 ], [ 93.8728, 24.5526 ], [ 93.8985, 24.5576 ], [ 93.9626, 24.5351 ] ] ] } },
{ "type": "Feature", "properties": { "unit_id": "IND.21.1.2_1", "name": "Moirang", "district": "Bishnupur", "did": "manipur:Bishnupur", "state_key": "manipur" }, "geometry": { "type": "Polygon", "coordinates": [ [ [ 93.754, 24.5241 ], [ 93.7855, 24.5429 ], [ 93.8055, 24.5466 ], [ 93.8526, 24.5326 ], [ 93.8669, 24.5263 ], [ 93.8681, 24.518 ], [ 93.8739, 24.518 ], [ 93.8738, 24.5077 ], [ 93.878, 24.5065 ], [ 93.8722, 24.4988 ], [ 93.8807, 24.4887 ], [ 93.8706, 24.4698 ], [ 93.8534, 24.4573 ], [ 93.8562, 24.4523 ], [ 93.8533, 24.4422 ], [ 93.8475, 24.4335 ], [ 93.8375, 24.4285 ], [ 93.8375, 24.4235 ], [ 93.846, 24.4121 ], [ 93.8388, 24.4084 ], [ 93.8459, 24.3958 ], [ 93.8487, 24.3795 ], [ 93.8472, 24.3632 ], [ 93.8514, 24.3619 ], [ 93.8514, 24.3581 ], [ 93.8485, 24.3506 ], [ 93.8571, 24.3556 ], [ 93.86, 24.3518 ], [ 93.8513, 24.3419 ], [ 93.8613, 24.3343 ], [ 93.8584, 24.3244 ], [ 93.8527, 24.3269 ], [ 93.8513, 24.3119 ], [ 93.867, 24.3083 ], [ 93.8771, 24.2862 ], [ 93.8642, 24.2873 ], [ 93.8643, 24.2923 ], [ 93.8484, 24.3095 ], [ 93.84, 24.3532 ], [ 93.8357, 24.3582 ], [ 93.8314, 24.3607 ], [ 93.8072, 24.3558 ], [ 93.7986, 24.3622 ], [ 93.8059, 24.3898 ], [ 93.7717, 24.3987 ], [ 93.7546, 24.3988 ], [ 93.7489, 24.4051 ], [ 93.7446, 24.4051 ], [ 93.7374, 24.3926 ], [ 93.7317, 24.3926 ], [ 93.7289, 24.3977 ], [ 93.7318, 24.4215 ], [ 93.7204, 24.414 ], [ 93.7104, 24.4229 ], [ 93.7048, 24.4443 ], [ 93.7163, 24.4719 ], [ 93.7164, 24.4844 ], [ 93.7293, 24.4995 ], [ 93.7297, 24.5217 ], [ 93.754, 24.5241 ] ] ] } },
{ "type": "Feature", "properties": { "unit_id": "IND.21.1.1_1", "name": "Bishnupur", "district": "Bishnupur", "did": "manipur:Bishnupur", "state_key": "manipur" }, "geometry": { "type": "Polygon", "coordinates": [ [ [ 93.7863, 24.7301 ], [ 93.802, 24.7313 ], [ 93.8206, 24.72 ], [ 93.8392, 24.7199 ], [ 93.8893, 24.7104 ], [ 93.8878, 24.6902 ], [ 93.8734, 24.6801 ], [ 93.8447, 24.6764 ], [ 93.8433, 24.6815 ], [ 93.8333, 24.6803 ], [ 93.7974, 24.6691 ], [ 93.8015, 24.6439 ], [ 93.8144, 24.6362 ], [ 93.8029, 24.6225 ], [ 93.8028, 24.6162 ], [ 93.8085, 24.6098 ], [ 93.8171, 24.6073 ], [ 93.8458, 24.6248 ], [ 93.8501, 24.6235 ], [ 93.8529, 24.6097 ], [ 93.8658, 24.6122 ], [ 93.8686, 24.5997 ], [ 93.8857, 24.586 ], [ 93.8857, 24.5774 ], [ 93.8685, 24.5712 ], [ 93.8656, 24.5638 ], [ 93.8728, 24.5526 ], [ 93.8669, 24.5386 ], [ 93.8669, 24.5263 ], [ 93.8212, 24.5428 ], [ 93.7969, 24.5466 ], [ 93.754, 24.5241 ], [ 93.7297, 24.5217 ], [ 93.7297, 24.5481 ], [ 93.7199, 24.5833 ], [ 93.7213, 24.5921 ], [ 93.7487, 24.6486 ], [ 93.7459, 24.6636 ], [ 93.7489, 24.6825 ], [ 93.7532, 24.6862 ], [ 93.7618, 24.685 ], [ 93.7661, 24.6925 ], [ 93.7691, 24.7264 ], [ 93.7734, 24.7314 ], [ 93.7706, 24.7377 ], [ 93.7863, 24.7301 ] ] ] } },
{ "type": "Feature", "properties": { "unit_id": "IND.21.5.2_1", "name": "Imphal West Ii", "district": "Imphal West", "did": "manipur:Imphal West", "state_key": "manipur" }, "geometry": { "type": "Polygon", "coordinates": [ [ [ 93.9311, 24.7495 ], [ 93.9394, 24.7158 ], [ 93.9265, 24.7132 ], [ 93.9236, 24.7031 ], [ 93.9151, 24.7043 ], [ 93.9093, 24.6992 ], [ 93.9036, 24.7004 ], [ 93.9063, 24.6801 ], [ 93.902, 24.675 ], [ 93.9149, 24.6725 ], [ 93.9134, 24.6636 ], [ 93.932, 24.6623 ], [ 93.9319, 24.6458 ], [ 93.9247, 24.6522 ], [ 93.9175, 24.637 ], [ 93.9017, 24.6321 ], [ 93.8974, 24.6283 ], [ 93.8973, 24.6183 ], [ 93.8887, 24.6146 ], [ 93.8972, 24.607 ], [ 93.9044, 24.612 ], [ 93.9101, 24.6069 ], [ 93.9086, 24.5908 ], [ 93.9043, 24.5908 ], [ 93.91, 24.5797 ], [ 93.9043, 24.5625 ], [ 93.8928, 24.555 ], [ 93.8728, 24.5526 ], [ 93.8656, 24.5638 ], [ 93.8685, 24.5712 ], [ 93.8857, 24.5774 ], [ 93.8857, 24.586 ], [ 93.8686, 24.5997 ], [ 93.8658, 24.6122 ], [ 93.8529, 24.6097 ], [ 93.8501, 24.6235 ], [ 93.8458, 24.6248 ], [ 93.8171, 24.6073 ], [ 93.8085, 24.6098 ], [ 93.8028, 24.6162 ], [ 93.8029, 24.6225 ], [ 93.8144, 24.6362 ], [ 93.8015, 24.6439 ], [ 93.7974, 24.6691 ], [ 93.8333, 24.6803 ], [ 93.8433, 24.6815 ], [ 93.8447, 24.6764 ], [ 93.8648, 24.6776 ], [ 93.8878, 24.6902 ], [ 93.8893, 24.7104 ], [ 93.8392, 24.7199 ], [ 93.8522, 24.7319 ], [ 93.8566, 24.7521 ], [ 93.8624, 24.7571 ], [ 93.8811, 24.7584 ], [ 93.9241, 24.7887 ], [ 93.937, 24.7899 ], [ 93.9311, 24.7495 ] ] ] } },
{ "type": "Feature", "properties": { "unit_id": "IND.21.6.1_1", "name": "Kangpokpi", "district": "Kangpokpi", "did": "manipur:Kangpokpi", "state_key": "manipur" }, "geometry": { "type": "Polygon", "coordinates": [ [ [ 93.9648, 25.3978 ], [ 93.97, 25.398 ], [ 93.9737, 25.3937 ], [ 93.9746, 25.3751 ], [ 93.9635, 25.336 ], [ 93.9661, 25.3014 ], [ 93.98, 25.277 ], [ 93.9967, 25.2745 ], [ 94.0112, 25.2624 ], [ 94.0105, 25.2484 ], [ 93.9907, 25.1952 ], [ 93.9764, 25.1805 ], [ 93.9739, 25.164 ], [ 93.9692, 25.1602 ], [ 93.9745, 25.1548 ], [ 93.9646, 25.1386 ], [ 93.9626, 25.1137 ], [ 93.9521, 25.1005 ], [ 93.955, 25.0959 ], [ 93.9463, 25.0892 ], [ 93.9485, 25.0854 ], [ 93.9422, 25.0791 ], [ 93.9348, 25.0796 ], [ 93.9331, 25.0855 ], [ 93.9205, 25.0848 ], [ 93.918, 25.0816 ], [ 93.9199, 25.0594 ], [ 93.9149, 25.0453 ], [ 93.8977, 25.0315 ], [ 93.89, 25.0185 ], [ 93.8851, 25.0009 ], [ 93.8692, 24.9756 ], [ 93.8628, 24.9565 ], [ 93.8447, 24.9514 ], [ 93.8411, 24.9299 ], [ 93.8323, 24.9223 ], [ 93.825, 24.8908 ], [ 93.8193, 24.887 ], [ 93.815, 24.8719 ], [ 93.805, 24.8644 ], [ 93.8093, 24.8568 ], [ 93.8064, 24.8543 ], [ 93.8079, 24.8367 ], [ 93.7849, 24.8191 ], [ 93.7849, 24.809 ], [ 93.7806, 24.8053 ], [ 93.7921, 24.775 ], [ 93.7877, 24.77 ], [ 93.7906, 24.7662 ], [ 93.7776, 24.7398 ], [ 93.7706, 24.7377 ], [ 93.7734, 24.7314 ], [ 93.7691, 24.7264 ], [ 93.7661, 24.6925 ], [ 93.7618, 24.685 ], [ 93.7532, 24.6862 ], [ 93.7489, 24.6825 ], [ 93.7459, 24.6636 ], [ 93.7487, 24.6486 ], [ 93.7213, 24.5921 ], [ 93.7142, 24.6047 ], [ 93.6971, 24.6122 ], [ 93.6839, 24.7076 ], [ 93.6619, 24.7933 ], [ 93.6762, 24.7996 ], [ 93.6919, 24.8147 ], [ 93.699, 24.8147 ], [ 93.7019, 24.8209 ], [ 93.7134, 24.8209 ], [ 93.7205, 24.8259 ], [ 93.7176, 24.8347 ], [ 93.7248, 24.8485 ], [ 93.7333, 24.8547 ], [ 93.7275, 24.8635 ], [ 93.7275, 24.8723 ], [ 93.7071, 24.8925 ], [ 93.7025, 24.9114 ], [ 93.7228, 24.9339 ], [ 93.7447, 24.9414 ], [ 93.7702, 24.9578 ], [ 93.7911, 24.9629 ], [ 93.7977, 24.9705 ], [ 93.7987, 24.9782 ], [ 93.7981, 24.9846 ], [ 93.7929, 24.9884 ], [ 93.7974, 24.9922 ], [ 93.7919, 24.9986 ], [ 93.7924, 25.0127 ], [ 93.8013, 25.0185 ], [ 93.8165, 25.0173 ], [ 93.817, 25.0287 ], [ 93.8009, 25.061 ], [ 93.795, 25.1065 ], [ 93.7807, 25.1259 ], [ 93.7757, 25.1535 ], [ 93.795, 25.17 ], [ 93.7985, 25.1853 ], [ 93.8025, 25.1851 ], [ 93.8151, 25.1998 ], [ 93.8156, 25.207 ], [ 93.8272, 25.2214 ], [ 93.8522, 25.2288 ], [ 93.8655, 25.244 ], [ 93.9022, 25.2717 ], [ 93.9277, 25.273 ], [ 93.9553, 25.2901 ], [ 93.9441, 25.2926 ], [ 93.9335, 25.3123 ], [ 93.9278, 25.3143 ], [ 93.9177, 25.3288 ], [ 93.8864, 25.3345 ], [ 93.8889, 25.3496 ], [ 93.8992, 25.3575 ], [ 93.9056, 25.3772 ], [ 93.9206, 25.3903 ], [ 93.9648, 25.3978 ] ] ] } },
{ "type": "Feature", "properties": { "unit_id": "IND.21.5.1_1", "name": "Imphal West I", "district": "Imphal West", "did": "manipur:Imphal West", "state_key": "manipur" }, "geometry": { "type": "Polygon", "coordinates": [ [ [ 93.9722, 25.0755 ], [ 93.9832, 25.0703 ], [ 93.9814, 25.0556 ], [ 93.9614, 25.0331 ], [ 93.9118, 25.0008 ], [ 93.9104, 24.9844 ], [ 93.9034, 24.9755 ], [ 93.9167, 24.9702 ], [ 93.8903, 24.9527 ], [ 93.8864, 24.9413 ], [ 93.9042, 24.9273 ], [ 93.9067, 24.945 ], [ 93.9269, 24.9661 ], [ 93.9292, 24.9634 ], [ 93.9334, 24.9657 ], [ 93.9229, 24.9548 ], [ 93.9225, 24.9233 ], [ 93.9106, 24.9007 ], [ 93.9248, 24.9044 ], [ 93.9305, 24.9031 ], [ 93.9318, 24.8968 ], [ 93.8981, 24.8619 ], [ 93.8953, 24.853 ], [ 93.9082, 24.8505 ], [ 93.9124, 24.8543 ], [ 93.9311, 24.8441 ], [ 93.9339, 24.8378 ], [ 93.9425, 24.8327 ], [ 93.937, 24.7899 ], [ 93.9241, 24.7887 ], [ 93.8811, 24.7584 ], [ 93.8624, 24.7571 ], [ 93.8566, 24.7521 ], [ 93.8522, 24.7319 ], [ 93.8392, 24.7199 ], [ 93.8206, 24.72 ], [ 93.802, 24.7313 ], [ 93.7863, 24.7301 ], [ 93.7706, 24.7377 ], [ 93.7776, 24.7398 ], [ 93.7921, 24.775 ], [ 93.7806, 24.8053 ], [ 93.7849, 24.809 ], [ 93.7849, 24.8191 ], [ 93.8079, 24.8367 ], [ 93.8064, 24.8543 ], [ 93.8093, 24.8568 ], [ 93.805, 24.8644 ], [ 93.815, 24.8719 ], [ 93.8193, 24.887 ], [ 93.825, 24.8908 ], [ 93.8323, 24.9223 ], [ 93.8411, 24.9299 ], [ 93.8447, 24.9514 ], [ 93.8628, 24.9565 ], [ 93.8692, 24.9756 ], [ 93.8851, 25.0009 ], [ 93.89, 25.0185 ], [ 93.8977, 25.0315 ], [ 93.9149, 25.0453 ], [ 93.9185, 25.0559 ], [ 93.9722, 25.0755 ] ] ] } },
{ "type": "Feature", "properties": { "unit_id": "IND.21.4.1_1", "name": "Imphal East Ii", "district": "Imphal East", "did": "manipur:Imphal East", "state_key": "manipur" }, "geometry": { "type": "Polygon", "coordinates": [ [ [ 93.9425, 24.8327 ], [ 93.9339, 24.8378 ], [ 93.9311, 24.8441 ], [ 93.9124, 24.8543 ], [ 93.9082, 24.8505 ], [ 93.8953, 24.853 ], [ 93.8981, 24.8619 ], [ 93.9318, 24.8968 ], [ 93.9333, 24.8943 ], [ 93.9434, 24.8968 ], [ 93.9508, 24.9018 ], [ 93.945, 24.9043 ], [ 93.9598, 24.9166 ], [ 93.9466, 24.9118 ], [ 93.9452, 24.9168 ], [ 93.9598, 24.9238 ], [ 93.9612, 24.9296 ], [ 93.9499, 24.9326 ], [ 93.9514, 24.9385 ], [ 93.9667, 24.937 ], [ 93.9682, 24.9324 ], [ 93.9739, 24.9308 ], [ 93.9741, 24.9219 ], [ 93.9785, 24.9172 ], [ 93.9841, 24.9226 ], [ 93.9775, 24.9405 ], [ 93.9637, 24.9462 ], [ 93.9623, 24.9499 ], [ 93.9528, 24.9514 ], [ 93.9569, 24.9544 ], [ 93.953, 24.9612 ], [ 93.9609, 24.956 ], [ 93.9675, 24.9567 ], [ 93.9757, 24.9477 ], [ 93.9908, 24.9433 ], [ 93.9914, 24.9511 ], [ 93.9969, 24.9561 ], [ 94.0074, 24.9508 ], [ 94.015, 24.9549 ], [ 94.0194, 24.9976 ], [ 93.9967, 25.0005 ], [ 94.0172, 25.0068 ], [ 94.018, 25.0186 ], [ 94.0126, 25.0326 ], [ 94.0204, 25.046 ], [ 94.0305, 25.0503 ], [ 94.0246, 25.0348 ], [ 94.0292, 25.0205 ], [ 94.0318, 25.0177 ], [ 94.0403, 25.0191 ], [ 94.0455, 25.0126 ], [ 94.0307, 25.0109 ], [ 94.0287, 25.0038 ], [ 94.0401, 25.0042 ], [ 94.047, 24.9969 ], [ 94.0376, 24.9952 ], [ 94.0324, 24.9886 ], [ 94.0413, 24.9876 ], [ 94.0434, 24.9821 ], [ 94.0357, 24.9808 ], [ 94.0308, 24.9668 ], [ 94.0451, 24.9734 ], [ 94.0437, 24.9578 ], [ 94.0614, 24.9515 ], [ 94.0502, 24.9427 ], [ 94.0652, 24.9409 ], [ 94.0572, 24.9015 ], [ 94.0618, 24.883 ], [ 94.0669, 24.88 ], [ 94.0761, 24.881 ], [ 94.0918, 24.8899 ], [ 94.0958, 24.9038 ], [ 94.1099, 24.9059 ], [ 94.1259, 24.9226 ], [ 94.126, 24.9366 ], [ 94.1291, 24.939 ], [ 94.1337, 24.9382 ], [ 94.1362, 24.9253 ], [ 94.1417, 24.9187 ], [ 94.1242, 24.9004 ], [ 94.1194, 24.8858 ], [ 94.1111, 24.8766 ], [ 94.1073, 24.8535 ], [ 94.0928, 24.8502 ], [ 94.0965, 24.831 ], [ 94.0829, 24.7969 ], [ 94.0404, 24.8041 ], [ 93.9968, 24.8171 ], [ 93.9844, 24.8245 ], [ 93.9816, 24.8157 ], [ 93.9736, 24.8179 ], [ 93.9585, 24.8151 ], [ 93.9558, 24.8239 ], [ 93.94, 24.8226 ], [ 93.9425, 24.8327 ] ] ] } },
{ "type": "Feature", "properties": { "unit_id": "IND.21.6.3_1", "name": "Saikul", "district": "Kangpokpi", "did": "manipur:Kangpokpi", "state_key": "manipur" }, "geometry": { "type": "Polygon", "coordinates": [ [ [ 94.0036, 25.1975 ], [ 94.012, 25.1946 ], [ 94.0334, 25.1939 ], [ 94.0896, 25.1768 ], [ 94.1397, 25.1897 ], [ 94.1705, 25.1841 ], [ 94.1799, 25.1737 ], [ 94.1814, 25.161 ], [ 94.1731, 25.1591 ], [ 94.174, 25.153 ], [ 94.1642, 25.1417 ], [ 94.1601, 25.1438 ], [ 94.1621, 25.1363 ], [ 94.1483, 25.1335 ], [ 94.1456, 25.1264 ], [ 94.1285, 25.1126 ], [ 94.1175, 25.0696 ], [ 94.1261, 25.0533 ], [ 94.1379, 25.0489 ], [ 94.1464, 25.0355 ], [ 94.1494, 25.0238 ], [ 94.1457, 25.001 ], [ 94.1667, 24.945 ], [ 94.173, 24.9413 ], [ 94.169, 24.939 ], [ 94.1696, 24.9215 ], [ 94.1616, 24.9159 ], [ 94.1598, 24.8878 ], [ 94.1522, 24.8843 ], [ 94.1508, 24.8749 ], [ 94.1438, 24.8725 ], [ 94.1467, 24.872 ], [ 94.1445, 24.8618 ], [ 94.1404, 24.8597 ], [ 94.1497, 24.8427 ], [ 94.1466, 24.8395 ], [ 94.1507, 24.8298 ], [ 94.1439, 24.8292 ], [ 94.1449, 24.8192 ], [ 94.1343, 24.8047 ], [ 94.1393, 24.8004 ], [ 94.1596, 24.7977 ], [ 94.1658, 24.7839 ], [ 94.1808, 24.7662 ], [ 94.1773, 24.7564 ], [ 94.179, 24.7449 ], [ 94.1734, 24.7352 ], [ 94.1878, 24.7135 ], [ 94.1877, 24.6846 ], [ 94.1824, 24.6714 ], [ 94.1972, 24.6549 ], [ 94.2002, 24.6267 ], [ 94.1739, 24.6357 ], [ 94.1607, 24.6236 ], [ 94.148, 24.6186 ], [ 94.1297, 24.6215 ], [ 94.1158, 24.632 ], [ 94.1085, 24.6495 ], [ 94.1118, 24.6501 ], [ 94.0982, 24.6694 ], [ 94.1065, 24.6773 ], [ 94.1197, 24.6792 ], [ 94.1183, 24.6817 ], [ 94.1285, 24.6893 ], [ 94.1278, 24.6928 ], [ 94.1144, 24.6967 ], [ 94.1162, 24.7002 ], [ 94.1278, 24.6988 ], [ 94.1257, 24.7023 ], [ 94.1321, 24.7072 ], [ 94.1262, 24.7236 ], [ 94.118, 24.7085 ], [ 94.1086, 24.7005 ], [ 94.0912, 24.6925 ], [ 94.0839, 24.6932 ], [ 94.0749, 24.7075 ], [ 94.0667, 24.7057 ], [ 94.0641, 24.6951 ], [ 94.0595, 24.6924 ], [ 94.0582, 24.7031 ], [ 94.066, 24.7212 ], [ 94.0566, 24.7188 ], [ 94.0598, 24.7281 ], [ 94.065, 24.7294 ], [ 94.0612, 24.7315 ], [ 94.0626, 24.741 ], [ 94.0668, 24.739 ], [ 94.0749, 24.7527 ], [ 94.0846, 24.8068 ], [ 94.0965, 24.831 ], [ 94.0928, 24.8502 ], [ 94.1073, 24.8535 ], [ 94.1111, 24.8766 ], [ 94.1194, 24.8858 ], [ 94.1242, 24.9004 ], [ 94.1417, 24.9187 ], [ 94.1362, 24.9253 ], [ 94.1337, 24.9382 ], [ 94.1291, 24.939 ], [ 94.126, 24.9366 ], [ 94.1259, 24.9226 ], [ 94.1099, 24.9059 ], [ 94.0958, 24.9038 ], [ 94.0918, 24.8899 ], [ 94.0761, 24.881 ], [ 94.0669, 24.88 ], [ 94.0618, 24.883 ], [ 94.0572, 24.9015 ], [ 94.0652, 24.9409 ], [ 94.0502, 24.9427 ], [ 94.0614, 24.9515 ], [ 94.0437, 24.9578 ], [ 94.0451, 24.9734 ], [ 94.0308, 24.9668 ], [ 94.0357, 24.9808 ], [ 94.0434, 24.9821 ], [ 94.0413, 24.9876 ], [ 94.0324, 24.9886 ], [ 94.0376, 24.9952 ], [ 94.047, 24.9969 ], [ 94.0401, 25.0042 ], [ 94.0287, 25.0038 ], [ 94.0307, 25.0109 ], [ 94.0455, 25.0126 ], [ 94.0403, 25.0191 ], [ 94.0318, 25.0177 ], [ 94.0292, 25.0205 ], [ 94.0246, 25.0348 ], [ 94.0305, 25.0503 ], [ 94.0204, 25.046 ], [ 94.0126, 25.0326 ], [ 94.018, 25.0186 ], [ 94.0172, 25.0068 ], [ 93.9967, 25.0005 ], [ 94.0194, 24.9976 ], [ 94.0121, 24.9512 ], [ 93.9969, 24.9561 ], [ 93.9914, 24.9511 ], [ 93.9908, 24.9433 ], [ 93.9757, 24.9477 ], [ 93.9675, 24.9567 ], [ 93.9609, 24.956 ], [ 93.953, 24.9612 ], [ 93.9569, 24.9544 ], [ 93.9528, 24.9514 ], [ 93.9623, 24.9499 ], [ 93.9821, 24.9341 ], [ 93.9841, 24.9226 ], [ 93.9785, 24.9172 ], [ 93.9741, 24.9219 ], [ 93.9739, 24.9308 ], [ 93.9682, 24.9324 ], [ 93.9667, 24.937 ], [ 93.9514, 24.9385 ], [ 93.9499, 24.9326 ], [ 93.9612, 24.9296 ], [ 93.9598, 24.9238 ], [ 93.9452, 24.9168 ], [ 93.9466, 24.9118 ], [ 93.9598, 24.9166 ], [ 93.945, 24.9043 ], [ 93.9508, 24.9018 ], [ 93.9333, 24.8943 ], [ 93.9305, 24.9031 ], [ 93.9106, 24.9007 ], [ 93.9225, 24.9233 ], [ 93.9229, 24.9548 ], [ 93.9334, 24.9657 ], [ 93.9292, 24.9634 ], [ 93.9269, 24.9661 ], [ 93.9067, 24.945 ], [ 93.9042, 24.9273 ], [ 93.8864, 24.9413 ], [ 93.8903, 24.9527 ], [ 93.9167, 24.9702 ], [ 93.9034, 24.9755 ], [ 93.9104, 24.9844 ], [ 93.9118, 25.0008 ], [ 93.9548, 25.0272 ], [ 93.9814, 25.0556 ], [ 93.9832, 25.0703 ], [ 93.9722, 25.0755 ], [ 93.9185, 25.0559 ], [ 93.918, 25.0816 ], [ 93.9205, 25.0848 ], [ 93.9331, 25.0855 ], [ 93.9348, 25.0796 ], [ 93.9422, 25.0791 ], [ 93.9485, 25.0854 ], [ 93.9463, 25.0892 ], [ 93.955, 25.0959 ], [ 93.9521, 25.1005 ], [ 93.9553, 25.1077 ], [ 93.9626, 25.1137 ], [ 93.9646, 25.1386 ], [ 93.9745, 25.1548 ], [ 93.9692, 25.1602 ], [ 93.9739, 25.164 ], [ 93.9764, 25.1805 ], [ 93.9855, 25.1871 ], [ 93.9967, 25.2077 ], [ 94.0036, 25.1975 ] ] ] } },
{ "type": "Feature", "properties": { "unit_id": "IND.21.6.2_1", "name": "Tadubi", "district": "Senapati", "did": "manipur:Senapati", "state_key": "manipur" }, "geometry": { "type": "Polygon", "coordinates": [ [ [ 94.1865, 25.526 ], [ 94.2026, 25.5091 ], [ 94.2006, 25.4893 ], [ 94.1817, 25.4722 ], [ 94.1727, 25.425 ], [ 94.1383, 25.3898 ], [ 94.1348, 25.3734 ], [ 94.1364, 25.3501 ], [ 94.1532, 25.3246 ], [ 94.1595, 25.3022 ], [ 94.1708, 25.295 ], [ 94.188, 25.288 ], [ 94.2115, 25.2849 ], [ 94.239, 25.2715 ], [ 94.2775, 25.261 ], [ 94.2956, 25.2495 ], [ 94.2814, 25.2394 ], [ 94.2555, 25.2283 ], [ 94.248, 25.2095 ], [ 94.2428, 25.2037 ], [ 94.2254, 25.1959 ], [ 94.2188, 25.1825 ], [ 94.2048, 25.1765 ], [ 94.1925, 25.1766 ], [ 94.1817, 25.1683 ], [ 94.1705, 25.1841 ], [ 94.1522, 25.1881 ], [ 94.1324, 25.1887 ], [ 94.0896, 25.1768 ], [ 94.0605, 25.1875 ], [ 94.0036, 25.1975 ], [ 93.9967, 25.2077 ], [ 94.0105, 25.2484 ], [ 94.0112, 25.2624 ], [ 93.9967, 25.2745 ], [ 93.98, 25.277 ], [ 93.9661, 25.3014 ], [ 93.9635, 25.336 ], [ 93.9746, 25.3751 ], [ 93.9737, 25.3937 ], [ 93.97, 25.398 ], [ 93.9648, 25.3978 ], [ 93.9206, 25.3903 ], [ 93.9135, 25.4046 ], [ 93.8894, 25.4221 ], [ 93.8301, 25.4274 ], [ 93.8191, 25.461 ], [ 93.8052, 25.4616 ], [ 93.8101, 25.4807 ], [ 93.8039, 25.4916 ], [ 93.7935, 25.5004 ], [ 93.7847, 25.5025 ], [ 93.7697, 25.4939 ], [ 93.7621, 25.496 ], [ 93.7606, 25.5116 ], [ 93.7656, 25.5138 ], [ 93.767, 25.5364 ], [ 93.7758, 25.5341 ], [ 93.816, 25.5404 ], [ 93.8214, 25.552 ], [ 93.8296, 25.5524 ], [ 93.8328, 25.5591 ], [ 93.8585, 25.5535 ], [ 93.8882, 25.5643 ], [ 93.9397, 25.5592 ], [ 93.9614, 25.5523 ], [ 93.9766, 25.5669 ], [ 93.9967, 25.5695 ], [ 94.0065, 25.5669 ], [ 94.0038, 25.5866 ], [ 94.0109, 25.5918 ], [ 94.0216, 25.589 ], [ 94.031, 25.5771 ], [ 94.0352, 25.5786 ], [ 94.0397, 25.573 ], [ 94.0421, 25.5765 ], [ 94.0502, 25.5723 ], [ 94.0654, 25.5545 ], [ 94.0819, 25.5552 ], [ 94.0921, 25.5371 ], [ 94.088, 25.5282 ], [ 94.102, 25.5243 ], [ 94.1346, 25.519 ], [ 94.1441, 25.527 ], [ 94.1488, 25.5431 ], [ 94.156, 25.5505 ], [ 94.1638, 25.5423 ], [ 94.1786, 25.5485 ], [ 94.1907, 25.5476 ], [ 94.1865, 25.526 ] ] ] } },
{ "type": "Feature", "properties": { "unit_id": "IND.21.6.2_1", "name": "Mao East", "district": "Senapati", "did": "manipur:Senapati", "state_key": "manipur" }, "geometry": { "type": "Polygon", "coordinates": [ [ [ 94.4832, 25.5966 ], [ 94.4669, 25.583 ], [ 94.4607, 25.555 ], [ 94.4298, 25.5099 ], [ 94.416, 25.4717 ], [ 94.4188, 25.4669 ], [ 94.4022, 25.4487 ], [ 94.3904, 25.4228 ], [ 94.3827, 25.4216 ], [ 94.3856, 25.4177 ], [ 94.3791, 25.4087 ], [ 94.383, 25.4035 ], [ 94.3747, 25.3884 ], [ 94.3773, 25.3577 ], [ 94.359, 25.3401 ], [ 94.3447, 25.3145 ], [ 94.336, 25.3079 ], [ 94.323, 25.2788 ], [ 94.2956, 25.2495 ], [ 94.2775, 25.261 ], [ 94.239, 25.2715 ], [ 94.2115, 25.2849 ], [ 94.1757, 25.2919 ], [ 94.1595, 25.3022 ], [ 94.1532, 25.3246 ], [ 94.1364, 25.3501 ], [ 94.1354, 25.3814 ], [ 94.1412, 25.3933 ], [ 94.1727, 25.425 ], [ 94.1817, 25.4722 ], [ 94.186, 25.4787 ], [ 94.1994, 25.4867 ], [ 94.2027, 25.5068 ], [ 94.2087, 25.5033 ], [ 94.2106, 25.4954 ], [ 94.2248, 25.4911 ], [ 94.2478, 25.4941 ], [ 94.2529, 25.4984 ], [ 94.2698, 25.498 ], [ 94.2824, 25.5067 ], [ 94.2983, 25.4896 ], [ 94.3091, 25.4894 ], [ 94.3246, 25.5032 ], [ 94.3603, 25.5163 ], [ 94.3841, 25.5313 ], [ 94.4064, 25.5382 ], [ 94.4158, 25.5373 ], [ 94.4219, 25.5561 ], [ 94.418, 25.5707 ], [ 94.4256, 25.5874 ], [ 94.4434, 25.5927 ], [ 94.4696, 25.6162 ], [ 94.4867, 25.6144 ], [ 94.489, 25.6089 ], [ 94.4832, 25.5966 ] ] ] } },
{ "type": "Feature", "properties": { "unit_id": "IND.21.9.1_1", "name": "Ukhrul North", "district": "Ukhrul", "did": "manipur:Ukhrul", "state_key": "manipur" }, "geometry": { "type": "Polygon", "coordinates": [ [ [ 94.5925, 25.6813 ], [ 94.5808, 25.6692 ], [ 94.5807, 25.6562 ], [ 94.5723, 25.6472 ], [ 94.5716, 25.6391 ], [ 94.5824, 25.6409 ], [ 94.5906, 25.6382 ], [ 94.5792, 25.6288 ], [ 94.5511, 25.5802 ], [ 94.557, 25.5727 ], [ 94.5558, 25.5623 ], [ 94.56, 25.5623 ], [ 94.5527, 25.5071 ], [ 94.5699, 25.4995 ], [ 94.5861, 25.484 ], [ 94.6281, 25.4598 ], [ 94.6611, 25.4494 ], [ 94.6803, 25.454 ], [ 94.6712, 25.4429 ], [ 94.6729, 25.4246 ], [ 94.6596, 25.4058 ], [ 94.649, 25.4064 ], [ 94.6346, 25.395 ], [ 94.632, 25.3816 ], [ 94.6346, 25.3579 ], [ 94.6296, 25.3493 ], [ 94.6224, 25.346 ], [ 94.6183, 25.3304 ], [ 94.6062, 25.3146 ], [ 94.606, 25.3064 ], [ 94.5846, 25.2662 ], [ 94.5894, 25.2546 ], [ 94.5827, 25.224 ], [ 94.5691, 25.2256 ], [ 94.5533, 25.2208 ], [ 94.519, 25.221 ], [ 94.4468, 25.1921 ], [ 94.4233, 25.1872 ], [ 94.4105, 25.1887 ], [ 94.3914, 25.2036 ], [ 94.3775, 25.2233 ], [ 94.3137, 25.2678 ], [ 94.3556, 25.336 ], [ 94.3773, 25.3577 ], [ 94.3747, 25.3884 ], [ 94.383, 25.4035 ], [ 94.3791, 25.4087 ], [ 94.3856, 25.4177 ], [ 94.3827, 25.4216 ], [ 94.3904, 25.4228 ], [ 94.4022, 25.4487 ], [ 94.4188, 25.4669 ], [ 94.416, 25.4717 ], [ 94.4298, 25.5099 ], [ 94.4607, 25.555 ], [ 94.4669, 25.583 ], [ 94.4832, 25.5966 ], [ 94.489, 25.6089 ], [ 94.4974, 25.6146 ], [ 94.5009, 25.6115 ], [ 94.5033, 25.6135 ], [ 94.5042, 25.6214 ], [ 94.5197, 25.6379 ], [ 94.5262, 25.6371 ], [ 94.5271, 25.6446 ], [ 94.5351, 25.6456 ], [ 94.5473, 25.6569 ], [ 94.5686, 25.6921 ], [ 94.5911, 25.6857 ], [ 94.5925, 25.6813 ] ] ] } },
{ "type": "Feature", "properties": { "unit_id": "IND.21.9.5_1", "name": "Ukhrul Central", "district": "Ukhrul", "did": "manipur:Ukhrul", "state_key": "manipur" }, "geometry": { "type": "Polygon", "coordinates": [ [ [ 94.4233, 25.1872 ], [ 94.4468, 25.1921 ], [ 94.519, 25.221 ], [ 94.5533, 25.2208 ], [ 94.5691, 25.2256 ], [ 94.5827, 25.224 ], [ 94.5756, 25.2141 ], [ 94.5818, 25.2111 ], [ 94.5919, 25.1928 ], [ 94.6036, 25.1864 ], [ 94.6056, 25.1815 ], [ 94.6204, 25.1865 ], [ 94.6394, 25.1666 ], [ 94.6486, 25.1682 ], [ 94.6646, 25.1627 ], [ 94.68, 25.1493 ], [ 94.6892, 25.1578 ], [ 94.6967, 25.1549 ], [ 94.7029, 25.1454 ], [ 94.7151, 25.1381 ], [ 94.7366, 25.1348 ], [ 94.7407, 25.1204 ], [ 94.7365, 25.1112 ], [ 94.7299, 25.1093 ], [ 94.6683, 25.1096 ], [ 94.6111, 25.1003 ], [ 94.5975, 25.0951 ], [ 94.5748, 25.0807 ], [ 94.5514, 25.0542 ], [ 94.5145, 25.0319 ], [ 94.4686, 25.0242 ], [ 94.462, 25.0247 ], [ 94.4484, 25.0336 ], [ 94.4298, 25.0326 ], [ 94.4176, 25.0275 ], [ 94.3801, 25.0293 ], [ 94.368, 25.0268 ], [ 94.3449, 25.0013 ], [ 94.339, 24.9881 ], [ 94.314, 24.976 ], [ 94.2912, 24.9719 ], [ 94.264, 24.9722 ], [ 94.2278, 24.961 ], [ 94.2281, 24.9565 ], [ 94.1995, 24.9438 ], [ 94.1904, 24.9471 ], [ 94.173, 24.9413 ], [ 94.1667, 24.945 ], [ 94.1457, 25.001 ], [ 94.1494, 25.0238 ], [ 94.1464, 25.0355 ], [ 94.1379, 25.0489 ], [ 94.1261, 25.0533 ], [ 94.1175, 25.0696 ], [ 94.1285, 25.1126 ], [ 94.1456, 25.1264 ], [ 94.1483, 25.1335 ], [ 94.1621, 25.1363 ], [ 94.1601, 25.1438 ], [ 94.1642, 25.1417 ], [ 94.174, 25.153 ], [ 94.1731, 25.1591 ], [ 94.1814, 25.161 ], [ 94.1795, 25.1672 ], [ 94.1925, 25.1766 ], [ 94.2048, 25.1765 ], [ 94.2188, 25.1825 ], [ 94.2254, 25.1959 ], [ 94.2428, 25.2037 ], [ 94.248, 25.2095 ], [ 94.2555, 25.2283 ], [ 94.2814, 25.2394 ], [ 94.3137, 25.2678 ], [ 94.3775, 25.2233 ], [ 94.3914, 25.2036 ], [ 94.4105, 25.1887 ], [ 94.4233, 25.1872 ] ] ] } },
{ "type": "Feature", "properties": { "unit_id": "IND.21.9.4_1", "name": "Phungyar", "district": "Kamjong", "did": "manipur:Kamjong", "state_key": "manipur" }, "geometry": { "type": "Polygon", "coordinates": [ [ [ 94.1995, 24.9438 ], [ 94.2281, 24.9565 ], [ 94.2278, 24.961 ], [ 94.264, 24.9722 ], [ 94.2912, 24.9719 ], [ 94.314, 24.976 ], [ 94.339, 24.9881 ], [ 94.3449, 25.0013 ], [ 94.368, 25.0268 ], [ 94.4092, 25.0283 ], [ 94.3915, 25.0164 ], [ 94.3795, 25.0014 ], [ 94.3763, 24.9707 ], [ 94.3904, 24.953 ], [ 94.3926, 24.9307 ], [ 94.3833, 24.9184 ], [ 94.3911, 24.8817 ], [ 94.4052, 24.8637 ], [ 94.4125, 24.8428 ], [ 94.4209, 24.8419 ], [ 94.4242, 24.8302 ], [ 94.4437, 24.8193 ], [ 94.4479, 24.8077 ], [ 94.456, 24.7993 ], [ 94.4469, 24.7912 ], [ 94.453, 24.7876 ], [ 94.458, 24.7647 ], [ 94.4688, 24.7422 ], [ 94.4678, 24.7279 ], [ 94.4491, 24.7209 ], [ 94.4446, 24.6971 ], [ 94.4376, 24.6913 ], [ 94.443, 24.6798 ], [ 94.4399, 24.6733 ], [ 94.4465, 24.6627 ], [ 94.443, 24.6599 ], [ 94.4278, 24.6675 ], [ 94.4198, 24.6642 ], [ 94.4182, 24.66 ], [ 94.4089, 24.66 ], [ 94.3902, 24.6414 ], [ 94.3744, 24.6392 ], [ 94.3665, 24.6523 ], [ 94.3752, 24.6587 ], [ 94.3721, 24.6649 ], [ 94.3757, 24.6685 ], [ 94.3656, 24.6811 ], [ 94.3677, 24.6874 ], [ 94.3592, 24.6913 ], [ 94.3482, 24.6872 ], [ 94.3375, 24.6893 ], [ 94.3307, 24.7094 ], [ 94.3363, 24.723 ], [ 94.3266, 24.7218 ], [ 94.3099, 24.7448 ], [ 94.2974, 24.7525 ], [ 94.2955, 24.7599 ], [ 94.2847, 24.7653 ], [ 94.2859, 24.7795 ], [ 94.2825, 24.7797 ], [ 94.2803, 24.7874 ], [ 94.2764, 24.7886 ], [ 94.2684, 24.7828 ], [ 94.2458, 24.7918 ], [ 94.2329, 24.8087 ], [ 94.2207, 24.8146 ], [ 94.1889, 24.8184 ], [ 94.1758, 24.8108 ], [ 94.1343, 24.8053 ], [ 94.1449, 24.8192 ], [ 94.1439, 24.8292 ], [ 94.1507, 24.8298 ], [ 94.1466, 24.8395 ], [ 94.1497, 24.8427 ], [ 94.1404, 24.8597 ], [ 94.1445, 24.8618 ], [ 94.1467, 24.872 ], [ 94.1438, 24.8725 ], [ 94.1508, 24.8749 ], [ 94.1522, 24.8843 ], [ 94.1598, 24.8878 ], [ 94.1616, 24.9159 ], [ 94.1696, 24.9215 ], [ 94.169, 24.939 ], [ 94.1904, 24.9471 ], [ 94.1995, 24.9438 ] ] ] } },
{ "type": "Feature", "properties": { "unit_id": "IND.21.9.2_1", "name": "Kamjong", "district": "Kamjong", "did": "manipur:Kamjong", "state_key": "manipur" }, "geometry": { "type": "Polygon", "coordinates": [ [ [ 94.7059, 24.9864 ], [ 94.6966, 24.9685 ], [ 94.6967, 24.9596 ], [ 94.7134, 24.9344 ], [ 94.7102, 24.9289 ], [ 94.7019, 24.9294 ], [ 94.6879, 24.8881 ], [ 94.6795, 24.8843 ], [ 94.674, 24.8751 ], [ 94.6573, 24.8711 ], [ 94.6485, 24.8606 ], [ 94.6505, 24.8552 ], [ 94.6319, 24.8395 ], [ 94.6297, 24.803 ], [ 94.6186, 24.7798 ], [ 94.6294, 24.757 ], [ 94.6127, 24.7402 ], [ 94.6051, 24.7123 ], [ 94.5851, 24.7054 ], [ 94.5782, 24.7117 ], [ 94.5794, 24.7237 ], [ 94.5728, 24.7129 ], [ 94.5497, 24.7128 ], [ 94.5531, 24.6828 ], [ 94.5445, 24.6449 ], [ 94.5292, 24.618 ], [ 94.4922, 24.5746 ], [ 94.4668, 24.5616 ], [ 94.4442, 24.5853 ], [ 94.4394, 24.5863 ], [ 94.4399, 24.5917 ], [ 94.4477, 24.59 ], [ 94.4479, 24.5953 ], [ 94.4383, 24.6001 ], [ 94.4437, 24.6033 ], [ 94.4433, 24.6111 ], [ 94.4516, 24.6253 ], [ 94.4431, 24.6336 ], [ 94.4357, 24.6321 ], [ 94.4454, 24.6485 ], [ 94.4407, 24.6472 ], [ 94.4379, 24.6523 ], [ 94.4465, 24.6627 ], [ 94.4399, 24.6733 ], [ 94.443, 24.6798 ], [ 94.4376, 24.6913 ], [ 94.4446, 24.6971 ], [ 94.4491, 24.7209 ], [ 94.4678, 24.7279 ], [ 94.4688, 24.7422 ], [ 94.458, 24.7647 ], [ 94.453, 24.7876 ], [ 94.4469, 24.7912 ], [ 94.456, 24.7993 ], [ 94.4479, 24.8077 ], [ 94.4437, 24.8193 ], [ 94.4242, 24.8302 ], [ 94.4209, 24.8419 ], [ 94.4125, 24.8428 ], [ 94.4052, 24.8637 ], [ 94.3911, 24.8817 ], [ 94.3833, 24.9184 ], [ 94.3932, 24.9348 ], [ 94.3904, 24.953 ], [ 94.3763, 24.9707 ], [ 94.3795, 25.0014 ], [ 94.3915, 25.0164 ], [ 94.4092, 25.0283 ], [ 94.4484, 25.0336 ], [ 94.462, 25.0247 ], [ 94.4686, 25.0242 ], [ 94.5256, 25.0365 ], [ 94.5514, 25.0542 ], [ 94.5845, 25.0888 ], [ 94.6111, 25.1003 ], [ 94.6683, 25.1096 ], [ 94.7365, 25.1112 ], [ 94.7449, 25.0806 ], [ 94.7379, 25.0654 ], [ 94.7447, 25.06 ], [ 94.7442, 25.0373 ], [ 94.7277, 25.0102 ], [ 94.7268, 24.9998 ], [ 94.7059, 24.9864 ] ] ] } }
]
}
